Store Name,Address,City,State,Country,Zip Code,Phone Number,Wi-Fi,Wheelchair Access,Members Club,Store Type,Latitude,Longitude
Your Awesome Store #14369,8681 S Alameda,Los Angeles,California,United States,90002,(323)583-3266,N,Y,Y,Airport,,
Four Seasons Pottery,336 Hammond Dr NE,Atlanta,GA,United States,30328-5046,(404)252-3411,N,,,,,
WILD BIRDS UNLIMITED,"1050 E. Piedmont Rd, Suite 144",Marietta,GA,United States,30062,(770)565-9841,N,,,,,
Live Oak Orchids,14045 Abercorn St.,Savannah,GA,United States,31419,(912)961-7455,N,,,,,
Wild Bird Adventures,"3599 Atlanta Rd, Suite 10A",Smyrna,GA,United States,30080,(770)434-6191,N,,,,,
Better Ponds & Gardens,147 Gary L. Moore Court,St. Simons Island,GA,United States,31522,(912)634-9162,N,,,,,
Hinman Pool Supply,2361 Lake Park Dr,Albany,GA,United States,31707,(229)883-7200,N,,,,,
LESLIE'S POOL- GA #43,263 Hilderbrand Drive NE,Atlanta,GA,United States,30328-3907,(404)257-1986,N,,,,,
Jeff's Pool and Spa Service,170 Key Circle Dr.,Brunswick,GA,United States,31520,(912)554-0636,N,,,,,
HOME DEPOT - BRUNSWICK #141,200 Altama Connector,Brunswick,GA,United States,31520,(912)264-2025,N,,,,,
Pristine Water,166 Key Circle Dr,Brunswick,GA,United States,31520,(912)264-9233,N,,,,,
Cline Pools,1326 1/2 Hwy 41 S,Calhoun,GA,United States,30701,(706)625-8812,N,,,,,
"Lusk Leisure Products, Inc",8521A Knox Bridge Hwy,Canton,GA,United States,30114,(770)479-9579,N,,,,,
Rivers Pools,2952 Hwy 27 S,Carrollton,GA,United States,30117,(770)262-8486,N,,,,,
Dacula Pool Service,2384 Winder Hwy,Dacula,GA,United States,30019,(770)339-9535,N,,,,,
Luau Pools,1315 E WALNUT AVE,DALTON,GA,United States,30721-4152,(706)278-0520,N,,,,,
Atlas Pools,6100 Peachtree Ind. Blvd,Doaville,GA,United States,30360,(770)451-3700,N,,,,,
"Brown's Pool & Spas, Inc",3472 Hwy 5,Douglasville,GA,United States,30135,(770)942-0118,N,,,,,
"LT Pool Service, Inc",4789 Hwy 5,Douglasville,GA,United States,30135,(770)949-2295,N,,,,,
PE ALEWINE POOLS,4470 Washington Rd,Evans,GA,United States,30809,(760)863-1207,N,,,,,
LaGrange Pool & Spa,216 Bull St,LaGrange,GA,United States,30240,(706)883-8147,N,,,,,
Starling Pools,2222 West Point Rd,LaGrange,GA,United States,30240,(706)884-1799,N,,,,,
Leslie's Pool- GA #118,555 Indian Trail Road NW,Lilburn,GA,United States,30247,(770)921-9013,N,,,,,
Hampton Pools,230 John Frank Ward Blvd,McDonough,GA,United States,30253,(678)432-9993,N,,,,,
Sharp Pools & Spas,921 West Spring Street,Monroe,GA,United States,30655,(770)207-7539,N,,,,,
"Paradise Pool & Patio, Inc",50 Veterans Parkway S,Moultrie,GA,United States,31788,(229)985-1125,N,,,,,
HOME DEPOT - POOLER #179,190 Pooler Pkwy,Pooler,GA,United States,31322,(912)748-1642,N,,,,,
HOME DEPOT - SAVANNAH #122,11180 Abercorn St.,Savannah,GA,United States,31419,(912)921-0158,N,,,,,
HOME DEPOT - EAST SAVANNAH #170,1901 E. Victory Dr.,Savannah,GA,United States,31404,(912)352-3562,N,,,,,
"Thompson Pool & Supply Co., Inc",29 N Zetterower Ave,Statesboro,GA,United States,30458,(912)764-3442,N,,,,,
"Georgia Pool Supply, Inc",1704 Hudson Bridge Rd,Stockbridge,GA,United States,30281,(770)507-2258,N,,,,,
Georgia Pools,209 Hwy 123,Toccoa,GA,United States,30577,(706)886-6303,N,,,,,
MID STATE POOLS & SPAS,540 S Houston Lake Road,Warner Robins,GA,United States,31088,(478)953-7300,N,,,,,
Woodard Pools,611 Memorial Dr,Waycross,GA,United States,31501,(912)283-6126,N,,,,,
The Wishing Well,341 Cotton Row,Cleveland,MS,United States,38732,(662)843-7881,N,,,,,
FOUR SEASONS GARDEN ART,2029 Utica Road,Crystal Springs,MS,United States,39059,(601)892-9013,N,,,,,
Live Oak,169 Homochitto Street,Natchez,MS,United States,39120,(601)445-8203,N,,,,,
"Paul Bounds, Inc.",401 S. Main,Picayune,MS,United States,39466,(601)798-3753,N,,,,,
HOME DEPOT - BILOXI #2910,1680 Elizabeth Blvd.,Biloxi,MS,United States,39532,(228)354-8872,N,,,,,
HOME DEPOT - BROOKHAVEN #2913,101 Stribling Rd.,Brookhaven,MS,United States,39601,(601)833-2696,N,,,,,
HOME DEPOT - CLINTON #2917,5000 Hampstead Blvd.,Clinton,MS,United States,39056,(601)924-1332,N,,,,,
Modern Pool & Spa Inc,415 WILKINS WISE RD,COLUMBUS,MS,United States,39705,(662)327-6724,N,,,,,
AQUA BLUE,513 Liberty Rd Suite 1A,Flowood,MS,United States,39232,(601)362-6773,N,,,,,
CLEARWATER POOLS OF MISSISSIPPI,11296 Lorraine Rd.,Gulfport,MS,United States,39503,(228)832-9909,N,,,,,
HOME DEPOT - GULFPORT #2901,15220 Creosote Rd.,Gulfport,MS,United States,39503,(228)867-9925,N,,,,,
DIBS Supply Co,542 Pass Road,Gulfport,MS,United States,39507,(228)865-9685,N,,,,,
HOME DEPOT - HATTIESBURG #2905,4100 O'Ferrell St.,Hattiesburg,MS,United States,39402,(601)296-1098,N,,,,,
Leslie's Pool- MS #454,"1039 Easy Country Line Rd,. Ste 104",Jackson,MS,United States,39211,(601)991-3228,N,,,,,
Miles Pool Supplies,3724 Hwy 15 N,LAUREL,MS,United States,39440,(601)649-7665,N,,,,,
F.R. Blankenstein Co.,P.O. Box 986,Natchez,MS,United States,39121,(601)445-5618,N,,,,,
DEEP SOUTH POOL & SPA,1504 Bienville Blvd.,Ocean Springs,MS,United States,39564,(228)875-8917,N,,,,,
HOME DEPOT - PICAYUNE #2915,2000 Hwy 43 South,Picayune,MS,United States,39466,(601)749-2180,N,,,,,
"Statewide Pools, INC",P.O. Box 715,SUMMIT,MS,United States,39666,(601)276-7450,N,,,,,
SWIMMING POOLS OF TUPELO,1215 Nelle Street,Tupelo,MS,United States,38801,(662)842-8009,N,,,,,
Backyard Pools Wholesale,1292 N Veterans Blvd,Tupelo,MS,United States,38804,(662)842-2728,N,,,,,
Pools & More,134 Old Hwy 98 W,Tylertown,MS,United States,39667,(601)222-1515,N,,,,,
SPECIALTY LIVING,229 Airport Road Suite 7-147,Arden,NC,United States,28729,(828)651-9910,N,,,,,
Wild Birds Unlimited,1997 Hendersonville Road,Asheville,NC,United States,28803,(828)687-9433,N,,,,,
"STAR RIDGE AQUATIC, LLC",180 Star Ridge Road,Carthage,NC,United States,28327,(910)947-5333,N,,,,,
GARDEN SUPPLY COMPANY,1421 Old Apex Rd,Cary,NC,United States,27513-5255,(919)460-7747,N,,,,,
The Cement Barn,215 Bullard Lane,Cerro Gordo,NC,United States,28430,(910)654-4833,N,,,,,
Exterior Accents,"7140 Weddinton Rd., Ste. 132",Concord,NC,United States,28027,(704)508-8000,N,,,,,
WHITEHOUSE GARDENS,18955 West Catawba Ave,Cornelius,NC,United States,28031,(704)896-9866,N,,,,,
Pitt Greenville Airport,400 Airport Road,Greenville,NC,United States,27835,(252)758-4707,N,,,,,
Herzog Veneers Inc.,2100 Dunmore Court,High Point,NC,United States,27263,(336)434-4053,N,,,,,
Paradise Cafe,102 Jordan Blvd.,Holden Beach,NC,United States,28462,(910)842-4999,N,,,,,
Forever Green Landscape Nursery,16008 Old Statesville Road,Huntersville,NC,United States,28078,(704)875-1810,N,,,,,
Day Interprises Inc.,1912 South Ridge Ave,Kanapolis,NC,United States,28083,(704)933-2218,N,,,,,
Logan Trading Company,707 Semart Drive,Raleigh,NC,United States,27604-1158,(919)828-5337,N,,,,,
Serenity Resources,P.O. Box 386,Rutherford College,NC,United States,28671,(828)879-9121,N,,,,,
DEWAYNE'S  INC.,1575 Industrial Park Drive,Selma,NC,United States,27576,(919)202-8471,N,,,,,
SOUND MEDICAL SUPPLY,1930 Oleander Dr.,Wilmington,NC,United States,28403,(910)399-3060,N,,,,,
Hot Springs Pools & Spas,221 Airport Rd,Arden,NC,United States,28704,(828)687-8080,N,,,,,
Leslie's Pool- NC #94,4402 E Independence Blvd,Charlotte,NC,United States,28205,(704)532-5758,N,,,,,
S & H Pools,3500 Bethany Church Road,Claremont,NC,United States,28610-950,(828)464-5613,N,,,,,
Pool Supplies Unlimited,P.O. Box 494,Ellenbord,NC,United States,28040,(828)453-8081,N,,,,,
Spa & Pool World,P.O. Box 29,Fayetteville,NC,United States,28303-3848,(910)868-8319,N,,,,,
K & B Pools & Spas,2712 Graves Dr,Goldsboro,NC,United States,27534,(919)759-0203,N,,,,,
"Hampstead Pool, Spa & Patio Inc",16641 US Hwy 17 N,Hampstead,NC,United States,28443,(910)270-1199,N,,,,,
Havelock Pool & Spa,269 Hwy 70 West,Havelock,NC,United States,28532,(252)463-3731,N,,,,,
"Holiday Pools & Fireside, Inc",P.O. Box 1066,Hudson,NC,United States,28638,(828)396-7665,N,,,,,
"Innovative Pool Designs, Inc",P.O. Box 635,Kings Mountain,NC,United States,28086,(704)739-5719,N,,,,,
Parnell Pool & Spa,1573 N. Roberts Avenue,Lumberton,NC,United States,28358-2279,(910)738-8110,N,,,,,
Water World,5558 Hwy 70,Newport,NC,United States,28570,(252)726-7428,N,,,,,
LESLIE'S POOL- NC,6641 FALLS OF NEUSE RD,Raleigh,NC,United States,27615-6816,(919)845-6544,N,,,,,
SUN FUN POOL COMPANY,117 E. Broad Street,Statesville,NC,United States,28677-5853,(704)873-2321,N,,,,,
Ocean Blue Pools and Spas,6821 Market St,Wilmington,NC,United States,28405,(910)799-3022,N,,,,,
SUNSHINE NURSERY,38 Plantation Park Dr.,Bluffton,SC,United States,29910,(843)757-7256,N,,,,,
WOODLEY'S GARDEN CENTER,10015 Two Notch Rd,Columbia,SC,United States,29223-4389,(803)788-1487,N,,,,,
WOODLEY'S GARDEN CENTER,2840 Dreher Shoals Road,Columbia,SC,United States,29212,(803)407-0601,N,,,,,
CAROLINA FOUNTAINS,1974B Whiting Way,Lugoff,SC,United States,29078,(803)438-4043,N,,,,,
TRUE BLUE NURSERY,9532 Ocean Highway,Pawleys Island,SC,United States,29585,(843)237-7012,N,,,,,
"Zone 7 Nursery, Inc",410 Sheepfarm Rd.,Seneca,SC,United States,29672,(864)882-7771,N,,,,,
Wild Birds Unlimited,401 E Kennedy St,Spartanburg,SC,United States,29302,(864)585-0409,N,,,,,
Matthew Ward Landscapes,167 Old Parsonage Rd.,Summerville,SC,United States,29483,(843)695-1193,N,,,,,
Simpson Ace Hardware #561,320 West Liberty,Sumter,SC,United States,29150,(803)773-9381,N,,,,,
HOME DEPOT - BLUFFTON #1115,20 Gateway Village Rd.,Bluffton,SC,United States,29910,(843)815-7000,N,,,,,
LESLIE'S POOL- SC #366,7370 Two Notch Rd.,Columbia,SC,United States,29223-7620,(803)865-7338,N,,,,,
Alltrade,1105 McCormick Hwy,Greenwood,SC,United States,29646,(864)229-7665,N,,,,,
L&L LANDSCAPING & POOLS,4061 Belle Terre Blvd,Myrtle Beach,SC,United States,29579,(843)236-5665,N,,,,,
"Seaside Pools & Spas, Inc",13313 Ocean Hwy Unit 2,Pawleys Island,SC,United States,29585,(843)279-0200,N,,,,,
B & B Pools By Jerry Bowers,8873 Augusta Blvd.,Pelzer,SC,United States,29669-9310,(864)243-9349,N,,,,,
Imperial Pool & Patio,975 N Anderson Rd,Rock Hill,SC,United States,29730,(803)366-8111,N,,,,,
HOME DEPOT - SUMMERVILLE #1120,190 Marymeade Dr.,Summerville,SC,United States,29483,(843)851-0468,N,,,,,
"Waterworks Company, LLC",1236 Alice Drive,Sumpter,SC,United States,29150,(803)469-6617,N,,,,,
"American Pools & Spas, Inc",2225 Platt Springs Rd.,West Columbia,SC,United States,29169,(803)796-8339,N,,,,,
LESLIES POOL- TX,6330 W Hwy 290,Austin,TX,United States,78735,(512)892-4947,N,,,,,
LESLIE'S POOL- TX,"14010 N. Hwy 183, Ste 440",Austin,TX,United States,78717,(512)401-4947,N,,,,,
LESLIE'S POOL- TX #220,"4211 S Lamar Blvd, Ste A25",Austin,TX,United States,78704,(512)462-1194,N,,,,,
Leslie's Pool- TX #230,13450 Research Blvd. Ste 236A,Austin,TX,United States,78750,(512)257-2125,N,,,,,
LESLIE'S POOL- TX #3029,10405 Metric Blvd. Ste. C,Austin,TX,United States,78758,(512)832-0091,N,,,,,
Leslie's Pool- TX #39,6326 Burnet Road,Austin,TX,United States,78757,(512)451-0482,N,,,,,
Leslie's Pool-TX #,"701 S. Capital of TX Hwy,#B-240",Austin,TX,United States,78746,(512)306-1144,N,,,,,
Leslie's Pool- TX #369,4525 Garth Rd,Baytown,TX,United States,77521,(281)428-5887,N,,,,,
LESLIE'S POOL- TX #434,3939 Dowlen Road Ste.1,Beaumont,TX,United States,77706,(409)347-1819,N,,,,,
LESLIE'S POOL- TX #757,5904 Eastex Fwy,Beaumont,TX,United States,77708,(409)896-2580,N,,,,,
LESLIE'S POOL- TX #676,12918 Shops Pkwy,Bee Cave,TX,United States,78738,(512)263-0230,N,,,,,
Leslie's Pool- TX #481,2451 Pablo Kisel Blvd Ste 4,Brownsville,TX,United States,78526,(956)546-8470,N,,,,,
LESLIES POOL- TX,401 W Whitestone Blvd,Cedar Park,TX,United States,78613,(512)996-8662,N,,,,,
LESLIES POOL- TX,1302 W Davis St,Conroe,TX,United States,77304,(936)441-0100,N,,,,,
LESLIE'S POOL- TX #461,19189 Interstate 45 S G,Conroe,TX,United States,77385,(602)366-3999,N,,,,,
Leslie's Pool- TX #69,5425 S Padre Island Dr Ste. 111,Corpus Christi,TX,United States,78411,(361)991-4486,N,,,,,
Leslie's Pool- TX #584,"26084 US290 W, Suite 165",Cypress,TX,United States,77429,(281)758-0772,N,,,,,
LESLIE'S POOL- TX #682,1013 W UNIVERSITY AVE,Georgetown,TX,United States,78628,(512)868-2680,N,,,,,
Leslie's Commercial Center- TX,3780 WestChase Dr,Houston,TX,United States,70042,(832)338-0761,N,,,,,
LESLIE'S POOL- TX  #3014,18209 Chisholm Trail Ste.103,Houston,TX,United States,77060,(281)821-9501,N,,,,,
LESLIE'S POOL- TX #1001,9770 Katy Fwy #600,Houston,TX,United States,77055,(713)465-7444,N,,,,,
Leslie's Pool- TX #145,10723 Jones Road,Houston,TX,United States,77065,(281)955-5085,N,,,,,
Leslie's Pool- TX #205,14654 Memorial Drive,Houston,TX,United States,77079,(281)679-5039,N,,,,,
LESLIE'S POOL- TX #22,9401 Katy Freeway Ste. C,Houston,TX,United States,77024,(713)932-0162,N,,,,,
Leslie's Pool- TX #247,5610 Fm 1960 West,Houston,TX,United States,77069,(281)537-6880,N,,,,,
LESLIE'S POOL- TX #260,3143 W Holcombe Blvd,Houston,TX,United States,77025,(713)661-5544,N,,,,,
Leslie's Pool- TX #29,70 Braeswood Square,Houston,TX,United States,77096,(713)728-4400,N,,,,,
Leslie's Pool- TX #346,"7075 Hwy 6 North, Ste A",Houston,TX,United States,77095,(281)858-7088,N,,,,,
Leslie's Pool- TX #374,6890 Hwy 6 South,Houston,TX,United States,77083,(281)498-0010,N,,,,,
Leslie's Pool- TX #405,13439 I-10 East,Houston,TX,United States,77015,(713)455-2275,N,,,,,
Leslie's Pool- TX #424,6417 W 43rd St,Houston,TX,United States,77092,(713)290-8220,N,,,,,
HOME DEPOT,140 N. Bypass 35,Alvin,TX,United States,77511,(281)585-6164,N,,,,,
HOME DEPOT ,11301 Lakeline Blvd.,Austin,TX,United States,78717,(512)331-4436,N,,,,,
HOME DEPOT ,13309 I-35 North,Austin,TX,United States,78753,(512)989-6650,N,,,,,
HOME DEPOT,8801 S. I-35,Austin,TX,United States,78744,(512)291-0153,N,,,,,
HOME DEPOT ,1200 Barbara Jordan Blvd.,Austin,TX,United States,78723,(512)703-4110,N,,,,,
HOME DEPOT ,7900 N. FM 620,Austin,TX,United States,78726,(512)258-7914,N,,,,,
HOME DEPOT ,10515 N. MO Pac Expy,Austin,TX,United States,78759,(512)338-1001,N,,,,,
HOME DEPOT,3600 Interstate Hwy 35 S,Austin,TX,United States,78704,(512)693-9811,N,,,,,
HOME DEPOT ,525 Hwy 71 W,Bastrop,TX,United States,78602,(512)308-1022,N,,,,,
HOME DEPOT ,4915 Garth Rd.,Baytown,TX,United States,77521,(281)428-5091,N,,,,,
HOME DEPOT ,3600 Ranch Rd. 620 S.,Bee Cave,TX,United States,78738,(512)263-0785,N,,,,,
HOME DEPOT ,633 West Bandera Rd.,Boerne,TX,United States,78006,(830)249-2834,N,,,,,
HOME DEPOT ,2801 Wood Ridge Blvd.,Brenham,TX,United States,77833,(979)277-9964,N,,,,,
HOME DEPOT ,4551 Padre Island Hwy,Brownsville,TX,United States,78521,(956)544-5466,N,,,,,
HOME DEPOT ,605 W. Morrison Rd.,Brownsville,TX,United States,78520,(956)350-2232,N,,,,,
HOME DEPOT,128 Bulverde Crossing,Bulverde,TX,United States,78163,(830)438-8805,N,,,,,
HOME DEPOT ,2700 Whitestone Blvd.,Cedar Park,TX,United States,78613,(512)528-9053,N,,,,,
HOME DEPOT ,507 FM 2094,Clearlake Shores,TX,United States,77565,(281)538-3988,N,,,,,
HOME DEPOT ,1615 University Dr. East,College Station,TX,United States,77840,(979)595-1188,N,,,,,
HOME DEPOT ,1341 W. Davis St.,Conroe,TX,United States,77304,(936)539-2440,N,,,,,
HOME DEPOT,5041 S. Padre Island Dr.,Corpus Christi,TX,United States,78411,(361)993-1400,N,,,,,
HOME DEPOT,13202 Leopard St.,Corpus Christi,TX,United States,78410,(361)242-0642,N,,,,,
HOME DEPOT ,17928 Spring Cypress Rd.,Cypress,TX,United States,77429,(281)304-1956,N,,,,,
HOME DEPOT ,2454 Veterans Blvd.,Del Rio,TX,United States,78840,(830)774-0456,N,,,,,
HOME DEPOT ,260 East Highway 290,Dripping Springs,TX,United States,78620,(512)858-5041,N,,,,,
HOME DEPOT,702 65th St.,Galveston,TX,United States,77551,(409)744-4895,N,,,,,
HOME DEPOT ,1303 Rivery Blvd.,Gerogetown,TX,United States,78626,(512)868-3682,N,,,,,
HOME DEPOT ,4710 S. Expressway 83,Harlingen,TX,United States,78552,(956)440-7779,N,,,,,
HOME DEPOT,5445 West Loop,Houston,TX,United States,77081,(713)662-3950,N,,,,,
HOME DEPOT,1100 Lumpkin Rd.,Houston,TX,United States,77043,(713)461-9898,N,,,,,
HOME DEPOT,999 North Loop West,Houston,TX,United States,77008,(713)802-9725,N,,,,,
HOME DEPOT ,11500 Chimney Rock,Houston,TX,United States,77035,(713)723-1400,N,,,,,
HOME DEPOT ,6800 W. Sam Houston,Houston,TX,United States,77072,(281)498-6445,N,,,,,
HOME DEPOT,11820 Disckinson Rd.,Houston,TX,United States,77089,(281)464-2080,N,,,,,
HOME DEPOT ,6800 Highway 6 North,Houston,TX,United States,77084,(281)858-8040,N,,,,,
HOME DEPOT,14085 Northwest Fwy,Houston,TX,United States,77040,(713)690-6619,N,,,,,
HOME DEPOT ,8400 Westheimer Rd.,Houston,TX,United States,77063,(713)917-0510,N,,,,,
HOME DEPOT ,10600 Eastex Freeway,Houston,TX,United States,77093,(713)699-0965,N,,,,,
HOME DEPOT ,4159 FM 1960 West,Houston,TX,United States,77068,(832)484-1284,N,,,,,
HOME DEPOT ,12727 FM 1960 West,Houston,TX,United States,77065,(281)807-5128,N,,,,,
HOME DEPOT,8400 Katy Freeway,Houston,TX,United States,77024,(713)984-2741,N,,,,,
HOME DEPOT ,21530 SH 249,Houston,TX,United States,77070,(281)257-8900,N,,,,,
HOME DEPOT,10707 North Freeway,Houston,TX,United States,77037,(281)820-4745,N,,,,,
HOME DEPOT ,2828 South Highway 6,W. Houston,TX,United States,77082,(281)870-9369,N,,,,,
HOME DEPOT,13400 Market St.,Houston,TX,United States,77015,(713)451-9600,N,,,,,
HOME DEPOT ,20360 Hwy 59,Humble,TX,United States,77338,(281)540-2400,N,,,,,
HOME DEPOT ,215 Interstate 45 North,Huntsville,TX,United States,77320,(936)439-0200,N,,,,,
HOME DEPOT,600 W. Hwy 79,Hutto,TX,United States,78634,(512)759-3688,N,,,,,
HOME DEPOT ,1111 N. Fry Rd.,Katy,TX,United States,77449,(281)599-9170,N,,,,,
HOME DEPOT,6850 S. Fry Rd.,Katy,TX,United States,77494,(281)693-8420,N,,,,,
HOME DEPOT ,1789 Sidney Baker,Kerrville,TX,United States,78028,(830)895-8800,N,,,,,
HOME DEPOT,3201 E. Central Texas Exp,Killeen,TX,United States,76543,(254)699-3554,N,,,,,
HOME DEPOT ,"3730 Dry Hole Dr., CR#210",Kyle,TX,United States,78640,(512)295-8170,N,,,,,
HOME DEPOT ,5710 San Bernardino Ave.,Laredo,TX,United States,78041,(956)753-8831,N,,,,,
HOME DEPOT ,3200 South Gulf Freeway,League City,TX,United States,77573,(281)337-5369,N,,,,,
HOME DEPOT ,6119 FM 1488,Magnolia,TX,United States,77354,(281)356-2087,N,,,,,
HOME DEPOT,1307 Mormon Mills Rd.,Marble Falls,TX,United States,78654,(830)693-1482,N,,,,,
HOME DEPOT ,801 Trenton Rd.,McAllen,TX,United States,78504,(956)668-8783,N,,,,,
HOME DEPOT ,120 S. Shary Rd.,Mission,TX,United States,78572,(956)583-4194,N,,,,,
HOME DEPOT ,5900 Hwy 6 South,Missouri City,TX,United States,77459,(281)403-1397,N,,,,,
HOME DEPOT ,W 12871 Interstate 10,San Antonio,TX,United States,78249,(210)558-4415,N,,,,,
HOME DEPOT ,1360 N IH 35,New Braunfels,TX,United States,78130,(830)625-4089,N,,,,,
HOME DEPOT,603 Strickland Dr.,Orange,TX,United States,77630,(409)988-0294,N,,,,,
HOME DEPOT ,5455 Fairmont Parkway,Pasadena,TX,United States,77505,(281)998-9669,N,,,,,
HOME DEPOT ,1514 Broadway St.,Pearland,TX,United States,77581,(281)993-1111,N,,,,,
HOME DEPOT,10111 Broadway,Pearland,TX,United States,77584,(713)436-5992,N,,,,,
HOME DEPOT ,1517 Town Center Dr.,Pflugerville,TX,United States,78660,(512)990-5413,N,,,,,
HOME DEPOT ,23575 US Highway 59,Porter,TX,United States,77365,(281)577-9151,N,,,,,
HOME DEPOT ,24400 Commercial Dr.,Rosenberg,TX,United States,77471,(281)239-2777,N,,,,,
HOME DEPOT,2551 S. Interstate Hwy 35,Round Rock,TX,United States,78664,(512)238-0820,N,,,,,
HOME DEPOT ,527 Fair Ave.,San Antonio,TX,United States,78223,(210)531-9600,N,,,,,
HOME DEPOT ,4909 Windsor Hill,San Antonio,TX,United States,78239,(210)599-0800,N,,,,,
HOME DEPOT ,1066 Central Pkwy S.,San Antonio,TX,United States,78232,(210)545-1431,N,,,,,
HOME DEPOT ,611 SW Loop 410,San Antonio,TX,United States,78227,(210)675-2268,N,,,,,
HOME DEPOT ,2658 SW Military Dr.,San Antonio,TX,United States,78224,(210)932-1199,N,,,,,
HOME DEPOT ,435 Sunset Rd. West,San Antonio,TX,United States,78209,(210)824-9677,N,,,,,
HOME DEPOT ,9115 N. Loop 1604 W.,San Antonio,TX,United States,78249,(210)695-2349,N,,,,,
HOME DEPOT,20740 US Hwy 281 North,San Antonio,TX,United States,78258,(210)494-5580,N,,,,,
HOME DEPOT ,5638 W. Loop 1604 North,San Antonio,TX,United States,78251,(210)520-4198,N,,,,,
HOME DEPOT ,3111 SE Military,San Antonio,TX,United States,78223,(210)359-7000,N,,,,,
HOME DEPOT ,5101 Cambray Dr.,San Antonio,TX,United States,78229,(210)520-0630,N,,,,,
HOME DEPOT ,8138 Agora Pkwy,Selma,TX,United States,78154,(210)945-8160,N,,,,,
HOME DEPOT,20131 N. I-45,Spring,TX,United States,77373,(281)288-4900,N,,,,,
HOME DEPOT,15505 SW Freeway,Sugar Land,TX,United States,77478,(281)242-9200,N,,,,,
HOME DEPOT ,10419 Highway 6 South,Sugar Land,TX,United States,77498,(281)980-1777,N,,,,,
HOME DEPOT ,1200 Home Depot Blvd.,Sunset Valley,TX,United States,78745,(512)892-3035,N,,,,,
HOME DEPOT ,3550 S. General Bruce Dr.,Temple,TX,United States,76504,(254)773-3870,N,,,,,
HOME DEPOT,18251 Gulf Freeway,Webster,TX,United States,77598,(281)488-2274,N,,,,,
HOME DEPOT ,1500 W. Expressway 83,Weslaco,TX,United States,78596,(956)447-2645,N,,,,,
HOME DEPOT ,19103 I-45,Conroe,TX,United States,77385,(936)321-0100,N,,,,,
Wild Birds Unlimited,"3267 Bee Kaves, Ste 121",Austin,TX,United States,78748,(512)328-9453,N,,,,,
THE EMERALD GARDEN,6910 W. Highway 71,Austin,TX,United States,78735,(512)288-5900,N,,,,,
EMERALD GARDEN NURSERY,5700 290 W,Austin,TX,United States,78735,(512)288-5900,N,,,,,
"AQUATIC FEATURES, INC.",6611 Burnett Lane,Austin,TX,United States,78757,(512)563-8259,N,,,,,
"G. O. LANDSCAPE, INC.",2730 S. Congress,Austin,TX,United States,78704,(512)448-2992,N,,,,,
"ALAMO CAST STONE, INC.",28630 IH 10 West,Boerne,TX,United States,78006,(830)981-4112,N,,,,,
GILL LANDSCAPE NURSERY,2810 Airline Road,Corpus Christi,TX,United States,78414,(361)992-9674,N,,,,,
Green Leaf Nursery,401 W. Centex,Harker Hieghts,TX,United States,76548,(254)699-4600,N,,,,,
FRAZIERS ORNAMENTAL CONCRETE,23200 Hwy 6,Hempstead,TX,United States,77445,(979)826-3636,N,,,,,
Houston Plant & Garden World,16726 North Fwy,Houston,TX,United States,77090,(281)443-0962,N,,,,,
Fountains Etc,1725 Highway 6 South,Houston,TX,United States,77077,(281)531-8950,N,,,,,
"Condon Gardens, Inc.",7706 Hammerly Blvd,Houston,TX,United States,77055,(713)782-3992,N,,,,,
THE GARDEN GATE,5122 Morning Side,Houston,TX,United States,77005,(713)528-2654,N,,,,,
STATUE MAKERS,2003 Bllalock Road,Houston,TX,United States,77080,(713)467-9082,N,,,,,
POND WORKS,1514 Kincross CT,Katy,TX,United States,77450,(281)693-4742,N,,,,,
ALSPAUGH'S ACE HARDWARE,2720 W. Lake Houston Pky,Kingwood,TX,United States,77339,(281)360-2231,N,,,,,
HOME & PATIO,1047 NE Loop 410,San Antonio,TX,United States,78209,(210)828-2807,N,,,,,
Rainbow Gardens,8516 Bandera Road,San Antonio,TX,United States,78250,(210)601-4031,N,,,,,
Rainbow Gardens,2585 Thousand Oaks Drive,San Antonio,TX,United States,78232,(210)494-6131,N,,,,,
"SPA CRAFTERS, INC.",2730 N Loop 1604 East,San Antonio,TX,United States,78232,(800)522-4557,N,,,,,
Stouwers Furniture,210 West Rector,San Antonio,TX,United States,78216,(210)342-9411,N,,,,,
"DeLeon & Silvestri, LLC",823 Hoetgen Ave,San Antonio,TX,United States,78210,(210)532-6500,N,,,,,
Maas Nursery,5511 Todville,Seabrook,TX,United States,77586,(281)474-2488,N,,,,,
Water Gardens,20619 Budde Cemetary Rd,Spring,TX,United States,77388,(281)374-9669,N,,,,,
Lowe's Water Gardens & Etc,17122 Stuebner Airline Rd,Spring,TX,United States,77379,(281)374-9669,N,,,,,
Tem-Bel Nursery & Landscape,5300 S. General Bruce Drive,Temple,TX,United States,76502,(254)778-5651,N,,,,,
"Clean Swimming Pool Services, LLC",1859 Burr Oak Lane,Adkins,TX,United States,78101,(830)393-0995,N,,,,,
BLUE BOTTOM POOL & SPA SUPPLY,11416 N. FM 620 Ste. J,Austin,TX,United States,78613,(512)259-7665,N,,,,,
HAMPLE POOLS,1600 Cricket Hollow,Austin,TX,United States,78758,(512)497-7792,N,,,,,
POOLS BY GOSS,2455 W Cardinal Dr,Beaumont,TX,United States,77705,(409)892-4988,N,,,,,
Aqua-Man water conditioning,32545 IH 10 West,Boerne,TX,United States,78006,(210)342-2290,N,,,,,
BOERNE POOL SUPPLIES,1224 S Main St,Boerne,TX,United States,78006,(830)249-7171,N,,,,,
Canyon Creek Pools INC,28890 IH-10 West,Boerne,TX,United States,78006,(210)492-7946,N,,,,,
"Achtwoo Pools, LLC",2875 Texas Ave Suite L,Bridge City,TX,United States,77611,(409)734-7665,N,,,,,
MOBLEY POOL COMPANY,2004 E. Villa Maria Road,Bryan,TX,United States,77802,(979)776-5557,N,,,,,
Brazos Valley Pools & Hot Tubs,3114 Texas Ave.,College Station,TX,United States,77845,(979)693-8533,N,,,,,
"Oasis Pools-College Station, TX",2151 Harvey Mitchell Pkwy #323,College Station,TX,United States,77840,(979)739-7717,N,,,,,
"The Pool Guy Enterprise, LLC",943 William D Fitch Pkwy Suite 4,College Station,TX,United States,77845,(979)690-8358,N,,,,,
Texsun- Cypress TX,12111 Heathewick,Cypress,TX,United States,77429,(281)251-6050,N,,,,,
Texsun- Cypress TX,24150 Hwy 290,Cypress,TX,United States,77429,(832)678-2742,N,,,,,
G & L Pool-Scapes,305 S Main,Dayton,TX,United States,77535,(936)258-2376,N,,,,,
CLEAN POOL SERVICE,14908 FM 775,Floresville,TX,United States,78114,(830)393-0995,N,,,,,
BUTCHERS SWIMMING POOL SUPPLIES ,4324 Richmond Ave.,Houston,TX,United States,77027,(713)622-9766,N,,,,,
Urban Growers Company,1127 Eldridge Parkway #300-370,Houston,TX,United States,77077,(281)589-1921,N,,,,,
WATER WINGS POOLS,11007 Whittingham Lane,Houston,TX,United States,77099,(832)338-1310,N,,,,,
Fox Family Pools,1420 FM 1960 Bypass Rd E #100,Humble,TX,United States,77338,(281)550-7665,N,,,,,
Northwoods Pool Supply Inc.,2103 North Houston Ave.,Humble,TX,United States,77338,(281)358-5909,N,,,,,
Prisim Pool Service Supply,5305 Hwy 90 Blvd,Katy,TX,United States,77450,(281)392-3030,N,,,,,
Prism Pools Service & Supply,5305 Highway 90 Blvd,Katy,TX,United States,77450,(281)391-0542,N,,,,,
Lonestar Fiberglass Pools LLC,15655 E Highway 90,Kingsbury,TX,United States,78638,(830)875-6900,N,,,,,
Texsun- Kingwood TX,2714 W Lake Houston Pkwy,Kingwood,TX,United States,77339,(281)913-4755,N,,,,,
G.H. Pools,517 Shiloh Dr. STE 1,Laredo,TX,United States,78045,(956)725-8474,N,,,,,
Bay Area Pools & Spas,4890 W. Main St.,League City,TX,United States,77573,(281)332-4882,N,,,,,
GLACIER POOL SUPPLIES & SPAS,"1001 FM 270, Ste 100",League City,TX,United States,77573,(832)932-5714,N,,,,,
CRYSTAL CLEAR POOLS,7304 Rosenthal Pkwy,Lorena,TX,United States,76655,(254)857-9888,N,,,,,
Pool Pro,"3434 Fm 1092 RD., Ste. 330",Missouri City,TX,United States,77459,(281)261-0648,N,,,,,
Apache Pools,15865 Hwy 105 W. Suite !,Montgomery,TX,United States,77356,(936)588-0811,N,,,,,
"Tallman Pools, Inc.",3817 N Twin City Hwy 347,Nederland,TX,United States,77627,(409)727-8934,N,,,,,
HAMLIN POOLS,300 W. Eldora,Pharr,TX,United States,78577,(956)787-3281,N,,,,,
CLEAR WATER POOL & SPA,2003 W Oakland Rd.,Pleasanton,TX,United States,78064,(830)569-4477,N,,,,,
365 POOL & SPA,7015 Bandera Road,San Antonio,TX,United States,72838,(210)277-8281,N,,,,,
Agp Company,11110 Wye Dr,San Antonio,TX,United States,78217,(210)646-7665,N,,,,,
Arbolitos Nursery,6714 S. Flores,San Antonio,TX,United States,78221,(210)922-2323,N,,,,,
Arbolitos Nursey,7007 San Pedro,San Antonio,TX,United States,78216,(210)366-5020,N,,,,,
Pool Mart,2620 Harry Wurzbach,San Antonio,TX,United States,78209,(210)822-8882,N,,,,,
POOLSIDE SALES & SERVICE,16110 San Pedro Ave,San Antonio,TX,United States,78232,(210)269-9931,N,,,,,
Sand Dollar Pool Supply,5200 Crestway,San Antonio,TX,United States,78239,(210)862-7986,N,,,,,
THE POOL HOUSE,4171 Sleepy Hollow,San Antonio,TX,United States,78230,(210)697-6300,N,,,,,
B & D Pool Supply,530 N. Austin St,Seguin,TX,United States,78155,(830)379-5550,N,,,,,
Professional Pool Supply,5200 Louetta,Spring,TX,United States,77379,(832)717-0909,N,,,,,
Splash N',1523 Rayford Rd,Spring,TX,United States,77386,(281)292-8361,N,,,,,
TexSun Pools,7622 Louetta,Spring,TX,United States,77379,(281)320-8242,N,,,,,
Clear Blue Pool Supply,19851 ST Hwy 46 W Suite 105,Spring Branch,TX,United States,78070,(830)438-9077,N,,,,,
BURDGE O'DONNELL POOLS,702 Cannon,Victoria,TX,United States,77904,(361)574-7946,N,,,,,
Pineloch Pool Co.,15108 Hwy 3,Webster,TX,United States,77598,(281)448-8783,N,,,,,
Texsun- Woodlands TX,4747 Research Forest,Woodlands,TX,United States,77381,(281)362-1166,N,,,,,
LESLIE'S POOL- AZ #477,3655 W. Anthem Way Ste A137,Anthem,AZ,United States,85086,(623)551-5126,,,,,,
HOME DEPOT - AVONDALE #441,1489 North Dysart Rd.,Avondale,AZ,United States,85323,(623)925-2896,,,,,,
LESLIE'S POOL- AZ Buckeye,818 S Watson Rd,Buckeye,AZ,United States,,(623)474-6771,,,,,,
LESLIE'S POOL- AZ #611,1645 N. Trekell Rd Ste 103&104,Casa Grande,AZ,United States,85222,(520)836-9471,,,,,,
HOME DEPOT - CASA GRANDE #408,1546 E. Florence Blvd.,Casa Grande,AZ,United States,85222,(520)836-1028,,,,,,
LESLIE'S POOL- AZ #610,"4705 E. Carefree Hwy, Ste 121&123",Cave Creek,AZ,United States,85331,(480)595-0695,,,,,,
LESLIE'S POOL- AZ #430,"28325 N. Tatum Blvd., Ste 10",Cave Creek,AZ,United States,85331,(480)538-8626,,,,,,
CACTUS VALLY POOL #2,1070 E. Ray Road Suite 20,Chandler,AZ,United States,85225,(480)726-3009,,,,,,
LESLIE'S POOL- AZ #427,"2860 S Alma School Road, Ste 30",Chandler,AZ,United States,85248,(480)782-1147,,,,,,
LESLIE'S POOL- AZ #396,3150 N. Alma School Road,Chandler,AZ,United States,85224,(480)413-0977,,,,,,
LESLIE'S POOL- AZ #563,1960 W. Ray Road,Chandler,AZ,United States,85224,(480)812-1841,,,,,,
LESLIE'S POOL- AZ #566,"4920 S. Gilbert Rd, Ste A6",Chandler,AZ,United States,85249,(480)883-2359,,,,,,
CACTUS VALLEY POOL SUPPLY,"990 E. Riggs Rd., Ste. #8",Chandler,AZ,United States,85249,(480)895-9696,,,,,,
LESLIE'S POOL- AZ #790,975 E. Riggs Road Ste.9,Chandler,AZ,United States,85249-4260,(480)802-4296,,,,,,
HOME DEPOT - CHANDLER/ W. CHANDLER BLVD,1155 W. Chandler Blvd.,Chandler,AZ,United States,85225,(480)899-5013,,,,,,
HOME DEPOT - CHANDLER/ N. 54TH ST. #476,650 N. 54th St.,Chandler,AZ,United States,85226,(480)753-3320,,,,,,
HOME DEPOT - CHANDLER/ S. ARIZONA AVE. #,4141 S. Arizona Ave.,Chandler,AZ,United States,85248,(480)802-7117,,,,,,
CACTUS VALLEY POOL SUPPLY - ALMA SCHOOL,"2815 S. Alma School Rd., Ste 11",Chandler,AZ,United States,85248,(480)792-6700,,,,,,
HOME DEPOT - CHANDLER/ E. GERMANN RD. #8,2530 E. Germann Rd.,Chandler,AZ,United States,85249,(480)786-5402,,,,,,
HOME DEPOT - COTTONWOOD #423,1030 S. Highway 260,Cottonwood,AZ,United States,86326,,,,,,,
HOME DEPOT - FLAGSTAFF #482,1325 W. Route 66,Flagstaff,AZ,United States,86001,,,,,,,
HOME DEPOT - FLAGSTAFF #421,5005 Marketplace Dr.,Flagstaff,AZ,United States,86004,,,,,,,
ACCURATE POOL SUPPLY,4582 Hwy 95 Ste C,Fort Mojave,AZ,United States,86426,(928)704-1103,,,,,,
LESLIE'S POOL- AZ #625,"4723 S. HWY 95, Suite D",Fort Mojave,AZ,United States,86426,(928)330-3610,,,,,,
LESLIE'S POOL- AZ #469,13243 N. La Montana Dr. #1,Fountain Hills,AZ,United States,85268,(480)816-5823,,,,,,
CACTUS VALLEY POOL SUPPLY & SERVICE #1,"1275 East Baseline Road, Suite #111",Gilbert,AZ,United States,85233,(480)558-7205,,,,,,
CACTUS VALLEY POOL SUPPLY #4,139 S Higley Road Suite #106,Gilbert,AZ,United States,85297,(480)558-0111,,,,,,
SUN DEVIL POOL SUPPLY - Gilbert,78 N Cooper Rd Ste 106,Gilbert,AZ,United States,85233,(480)753-0100,,,,,,
CACTUS VALLEY DISTRIBUTION CENTER,1191 N Fiesta Rd Ste 3,Gilbert,AZ,United States,85233,(480)635-0600,,,,,,
LESLIE'S POOL- AZ #297,"899 N. Val Vista Dr, Ste 101",Gilbert,AZ,United States,85234,(480)507-8807,,,,,,
LESLIE'S POOL- AZ #460,"183 E. Williams Field Rd., Ste 101",Gilbert,AZ,United States,85295,(480)855-7829,,,,,,
A&M Corson's Aqua Value,1560 W. Warner Rd.,Gilbert,AZ,United States,85233,(480)890-0101,,,,,,
CACTUS VALLEY POOL SUPPLY,"911 S. Lindsay Rd., Ste. #111",Gilbert,AZ,United States,85296,(480)632-6800,,,,,,
CACTUS VALLEY POOL SUPPLY,"3126 S. Higley Rd., Ste. #106",Gilbert,AZ,United States,85297,(480)457-8899,,,,,,
LESLIE'S POOL- AZ #794,754 South Val Vista Road,Gilbert,AZ,United States,85296,(480)633-9655,,,,,,
CACTUS VALLEY POOL SUPPLY- Corporate,1911 N Fiesta Rd Ste# 3,Gilbert,AZ,United States,85233,(480)354-9600,,,,,,
CACTUS VALLEY POOL SUPPLY - Cooper,1561 N Cooper Rd,Gilbert,AZ,United States,,(480)491-6100,,,,,,
MADDY'S POOL SUPPLY,81 West Guadalupe Rd,Gilbert,AZ,United States,85233,(480)840-6370,,,,,,
LESLIE'S POOL- AZ #656,3050 E. Chandler Heights Road Ste. 100,Gilbert,AZ,United States,85298-4324,(480)457-8381,,,,,,
HOME DEPOT - GILBERT #471,745 S. Val Vista Dr.,Gilbert,AZ,United States,85234,(480)497-1466,,,,,,
Leslie's Pool- AZ GILBERT,1474 N. Cooper Rd.,Gilbert,AZ,United States,85303,,,,,,,
LESLIE'S POOL- AZ #704,"1474 N. Cooper Rd., Ste 101",Gilbert,AZ,United States,85233-1237,(480)632-4017,,,,,,
B & L POOLS,4330 W Olive Avenue,Glendale,AZ,United States,85302,(623)934-2066,,,,,,
POOL PARTS PLUS,17035 N. 67th Ave. Ste #14,Glendale,AZ,United States,85308,(623)412-8871,,,,,,
THE POOL PEOPLE,5830 W. Thunderbird #B6,Glendale,AZ,United States,85306,(602)978-3400,,,,,,
LESLIE'S POOL- AZ #196,"5775 W Bell Road, #13",Glendale,AZ,United States,85308,(602)547-3107,,,,,,
PADDOCK POOLS-#3,8078 W. Bell Road,Glendale,AZ,United States,85308,(480)776-9642,,,,,,
Leslie's Pool- AZ #518,5110 W. Olive Avenue,Glendale,AZ,United States,85302,(623)934-5461,,,,,,
Leslie's Pool- AZ #562,5110 N. 51st Ave.,Glendale,AZ,United States,85302,(623)934-5461,,,,,,
LESLIE'S POOL- AZ #573,3830 Pinnacle Peak Rd,Glendale,AZ,United States,85310,(623)580-9476,,,,,,
POOL PARTS PLUS,"6525 W. Happy Valley Rd., Ste. C-101",Glendale,AZ,United States,85310,(623)561-2988,,,,,,
LESLIE'S POOL- AZ #796,20241 N 67th Ave Ste. A6,Glendale,AZ,United States,85308-6658,(623)566-1056,,,,,,
WE FIX UGLY POOLS.COM,7910 North 43rd Avenue,Glendale,AZ,United States,,(602)714-3880,,,,,,
Javelina Pool Supply,Shipping: 4925 W. Bell Road. Ste.C-5,Glendale,AZ,United States,85304,(602)486-0406,,,,,,
HOME DEPOT - GLENDALE/ PEORIA AVE. #405,5902 W. Peoria Ave.,Glendale,AZ,United States,85302,(623)487-7357,,,,,,
Leslie's Pool- AZ,9184 W. Northern Ave.,Glendale,AZ,United States,85305,,,,,,,
HOME DEPOT - GLENDALE - W. BELL RD #459,6880 W. Bell Rd.,Glendale,AZ,United States,85308,(623)486-1550,,,,,,
HOME DEPOT - GLENDALE/ BEHREND DR. #475,6160 W. Behrend Dr.,Glendale,AZ,United States,85308,(623)376-0278,,,,,,
CACTUS VALLEY POOL SUPPLY,"5341 S. Superstition Mountain Dr.,",Gold Canyon,AZ,United States,85218,(480)671-8600,,,,,,
LESLIE'S POOL- AZ #507,"500 N Estrella Pkwy, Ste B-6, B-7",Goodyear,AZ,United States,85338,(623)925-4752,,,,,,
LESLIE'S POOL- AZ #798,"14140 W Indian School Road, Ste B3",Goodyear,AZ,United States,85338,(623)536-5305,,,,,,
LESLIE'S POOL- AZ #782,18705 S I-19 Frontage Rd.,Green Valley,AZ,United States,85614,(520)648-7256,,,,,,
PRINCE POOLS,2845 Gordon Drive,Kingman,AZ,United States,86409,(928)692-7118,,,,,,
HOME DEPOT - KINGMAN #416,3860 Stockton Hill Rd.,Kingman,AZ,United States,86401,(928)681-5600,,,,,,
HOME DEPOT - LAVEEN #447,5230 W. Baseline Rd.,Laveen,AZ,United States,85339,(602)605-8690,,,,,,
LITCHFIELDS PARK POOL SERVICE,4900 N. Litchfield Road  #A,Litchfield Park,AZ,United States,85340,(623)935-5121,,,,,,
LESLIE'S POOL- AZ #464,13000 W. Indian School Road,Litchfield Park,AZ,United States,85340,(623)547-3807,,,,,,
LESLIE'S POOL- AZ #816,"20917 N. John Wayne Pkwy, Ste A101",Maricopa,AZ,United States,85139-2918,(520)568-1542,,,,,,
CACTUS VALLEY POOLS #7,20800 N. John Wayne Parkway,Maritova,AZ,United States,85239,(520)494-7544,,,,,,
TODAYS SWIM & PATIO,2107 W. Guadalupe,Mesa,AZ,United States,85202,(480)897-6545,,,,,,
SOUTHWEST SPAS,1110 S. Country Club Drive St. 102-A,Mesa,AZ,United States,85210,(480)969-5155,,,,,,
A&M Corson's Aqua Value,25 East McKellips Road,Mesa,AZ,United States,85201,(480)668-0723,,,,,,
A&M PUMP & SUPPLY,3544 E. Southern Ave #105,Mesa,AZ,United States,85204,(480)641-5371,,,,,,
LESLIE'S POOL- AZ #199,1927 N Gilbert Road,Mesa,AZ,United States,85203,(480)668-0756,,,,,,
PADDOCK POOLS #9,6952 E. Hampton Ave.,Mesa,AZ,United States,85208,(480)947-7261,,,,,,
LESLIE'S POOL- AZ #429,"2920 N. Power Rd, Ste 106",Mesa,AZ,United States,85215,(480)654-8699,,,,,,
Leslie's Pool- AZ #575,"1157 N. Ellsworth Rd, Ste 104",Mesa,AZ,United States,85207,(480)984-8255,,,,,,
LESLIE'S POOL- AZ #622,"515 N. Stapley Dr, Ste 107",Mesa,AZ,United States,85203,(480)615-4984,,,,,,
LESLIE'S POOL- AZ #511,2905 S. Ellsworth Road Suite 106-107,Mesa,AZ,United States,85212,(480)357-5793,,,,,,
A&M Corson's Aqua Value,5253 E. Brown Rd.,Mesa,AZ,United States,85205,(480)218-0047,,,,,,
CACTUS VALLEY POOL SUPPLY,"6655 E. McDowell Rd., Ste. 104",Mesa,AZ,United States,85215,(480)981-6500,,,,,,
CACTUS VALLEY POOL SUPPLY - BROWN,1911 E. Brown Rd.,Mesa,AZ,United States,85203,(480)649-0900,,,,,,
HOME DEPOT - MESA/ CRIMSON RD. #404,1545 S. Crimson Rd.,Mesa,AZ,United States,85204,(480)380-1821,,,,,,
HOME DEPOT - MESA/ SUPERSTITION SPRING #,6838 E. Superstition Spring,Mesa,AZ,United States,85209,(480)981-6405,,,,,,
CACTUS VALLEY POOL SUPPLY - ELLSWORTH,2043 S. Ellsworth Rd.,Mesa,AZ,United States,85209,,,,,,,
HOME DEPOT - MESA/ COUNTRY CLUB DR. #469,1740 S. Country Club Dr.,Mesa,AZ,United States,85210,(480)644-9111,,,,,,
HOME DEPOT - MESA/ MCKELLIPS RD. #406,6708 E. McKellips Rd.,Mesa,AZ,United States,85215,(480)830-2463,,,,,,
CACTUS VALLEY POOL SUPPLY - BASELINE MES,9053 E. Baseline Rd.,Mesa,AZ,United States,85218,,,,,,,
HOME DEPOT - NOGALES #8488,430 White Park Dr.,Nogales,AZ,United States,85621,(520)375-6545,,,,,,
Leslie's Pool- AZ,10515 N. Oracle Rd.,Oro Valley,AZ,United States,85018,,,,,,,
HOME DEPOT - PAYSON #422,2000 N. Beeline Hwy,Payson,AZ,United States,85541,(928)468-0339,,,,,,
PEORIA ELECTRIC MOTOR & POOL SERVICE,8265 NW Grand Avenue,Peoria,AZ,United States,85345,(623)878-8018,,,,,,
LESLIE'S POOL- AZ #797,7435 W Cactus Road Ste.113,Peoria,AZ,United States,85381,(623)979-5335,,,,,,
LESLIE'S POOL- AZ #473,8385 W. Deer Valley Rd,Peoria,AZ,United States,85382,(623)376-9075,,,,,,
Leslie's Pool- AZ #585,"9184 W. Northern Ave, Ste 107",Peoria,AZ,United States,85345,(623)877-5500,,,,,,
LESLIE'S POOL- AZ #82,7549 W. Cactus Rd.,Peoria,AZ,United States,85381,(623)334-0781,,,,,,
LESLIE'S POOL- AZ #646,"9980 W Happy Valley Road, Ste 1140",Peoria,AZ,United States,85383-1225,(623)566-4662,,,,,,
WE FIX UGLY POOLS- Corp Office only,7558 W. Thunderbird Rd. PMB 621 Ste. 1,Peoria,AZ,United States,85381,(602)714-3880,,,,,,
HOME DEPOT - PEORIA W #453,9201 W. Peoria Ave.,Peoria,AZ,United States,85345,(623)412-1750,,,,,,
HOME DEPOT - PEORIA #424,25650 N. Lake Pleasant Park,Peoria,AZ,United States,85383,(623)376-6735,,,,,,
B & L POOLS,1502 W Bell Rd #4,Phoenix,AZ,United States,85023-3455,(602)942-6000,,,,,,
B & L POOL SUPPLIES,8322 North 7th Street,Phoenix,AZ,United States,85020,(602)266-1622,,,,,,
LESLIE'S POOL CORPORATE- AZ #HQR,2005 E. Indian School Rd.,Phoenix,AZ,United States,85016,(602)366-3999,,,,,,
"POOL SHOP, LLC","3636 E. Ray Road, Suite #12",Phoenix,AZ,United States,85044,(480)759-9965,,,,,,
POOL SUPPLY WAREHOUSE,4733 N. 43rd Ave. #8,Phoenix,AZ,United States,85031,(623)939-1346,,,,,,
TODAY'S POOL & PATIO,12419 Tatum Blvd.,Phoenix,AZ,United States,85032,(602)996-8100,,,,,,
CHECKER POOL & PUMP,2815 E. Indian School Road,Phoenix,AZ,United States,85016,(602)955-1446,,,,,,
EVER-KLEAR POOL SUPPLY INC,7347 W. Indian School Rd.,Phoenix,AZ,United States,85033,(623)846-2154,,,,,,
ONE STOP POOL SHOP,13825 N. 32nd Street,Phoenix,AZ,United States,85032,(602)971-8868,,,,,,
PLAZA HARDWARE & POOL,4025 E. Chandler Blvd. Space 3,Phoenix,AZ,United States,85048,(480)759-4425,,,,,,
LESLIE'S POOL- AZ #524,2150 E. Baseline Road,Phoenix,AZ,United States,85042,(602)323-5804,,,,,,
LESLIE'S POOL- AZ #241,742 E. Glendale Avenue Ste 140,Phoenix,AZ,United States,85020,(602)604-9395,,,,,,
LESLIE'S POOL- AZ #195,2814 N. 44th St.,Phoenix,AZ,United States,85008,(602)808-9625,,,,,,
B & L POOLS- CORPORATE STORE,16427 N. Cave Creek Rd,Phoenix,AZ,United States,85032,(602)242-5845,,,,,,
LESLIE'S POOL- AZ #339,"550 W. Bell Rd, Ste 101",Phoenix,AZ,United States,85023,(602)896-0228,,,,,,
Leslie's Pool- AZ #437,7333 W. Thomas Road,Phoenix,AZ,United States,85033,(623)846-0950,,,,,,
LESLIE'S POOL- AZ #591,"1442 E. Chandler Road, Ste 105",Phoenix,AZ,United States,85048,(480)283-0305,,,,,,
LESLIE'S POOL- AZ #3005,"21410 N. 15th Lane, Ste 110",Phoenix,AZ,United States,85027,(623)582-2302,,,,,,
LESLIE'S POOL- AZ #238,"4615 E Ray Road, Ste E-1",Phoenix,AZ,United States,85044,(480)961-4465,,,,,,
LESLIE'S POOL - AZ #252,3425 W. Thunderbird Rd,Phoenix,AZ,United States,85044,(602)504-3959,,,,,,
LESLIE'S POOL- AZ #259,10633 N. 32nd St,Phoenix,AZ,United States,85028,(602)485-9558,,,,,,
LESLIE'S POOL- AZ #599,"5235 E. Southern Ave, Ste. D-101&102",Phoenix,AZ,United States,85206,(480)830-0854,,,,,,
Leslie's Pool- AZ #614,5270 W Baseline Rd. Ste 145,Phoenix,AZ,United States,85039,(602)605-8033,,,,,,
Emerald Pool Supply,34406 N 27th Dr Suite 192,Phoenix,AZ,United States,85085,(602)795-4466,,,,,,
LESLIE'S POOL- AZ #631,21043 N Cave Creek Rd,Phoenix,AZ,United States,850245512,(602)996-4630,,,,,,
CACTUS VALLEY POOL SUPPLY #15,"4757 E. Greenway Rd., Ste. #106",Phoenix,AZ,United States,85032,(602)404-7209,,,,,,
"PADDOCK POOLS, PATIO & SPAS",3851 E. Thunderbird Rd,Phoenix,AZ,United States,85032,(602)774-0236,,,,,,
SUPERIOR POOL PRODUCTS - Anthem,41802 North Vision Way,Phoenix,AZ,United States,85086,(623)551-0923,,,,,,
SUPERIOR POOL PRODUCTS - Regional Man,"18201 N. 25th Ave	",Phoenix,AZ,United States,85023,(602-283-0594,,,,,,
LESLIE'S POOL- AZ #632,8240 W. Lower Buckeye Road Ste.101,Phoenix,AZ,United States,85043-7429,(623)936-8660,,,,,,
LESLIE'S POOL- AZ #795,4601 E. Bell Road Ste.13,Phoenix,AZ,United States,85032-9338,(602)996-2505,,,,,,
LESLIE'S POOL- AZ #791,4747 E. Elliot Road Ste.27,Phoenix,AZ,United States,85044-1629,(480)753-3717,,,,,,
HOME DEPOT - PHOENIX #477/ E. THOMAS,3609 E. Thomas Rd.,Phoenix,AZ,United States,85018,(602)225-0980,,,,,,
HOME DEPOT - PHOENIX #485/ N. 43RD.,4848 N. 43rd Ave.,Phoenix,AZ,United States,85018,(623)849-0125,,,,,,
HOME DEPOT - PHOENIX #401/ BELL RD.,2217 E. Bell Rd.,Phoenix,AZ,United States,85022,(602)482-2430,,,,,,
HOME DEPOT - PHOENIX #480/ CAVE CREEK RD,12434 N. Cave Creek Rd.,Phoenix,AZ,United States,85022,(602)404-0574,,,,,,
HOME DEPOT - PHOENIX - THUNDERBIRD #468,2650 W. Thunderbird Rd.,Phoenix,AZ,United States,85023,(602)548-9600,,,,,,
Bobbi's Pool Supply,1909 E Union Hills Dr.,Phoenix,AZ,United States,85027,(602)993-7025,,,,,,
HOME DEPOT - PHOENIX #464/ TATUM BLVD.,16803 N. Tatum Blvd.,Phoenix,AZ,United States,85032,(602)493-9600,,,,,,
Leslie's Pool- AZ Phoenix,3851 E. Thunderbird Rd.,Phoenix,AZ,United States,85032,,,,,,,
Leslie's Pool- AZ D,550 W. Bell Rd.,Phoenix,AZ,United States,85033,,,,,,,
HOME DEPOT - PHOENIX #455/ W. MCDOWELL,7333 W. McDowell,Phoenix,AZ,United States,85035,(623)849-1200,,,,,,
HOME DEPOT - PHOENIX SW/ CAMELBACK RD.#4,9969 W. Camelback Rd.,Phoenix,AZ,United States,85037,(623)772-1034,,,,,,
Leslie's Pool- AZ,10662 N. 32nd St.,Phoenix,AZ,United States,85043,,,,,,,
LESLIE'S POOL- AZ W. Phoenix,7333 W. Thomas Rd.,Phoenix,AZ,United States,85044,,,,,,,
Leslie's Pool- AZ S. Phoenix,2150 E. Baseline Rd.,Phoenix,AZ,United States,85053,,,,,,,
HOME DEPOT - PHOENIX #488/ CAREFREE HWY,4925 E. Carefree Highway,Phoenix,AZ,United States,85085,(480)488-0281,,,,,,
HOME DEPOT - PHOENIX #6948/ N. NORTH VAL,35050 N. North Valley Pkwy,Phoenix,AZ,United States,85086,(623)587-9222,,,,,,
LESLIE'S POOL- AZ Laveen,5270 W. Baseline Rd.,Phoenix,AZ,United States,85339,(602)605-8033,,,,,,
HOME DEPOT - PRESCOTT #452,1941 E. Highway 69,Prescott,AZ,United States,86301,(928)771-8467,,,,,,
HOME DEPOT - PRESCOTT VALLEY #446,5500 E. State Route 69,Prescott Valley,AZ,United States,86314,(928)717-6005,,,,,,
ACE HARDWARE,7211 E 1st Street,Prescott Valley,AZ,United States,86314,(928)772-8111,,,,,,
LESLIE'S POOL- AZ #545,8495 S. Power Road 101 & 102,Queen Creek,AZ,United States,85242,(480)840-3262,,,,,,
SUN DEVIL POOL SUPPLY - Queen Creek,"1749 W.Hunt Hwy, Ste. 105",Queen Creek,AZ,United States,85243,(480)888-8249,,,,,,
HOME DEPOT - QUEEN CREEK #415,7401 S. Power Rd.,Queen Creek,AZ,United States,85242,(480)988-6810,,,,,,
A&M CORSONS AQUAVALUE,2980 N 73rd St,Scottsdale,AZ,United States,85251-7223,(480)945-6371,,,,,,
THE SWIMMING POOL WAREHOUSE,"14255 N 79th St., #1",Scottsdale,AZ,United States,85260-6943,(480)483-6100,,,,,,
PADDOCK POOLS - HQR,6525 E. Thomas Road,Scottsdale,AZ,United States,85251,(480)947-7261,,,,,,
SUN PATIO & POOL,10320 N. Scottsdale Rd,Scottsdale,AZ,United States,85253,(480)951-3599,,,,,,
AQUA SENTRY POOLS,10701 N. Scottsdale Rd.,Scottsdale,AZ,United States,85254,(480)948-2791,,,,,,
LESLIE'S POOL- AZ #191,10390 N. 90th Street   Ste.  3-B,Scottsdale,AZ,United States,85258,(480)314-2360,,,,,,
PADDOCK POOLS #6,8718 E. Shea Blvd,Scottsdale,AZ,United States,85260,(480)991-8891,,,,,,
LESLIE'S POOL- AZ #438,20731 N. Scottsdale Rd,Scottsdale,AZ,United States,85255,(480)419-6074,,,,,,
LESLIE'S POOL- AZ #514,32409 N. Scottsdale Rd #101,Scottsdale,AZ,United States,85266,(480)595-7625,,,,,,
LESLIE'S POOL- AZ #561,"13802 N. Scottsdale Rd , Ste 163",Scottsdale,AZ,United States,85254,(480)922-1178,,,,,,
LESLIE'S POOL- AZ #258,"4811 E. Greenway Rd, Ste 111",Scottsdale,AZ,United States,85250,(602)996-3233,,,,,,
Leslie's Pool- AZ #552,14684 N. Frank Lloyd Wright Blvd.,Scottsdale,AZ,United States,85260,(480)661-4049,,,,,,
LESLIE'S POOL- AZ #264,"7908 E. Chaparral Rd., Suite 111",Scottsdale,AZ,United States,85250,(480)481-7555,,,,,,
A&M CORSON'S - Corporate Office,2980 N. 73rd Street,Scottsdale,AZ,United States,85251,(480)374-2952,,,,,,
PINNACLE PEAK ACE HOME CENTER,"23623 N. Scottsdale Rd., Ste. D-5",Scottsdale,AZ,United States,85255,(480)563-3212,,,,,,
SUN DEVIL POOL SUPPLY - Scottsdale,6501 E. Greenway Pkwy,Scottsdale,AZ,United States,85254,(480)922-6999,,,,,,
PAULS ACE HARDWARE,2845 N. Scottsdale Rd.,Scottsdale,AZ,United States,85257,(480)947-7281,,,,,,
"PADDOCK POOLS, PATIOS & SPAS",6339 E. Greenway Rd. Ste. 101 & 102,Scottsdale,AZ,United States,85254,(480)319-7791,,,,,,
HOME DEPOT - SCOTTSDALE/ 90TH ST. #420,9890 N. 90th St.,Scottsdale,AZ,United States,85253,(480)767-9294,,,,,,
HOME DEPOT - SCOTTSDALE/ INDIAN BEND RD.,9170 East Indian Bend Rd.,Scottsdale,AZ,United States,85253,(480)951-8211,,,,,,
CACTUS VALLEY POOL SUPPLY - VIA LINDA,"10105 E. Via Linda, Ste A-102",Scottsdale,AZ,United States,85258,(480)767-0800,,,,,,
HOME DEPOT - SCOTTSDALE/ HAYDEN RD. #472,15499 N. Hayden Rd.,Scottsdale,AZ,United States,85260,(480)991-3738,,,,,,
Leslie's Pool- AZ Sierra Vista,439 N Hwy 90 Byp,Sierra Vista,AZ,United States,,(520)459-2256,,,,,,
HOME DEPOT - SIERRA  VISTA #443,3500 Avenida Cochise,Sierra Vista,AZ,United States,85635,(520)439-2806,,,,,,
LESLIE'S POOL- AZ #442,"14557 W. Grand Avenue, Ste B102-B103",Surprise,AZ,United States,85374,(623)584-1033,,,,,,
LESLIE'S POOL- AZ #564,13954 W. Waddell Rd.,Surprise,AZ,United States,85379-8750,(623)214-3523,,,,,,
LESLIE'S POOL- AZ #648,17067 W Bell Rd Ste 100,Surprise,AZ,United States,85374-2976,(623)584-4222,,,,,,
HOME DEPOT - SURPRISE #483,13760 W. Bell Rd.,Surprise,AZ,United States,85374,(623)544-1129,,,,,,
Leslie's Pool- AZ W Bell Rd.,13820 W. Bell Rd.,Surprise,AZ,United States,85374,,,,,,,
B & B POOLS,1813 E. Baseline Road,Tempe,AZ,United States,85283,(480)839-4340,,,,,,
LESLIE'S POOL- AZ #183,1761 E Warner Rd,Tempe,AZ,United States,85284,(480)345-9886,,,,,,
Paddock Pools #8,1238 W. Elliot Rd.,Tempe,AZ,United States,85284,(480)947-7261,,,,,,
LESLIE'S POOL- AZ #409,3130 S Mcclintock Drive,Tempe,AZ,United States,85282,(480)777-5140,,,,,,
SUN DEVIL POOL SUPPLY -Tempe,"9880 S. Rural Rd., Ste. 109",Tempe,AZ,United States,85284,(480)753-0100,,,,,,
LESLIE'S POOL- AZ #793,1245 W Elliot Road #105 - 107,Tempe,AZ,United States,85284,(480)705-9880,,,,,,
CACTUS VALLEY POOL SUPPLY-Rural,6456 S Rural Rd,Tempe,AZ,United States,,(480)491-6100,,,,,,
HOME DEPOT - TEMPE/ BASELINE RD. #489,1330 W. Baseline Rd.,Tempe,AZ,United States,85283,(480)775-6404,,,,,,
Leslie's Pool- AZ,6340 S. Rural Rd. #105,Tempe,AZ,United States,85283,,,,,,,
HOME DEPOT - TEMPE/ WARNER RD. #458,725 W. Warner Rd.,Tempe,AZ,United States,85284,(480)496-9700,,,,,,
HOME DEPOT - THATCHER #445,750 S. 20th Ave.,Thatcher,AZ,United States,85552,,,,,,,
E-KONOMY POOL SERVICE,4912 E 22nd St.,Tucson,AZ,United States,85711,(520)790-9200,,,,,,
TUCSON POOL & SPA,170 N. Harrison,Tucson,AZ,United States,85748,(520)290-7258,,,,,,
LESLIE'S POOL - AZ #19,4639  E Speedway Blvd,Tucson,AZ,United States,85712,(520)318-0830,,,,,,
LESLIE'S POOL- AZ #202,"7955 E Broadway Blvd., Ste 147",Tucson,AZ,United States,85710,(520)733-1553,,,,,,
LESLIE'S POOL- AZ #72,5971 N. Oracle Rd,Tucson,AZ,United States,85704,(520)292-1306,,,,,,
LESLIE'S POOL- AZ #508,8800 E Tanque Verde Rd #106,Tucson,AZ,United States,85749,(520)760-3563,,,,,,
LESLIE'S POOL- AZ #556,"10515 N. Oracle Road, Ste 113",Tucson,AZ,United States,85737-9377,(520)219-1353,,,,,,
Leslie's Pool- AZ #577,"2480 N. Silverbell Rd, Ste 120",Tucson,AZ,United States,85745,(520)624-7667,,,,,,
LESLIE'S POOL- AZ #351,"7085 N. Thornydale Blvd., Bldg D",Tucson,AZ,United States,85741,(520)572-0164,,,,,,
LESLIE'S POOL- AZ #3017,1959 W. McMillan Street Ste.101,Tucson,AZ,United States,85705-2271,(520)887-5446,,,,,,
"Leslie's Pool- AZ, W. Bell Rd",17067 W. Bell Rd.,Tucson,AZ,United States,85704,,,,,,,
HOME DEPOT - TUCSON/ORACLE RD #414,4302 N. Oracle Rd.,Tucson,AZ,United States,85705,(520)408-7201,,,,,,
LESLIE'S POOL- AZ,3130 S. McClintock Dr.,Tucson,AZ,United States,85710,,,,,,,
HOME DEPOT - TUCSON/ BROADWAY BLVD. #410,7677 E. Broadway Blvd.,Tucson,AZ,United States,85710,(520)722-6171,,,,,,
HOME DEPOT - TUCSON/ BROADWAY BLVD. #486,3689 E. Broadway Blvd.,Tucson,AZ,United States,85710,(520)327-3050,,,,,,
HOME DEPOT - ORO VALLEY #481,10855 N. Oracle Rd.,Tucson,AZ,United States,85737,(520)877-3533,,,,,,
HOME DEPOT - TUCSON/ COSTCO DR. #478,3925 W. Costco Dr.,Tucson,AZ,United States,85741,(520)575-8750,,,,,,
HOME DEPOT - TUCSON - IRVINGTON RD #467,1155 W. Irvington Rd.,Tucson,AZ,United States,85746,(520)294-1233,,,,,,
LESLIE'S POOL- AZ #435,5671 N. Swan Rd,Tuscon,AZ,United States,85718-4563,(520)299-8233,,,,,,
Leslie's Pool- AZ Swan Rd,5671 N. Swan Rd.,Tuscon,AZ,United States,85718,,,,,,,
LESLIE'S POOL- AZ #293,3107 S. 4th Ave,Yuma,AZ,United States,85364,(928)344-0471,,,,,,
HOME DEPOT - YUMA #402,1111 S. Redondo Center Dr.,Yuma,AZ,United States,85364,(928)373-9453,,,,,,
Acme Pool & Spa Care,841 S Ave B,Yuma,AZ,United States,85364,(928)783-4603,,,,,,
Acme Pool & Spa Care,2471 S. 4th Ave,Yuma,AZ,United States,85364,(928)344-2195,,,,,,
Leslie's Commercial Center #534,21735 US Highway 441,Boca Raton,FL,United States,33428,(561)482-1066,,,,,,
Leslie's Pool- FL,8951 Bonita Beach Rd,Bonita Springs,FL,United States,34135,(239)949-3126,,,,,,
Leslie's Pool- FL #499,113 N Congress Ave,Boynton Beach,FL,United States,33426,(561)375-6394,,,,,,
Leslie's Pool- FL #164,2314 Del Prado Blvd S,Cape Coral,FL,United States,33990,(239)574-0030,,,,,,
Leslie's Pool- FL #668,900 SW Pine Island Rd.,Cape Coral,FL,United States,33991,(239)242-0120,,,,,,
Leslie's Pool- FL #493,8260 Wiles Rd,Coral Springs,FL,United States,33067,(954)345-7884,,,,,,
Leslie's Pool- FL #685,4627 S. University Dr.,Davie,FL,United States,33328,(954)252-5361,,,,,,
Leslie's Pool- FL #539,250 S Federal Hwy,Deerfield Beach,FL,United States,33441,(954)427-3167,,,,,,
Leslie's Commercial Center- FL,3300 Powerline Road,Fort Lauderdale,FL,United States,33309,(954)565-1405,,,,,,
LESLIE'S POOL- FL #120,11598 S. Cleveland Ave,Fort Myers,FL,United States,33907,(239)274-3500,,,,,,
Leslie's Pool- FL #689,"18911 S. Tamiami Trail, #15",Fort Myers,FL,United States,33908,(239)590-3865,,,,,,
Leslie's Pool- FL #509,2402 N Federal Hwy,Ft. Lauderdale,FL,United States,33305,(954)630-0704,,,,,,
Leslie's Pool- FL #496,5321 Sheridan St,Hollywood,FL,United States,33021,(954)518-9626,,,,,,
Leslie's Pool- FL #502,6340 W Indiantown Rd,Jupiter,FL,United States,33458,(561)746-6815,,,,,,
Leslie's Pool- FL,1234 Northlake Blvd,Lake Park,FL,United States,33403,(561)881-9280,,,,,,
Leslie's Pool- FL #606,6250 Lantana Rd,Lake Worth,FL,United States,33463,(561)304-1210,,,,,,
Leslie's Pool- FL #522,14011 S Dixie Hwy,Miami,FL,United States,33176,(305)251-0439,,,,,,
Leslie's Pool- FL Miami,12779 N Kendall Dr,Miami,FL,United States,33186,(305)385-3941,,,,,,
Leslie's Pool- FL #523,1688 NE Miami Gardens Dr,North Miami Beach,FL,United States,33179,(305)947-9400,,,,,,
Leslie's Pool- FL #528,1666 S Congress Ave,Palm Springs,FL,United States,33461,(561)434-2704,,,,,,
LESLIE'S POOL - FL,100 S Flamingo Rd,Pembroke Pines,FL,United States,33027,(954)499-7248,,,,,,
Leslie's Pool- FL #490,7149 W Broward Blvd,Plantation,FL,United States,33317,(954)689-7249,,,,,,
Leslie's Pool- FL #628,879 N. Nob Hill Rd.,Plantation,FL,United States,33324,(954)476-1075,,,,,,
Leslie's Pool- FL #491,1263 S. Federal Hwy,Pompano Beach,FL,United States,33062,(954)783-5893,,,,,,
Leslie's Commercial Center- FL,6701 Garden Rd.,Riviera Beach,FL,United States,33404,(561)842-3439,,,,,,
Leslie's Pool- FL #489,8299 N Pine Island Rd Ste 5,Tamarac,FL,United States,33321,(954)597-2653,,,,,,
LESLIE'S POOL- FL #492,"13860 Wellington Trce, Ste 34-35",Wellington,FL,United States,33414,(561)793-1246,,,,,,
Leslie's Pool- FL #495,"6901 Okeechobee Blvd, #C9",West Palm Beach,FL,United States,33411,(561)686-3671,,,,,,
HOME DEPOT - BONITA SPRINGS #6373,11941 Bonita Bch Rd. SE,Bonita Springs,FL,United States,34135,(239)947-5868,,,,,,
HOME DEPOT - BOYNTON BEACH #224,1500 SW 8th St.,Boynton Beach,FL,United States,33426,(561)364-9600,,,,,,
HOME DEPOT - CAPE CORAL #268,3031 NE Pine Island Rd.,Cape Coral,FL,United States,33909,(239)656-3033,,,,,,
HOME DEPOT - CAPE CORAL #6975,2508 Skyline Blvd.,Cape Coral,FL,United States,33914,(239)242-8093,,,,,,
HOME DEPOT - COCONUT CREEK #6356,4450 N. State Rd. 7,Coconut Creek,FL,United States,33073,(954)971-0643,,,,,,
HOME DEPOT - CORAL SPRINGS #284,750 N. University Dr.,Coral Springs,FL,United States,33071,(954)752-4188,,,,,,
HOME DEPOT - DAVIE #222,2300 S. University D,Davie,FL,United States,33325,(954)746-9600,,,,,,
HOME DEPOT - DAVIE #6326,15885 Rick Case Honda Way,Davie,FL,United States,33331,(954)385-9418,,,,,,
HOME DEPOT - DAVIE #6341,5801 University Dr.,Davie,FL,United States,33328,(954)252-1048,,,,,,
HOME DEPOT - DEERFIELD BEACH #218,60 SW 12th Ave.,Deerfield Beach,FL,United States,33442,(954)427-0028,,,,,,
HOME DEPOT - DELRAY BEACH #6315,1400 Waterford Place,Del Ray,FL,United States,33444,(561)272-5127,,,,,,
HOME DEPOT - DELRAY BEACH W,15050 Jog Rd.,Delray Beach,FL,United States,33445,(561)498-1251,,,,,,
HOME DEPOT - FLORIDA CITY #6355,33001 South Dixie Hwy,Florida City,FL,United States,33034,(786)243-9370,,,,,,
HOME DEPOT - FORT MYERS #276,14655 S. Tamiami Trail,Fort Myers,FL,United States,33912,(239)437-6333,,,,,,
HOME DEPOT - FORT MYERS #8444,3402 Forum Blvd.,Fort Myers,FL,United States,33905,(239)278-5201,,,,,,
HOME DEPOT - FT LAUDERDALE #6372,1000 Northeast 4th Ave.,Ft. Lauderdale,FL,United States,33304,(954)763-1932,,,,,,
HOME DEPOT - HIALEAH #6378,950 SE 12th Street,Hialeah,FL,United States,33010,(305)883-7748,,,,,,
HOME DEPOT - HIALEAH GARDENS #6872,13895 W. Okeechobee Rd.,Hialeah Gardens,FL,United States,33018,(305)827-0338,,,,,,
HOME DEPOT - HOLLYWOOD #285,1951 South S R #7,Hollywood,FL,United States,33023,(954)961-1761,,,,,,
HOME DEPOT - HOLLYWOOD #6310,3401 Oakwood Blvd.,Hollywood,FL,United States,33020,(954)922-7886,,,,,,
HOME DEPOT - HOMESTEAD #6873,13895 SW 288th St.,Homestead,FL,United States,33033,(786)243-1969,,,,,,
HOME DEPOT - JUPITER #274,1694 W. Indiantown Rd.,Jupiter,FL,United States,33458,(561)747-6561,,,,,,
HOME DEPOT - KEY WEST #6313,2811 N. Roosevelt Blvd.,Key West,FL,United States,33040,(305)293-1313,,,,,,
HOME DEPOT - LAKE PARK #220,3860 Northlake Blvd.,Lake Park,FL,United States,33403,(561)627-9555,,,,,,
Home Depot - Lake Worth #205,4241 Lake Worth Rd.,Lake Worth,FL,United States,33461,(561)642-2626,,,,,,
Home Depot - Lake Worth #6316,5750 Jog Rd.,Lake Worth,FL,United States,33463,(561)964-2168,,,,,,
HOME DEPOT - MARATHON #6302,4555 Overseas Hwy,Marathon,FL,United States,33050,(305)289-1966,,,,,,
HOME DEPOT - HIALEAH #209,5500 NW 167th Street,Miami,FL,United States,33014,(305)624-1900,,,,,,
HOME DEPOT - MIAMI #206,11305 SW 40th Street,Miami,FL,United States,33165,(305)552-9005,,,,,,
HOME DEPOT - MIAMI #207,19400 SW 106th Ave.,Miami,FL,United States,33157,(305)234-2700,,,,,,
HOME DEPOT - MIAMI #210,12700 SW 88th St.,Miami,FL,United States,33186,(305)386-1900,,,,,,
HOME DEPOT - MIAMI #277,3030 SW 8th St.,Miami,FL,United States,33135,(305)643-3777,,,,,,
HOME DEPOT - MIAMI #6322,12055 Biscayne Blvd.,Miami,FL,United States,33181,(305)981-2659,,,,,,
HOME DEPOT - MIAMI #6339,15750 SW 88th St.,Miami,FL,United States,33196,(305)387-5119,,,,,,
HOME DEPOT - MIAMI #6343,7899 W. Flagler St.,Miami,FL,United States,33144,(786)388-9108,,,,,,
HOME DEPOT - MIAMI #6976,11905 SW 152nd St.,Miami,FL,United States,33186,(305)234-9951,,,,,,
HOME DEPOT - MIDDLEBURG #6935,1575 Branan Field Rd.,Middleburg,FL,United States,32068,(904)589-9516,,,,,,
HOME DEPOT - MIRAMAR #6353,3183 SW 160th Ave.,Miramar,FL,United States,33027,(954)392-0767,,,,,,
HOME DEPOT - NAPLES #280,2251 Pine Ridge Rd.,Naples,FL,United States,34109,(239)597-1515,,,,,,
HOME DEPOT - NAPLES #6348,1651 S. Airport Pulling,Naples,FL,United States,34112,(239)793-2203,,,,,,
HOME DEPOT - N LAUDERDALE #6312,1195 S. State Rd.,North Lauderdale,FL,United States,33068,(954)971-2743,,,,,,
HOME DEPOT - NORTH MIAMI BEACH #251,1245 NE 163rd St.,North Miami,FL,United States,33162,(305)940-6503,,,,,,
HOME DEPOT - OAKLAND PARK #249,1701 W. Oakland Pk Blvd.,Oakland Park,FL,United States,33311,(954)733-3030,,,,,,
HOME DEPOT - PEMBROKE PINES #6852,11001 Pines Blvd.,Pembroke Pines,FL,United States,33024,(954)437-2902,,,,,,
HOME DEPOT - PINECREST,13501 South Dixie Hwy,Pinecrest,FL,United States,33156,(305)254-8765,,,,,,
HOME DEPOT - POMPANO BEACH #208,1151 NW Copans Rd.,Pompano Beach,FL,United States,33064,(954)978-6100,,,,,,
HOME DEPOT - SUNRISE #258,2901 N. University Dr.,Sunrise,FL,United States,33322,(954)747-8226,,,,,,
HOME DEPOT - SUNRISE #6329,12525 W. Sunrise Blvd.,Sunrise,FL,United States,33323,(954)835-9379,,,,,,
HOME DEPOT - WEST PALM BEACH #6320,1550 Palm Bch Lakes Blvd.,West Palm Beach,FL,United States,33401,(561)683-7221,,,,,,
HOME DEPOT - WEST PALM BEACH #6330,6800 Okeeshobee Blvd.,West Palm Beach,FL,United States,33411,(561)478-0783,,,,,,
HOME DEPOT - WEST PALM BEACH #6379,220 S. State Rd. 7,West Palm Beach,FL,United States,33414,(561)793-7048,,,,,,
LESLIE'S COMMERCIAL CENTER ,445 W. State Rd.,Altamonte Springs,FL,United States,32714,(407)682-3913,,,,,,
Leslie's Pool- FL,851 S. State Road 434,Altamonte Springs,FL,United States,32714,(407)532-0404,,,,,,
Leslie's Pool- FL #465,5160 S. Conway Rd Ste 9,Belle Isle,FL,United States,32812,(407)826-9921,,,,,,
Leslie's Commercial Center #534,21735 US Highway 441,Boca Raton,FL,United States,33428,(561)482-1066,,,,,,
Leslie's Pool- FL #499,113 N Congress Ave,Boynton Beach,FL,United States,33426,(561)375-6394,,,,,,
Leslie's Pool- FL,5757 Manatee Ave W,Bradenton,FL,United States,34209,(941)792-0777,,,,,,
Leslie's Pool- FL #712,4350 Cortez Rd. West,Bradenton,FL,United States,34210,(941)794-2500,,,,,,
Leslie's Commercial Center- FL,847 E Bloomingdale Ave,Brandon,FL,United States,33511,(813)661-8748,,,,,,
LESLIE'S POOL- FL #200,1534 W Brandon Ave,Brandon,FL,United States,33511,(813)651-3305,,,,,,
LESLIE'S POOL- FL #233,847 E Bloomingdale Ave,Brandon,FL,United States,33511,(813)661-8748,,,,,,
LESLIE'S POOL- FL #668,900 SW Pine Island Rd.,Cape Coral,FL,United States,33991,(239)242-0120,,,,,,
Leslie's Pool- FL #164,2314 Del Prado Blvd S,Cape Coral,FL,United States,33990,(239)574-0030,,,,,,
LESLIE'S POOL- FL,1530 N Mcmullen Booth Rd,Clearwater,FL,United States,33759,(727)723-0681,,,,,,
Leslie's Pool- FL #488,2670 E Highway 50,Clermont,FL,United States,34711,(352)243-5778,,,,,,
Leslie's Pool- FL #493,8260 Wiles Rd,Coral Springs,FL,United States,33067,(954)345-7884,,,,,,
LESLIE'S POOL- FL #607,111 Ambersweet Way Ste.2,Davenport,FL,United States,33897,(863)420-9120,,,,,,
Leslie's Pool- FL #685,4627 S. University Dr.,Davie,FL,United States,33328,(954)252-5361,,,,,,
Leslie's Pool- FL #539,250 S Federal Hwy,Deerfield Beach,FL,United States,33441,(954)427-3167,,,,,,
Leslie's Commercial Center- FL,3300 Powerline Road,Fort Lauderdale,FL,United States,33309,(954)565-1405,,,,,,
LESLIE'S POOL- FL #689,"18911 S. Tamiami Trail, #15",Fort Myers,FL,United States,33908,(239)590-3865,,,,,,
LESLIE'S POOL- FL #120,11598 S. Cleveland Ave,Fort Myers,FL,United States,33907,(239)274-3500,,,,,,
Leslie's Pool- FL #509,2402 N Federal Hwy,Ft. Lauderdale,FL,United States,33305,(954)630-0704,,,,,,
Leslie's Pool- FL #684,3749 Gulf Breeze Pkway #7,Gulf Breeze,FL,United States,32563,(850)916-1096,,,,,,
Leslie's Pool- FL #496,5321 Sheridan St,Hollywood,FL,United States,33021,(954)518-9626,,,,,,
Leslie's Pool- FL #502,6340 W Indiantown Rd,Jupiter,FL,United States,33458,(561)746-6815,,,,,,
Leslie's Pool- FL,1234 Northlake Blvd,Lake Park,FL,United States,33403,(561)881-9280,,,,,,
Leslie's Pool- FL #606,6250 Lantana Rd,Lake Worth,FL,United States,33463,(561)304-1210,,,,,,
LESLIE'S POOL- FL #253,4770 S. Florida Ave,Lakeland,FL,United States,33813,(863)647-2343,,,,,,
LESLIE'S POOL- FL #747,3115 US Hwy 98 N,Lakeland,FL,United States,33813,(863)688-4139,,,,,,
LESLIE'S POOL- FL #527,"10350 Seminole Blvd., Ste 206",Largo,FL,United States,33778,(727)319-3069,,,,,,
Leslie's Pool- FL #462,3855 Wekiva Springs Rd.,Longwood,FL,United States,32779,(407)862-0726,,,,,,
LESLIE'S POOL- FL,1408 W. New Haven Ave.,Melbourne,FL,United States,32904,(321)723-1012,,,,,,
LESLIE'S POOL- FL #522,14011 S. Dixie Hwy,Miami,FL,United States,33176,(305)251-0439,,,,,,
Leslie's Pool- Miami,12779 N Kendall Dr,Miami,FL,United States,33186,(305)385-3941,,,,,,
Leslie's Pool- FL #523,1688 NE Miami Gardens Dr,North Miami Beach,FL,United States,33179,(305)947-9400,,,,,,
Leslie's Pool- FL #711,17473 Tamami Trail,North Port,FL,United States,34287,(941)429-4477,,,,,,
Leslie's Pool- FL #582,2701 SW College Rd,Ocala,FL,United States,34474,(352)873-7311,,,,,,
Leslie's Pool- FL #475,1485 E Silver Star Rd,Ocoee,FL,United States,34761,(407)522-3633,,,,,,
Leslie's Pool- FL #608,985 Harley Strickland Blvd,Orange City,FL,United States,32763,(386)774-1925,,,,,,
LESLIE'S POOL- FL #497,4181 Town Center Blvd,Orlando,FL,United States,32837,(407)251-7810,,,,,,
LESLIE'S POOL- FL #523,1987 S Alfaya Trl,Orlando,FL,United States,32828,(407)243-9503,,,,,,
LESLIE'S POOL- FL #657,8085 Red Bug Lake Rd.,Oviedo,FL,United States,32765,(407)366-4472,,,,,,
LESLIE'S POOL- FL #536,160 Malabar Rd SW,Palm Bay,FL,United States,32907,(321)726-6645,,,,,,
LESLIE'S POOL- FL #567,2843 SW Cafe CT,Palm City,FL,United States,34990,(772)287-9262,,,,,,
LESLIE'S POOL- FL #228,32546 US Highway 19 N,Palm Harbor,FL,United States,34684,(727)781-4625,,,,,,
LESLIE'S POOL- FL #683,615 E 23rd St.,Panama City,FL,United States,32405,(850)913-9773,,,,,,
LESLIE'S POOL - FL,100 S Flamingo Rd,Pembroke Pines,FL,United States,33027,(954)499-7248,,,,,,
LESLIE'S POOL- FL #687,1765 E 9 Mile Rd,Pensacola,FL,United States,32514,(850)494-9233,,,,,,
LESLIE'S POOL- FL #490,7149 W Broward Blvd,Plantation,FL,United States,33317,(954)689-7249,,,,,,
LESLIE'S POOL- FL #628,"879 N. Nob Hill Rd., Ste 20",Plantation,FL,United States,33324,(954)476-1075,,,,,,
LESLIE'S POOL- FL #491,1263 S. Federal Hwy,Pompano Beach,FL,United States,33062,(954)783-5893,,,,,,
LESLIE'S POOL- FL #565,"1900 S. Tamiami Tail, # 119-120",Port Charlotte,FL,United States,33948,(941)627-0354,,,,,,
LESLIE'S POOL- FL #572,1665 Dunlawton Ave,Port Orange,FL,United States,32127,(386)304-2870,,,,,,
LESLIE'S POOL- FL #604,"7007 Ridge Rd., Ste. 24 & 25",Port Richey,FL,United States,34668,(727)842-2496,,,,,,
LESLIE'S POOL- FL #726,3267 SW Port St. Lucie Blvd.,Port Saint Lucie,FL,United States,34953,(772)878-0510,,,,,,
LESLIE'S POOL- FL #557,938 SW Saint Lucie West Blvd,Port Saint Lucie,FL,United States,34986,(772)871-1537,,,,,,
LESLIE'S POOL- FL #638,10651 Big Bend Rd. #53,Riverview,FL,United States,33579,(813)671-4104,,,,,,
LESLIE'S COMMERCIAL CENTER,6701 Garden Rd.. Ste 3,Riviera Beach,FL,United States,33404,(561)842-3439,,,,,,
LESLIE'S POOL- FL #531,4284 Bee Ridge Rd,Sarasota,FL,United States,34233,(941)371-9455,,,,,,
LESLIE'S POOL- FL #701,8760 S. Tamiami Trail,Sarasota,FL,United States,34238,(941)966-1052,,,,,,
LESLIE'S POOL- FL #658,4169 Mariner Blvd,Spring Hill,FL,United States,34609,(352)684-7898,,,,,,
LESLIE'S POOL- FL #596,280 37th Ave N,St Petersburg,FL,United States,33704,(727)822-1502,,,,,,
LESLIE'S POOL- FL #547,2415 NW Federal Hwy,Stuart,FL,United States,34994,(772)232-9870,,,,,,
LESLIE'S POOL- FL #355,2515 North Monroe St.,Tallahassee,FL,United States,32303,(850)523-0750,,,,,,
LESLIE'S POOL- FL #489,"8299 N. Pine Island Rd., Ste 5",Tamarac,FL,United States,33321,(954)597-2653,,,,,,
LESLIE'S POOL- FL #690,13823 W Hillsborough Ave.,Tampa,FL,United States,33635,(813)855-3879,,,,,,
LESLIE'S POOL- FL #700,2202 S. Dale Mabry Hwy,Tampa,FL,United States,33629,(813)251-0415,,,,,,
LESLIE'S POOL- FL #79,14364 N Dale Mabry Hwy,Tampa,FL,United States,33618,(813)968-1534,,,,,,
LESLIE'S POOL- FL Tampa #417,8418 Sheldon Rd,Tampa,FL,United States,33615,(813)888-9930,,,,,,
LESLIE'S POOL- FL #755,1151 S. Pinellas Ave.,Tarpon Springs,FL,United States,34689,(727)943-8346,,,,,,
LESLIE'S POOL- FL #533,4347 Tamiami Trl S.,Venice,FL,United States,34293,(941)492-2557,,,,,,
LESLIE'S POOL- FL #753,619 US Hwy 41 BYP N,Venice,FL,United States,34285,(941)488-3172,,,,,,
LESLIE'S POOL- FL #535,"1335 US Highway 1, Ste 1",Vero Beach,FL,United States,32960,(772)299-3274,,,,,,
LESLIE'S POOL- FL #492,"13860 Wellington Trce, Ste 34-35",Wellington,FL,United States,33414,(561)793-1246,,,,,,
LESLIE'S POOL- FL #482,1255 Bruce B Downs Blvd,Wesley Chapel,FL,United States,33543,(813)994-2557,,,,,,
LESLIE'S POOL- FL #495,"6901 Okeechobee Blvd, #C9",West Palm Beach,FL,United States,33411,(561)686-3671,,,,,,
LESLIE'S POOL- FL #688,2879 Maguire Rd.,Windermere,FL,United States,34786,(407)656-0415,,,,,,
LESLIE'S POOL- FL #581,7050 Cypress Gardens Blvd,Winter Haven,FL,United States,33884,(863)326-9380,,,,,,
LESLIE'S POOL- FL #494,2245 Aloma Avenue,Winter Park,FL,United States,32792,(407)671-8127,,,,,,
KERNER  CPA,311 Fairway Ct,Atlantis,FL,United States,33462,(561)371-4872,,,,,,
Live Blue Green Incorporated,1975 N. Federal Highway,Boca Raton,FL,United States,33432,(561)945-4864,,,,,,
FOUNTAINS N SLATE,3841 Arbor Avenue,Bunnell,FL,United States,32110,(386)586-4062,,,,,,
Tropical Lawn & Nursey,119 Clearlake Drive,Cocoa,FL,United States,32922,(321)631-1723,,,,,,
URDL'S WATER GARDENING CTR,2010 NW 1st Street,Delray Beach,FL,United States,33445,(561)276-9017,,,,,,
HALL FOUNTAINS,5500 NW 22nd Avenue,Fort Lauderdale,FL,United States,33309,(954)484-8530,,,,,,
"CONCRETE CREATIONS, INC.",12637 Phillips Hwy,Jacksonville,FL,United States,32256,(904)880-4733,,,,,,
Coral Reef Tropical Pools,1A Barracuda Lane,Key Largo,FL,United States,33037,(305)367-2005,,,,,,
DISTINCTIVE STONE STATUARY,17821 E Colonial Drive,Orlando,FL,United States,32820,(407)568-6835,,,,,,
Apenberry's Inc.,3443 Edgewater Dr.,Orlando,FL,United States,32804,(407)644-5909,,,,,,
KELLY'S CHEMICAL SUPPLY,135 NE 1st Avenue,Pompano Beach,FL,United States,33060,(954)942-8769,,,,,,
Treasure Cove II Inc,8165 25th Court East,Sarasota,FL,United States,34243,(941)556-0202,,,,,,
"TREASURE COVE II, INC.",8927 S. Tamiami Trail,Sarasota,FL,United States,34238,(941)966-2004,,,,,,
Something Different,3252 Tyrone Blvd N,St Petersburg,FL,United States,33710,(727)384-2202,,,,,,
WILD BIRDS UNLIMITED,450 State Road 13 North Ste 108,St. Johns,FL,United States,32259,(904)230-3242,,,,,,
WILD BIRDS UNLIMITED,13140 N. Dale Mabry Hwy,Tampa,FL,United States,33618,(813)961-2772,,,,,,
FLORIDA WATER PRODUCTS,3029 N Forsyth Rd,Winter Park,FL,United States,32792,(407)679-7787,,,,,,
The Greenery,6726 N. Lecanto Hwy,Beverly Hills,FL,United States,34465,(352)489-5023,,,,,,
Yarco- The Yard Co Store,7729 Lawrence Rd,Boynton Beach,FL,United States,33436,(561)433-4148,,,,,,
Big Earth Landscape Supply,6001 15th St. E,Bradenton,FL,United States,34203,(941)755-9299,,,,,,
Tropical Home & Garden,28660 US Highway 19 N,Clearwater,FL,United States,34621,(727)796-1572,,,,,,
Big Value Garden Center,768 N Nova Rd,Daytona Beach,FL,United States,32114,(386)252-0349,,,,,,
Oberst Landscaping At Nova,1860 N Nova Rd,Daytona Beach,FL,United States,32117,(386)252-0260,,,,,,
Ace Pump & Supply,6013 Johnson St,Hollywood,FL,United States,33024,(954)981-7424,,,,,,
Hall's Nursery,5645 Blanding Blvd.,Jacksonville,FL,United States,32244,(904)771-6330,,,,,,
Delta Fountains,11494 Columbia Park Dr W #4,Jacksonville,FL,United States,32258,(904)886-9030,,,,,,
Turner Ace Hardware,784 Marsh Landing Pkwy,Jacksonville Beach,FL,United States,32250,(904)273-1998,,,,,,
"Commercial Energy Specialists, Inc.","860 Jupiter Park Drive, Ste 2",Jupiter,FL,United States,33458,(561)744-1557,,,,,,
Key West Chemical Inc.,909 Simonton St.,Key West,FL,United States,33040,(305)294-3703,,,,,,
Driftwood Garden Center & Florist,5051 Tamiami Trail North,Naples,FL,United States,34103,(239)261-0328,,,,,,
Universal Pottery Kingdom,11555 Us Highway 1,North Palm Beach,FL,United States,33408,(561)625-0333,,,,,,
Porter's Nursery & Crafts,2175 SE 58 Ave,Ocala,FL,United States,34471,(352)624-0101,,,,,,
Green Gardens Nursery,3443 Edgewater Drive,Orlando,FL,United States,32804,(407)841-3088,,,,,,
Atlas Concrete Products,6452 E Colonial Dr,Orlando,FL,United States,32807,(407)277-0841,,,,,,
Jrc Concrete Products,994 S Fairfield Dr,Pensacola,FL,United States,32506,(850)456-9665,,,,,,
Paramount Concrete Products,1620 S. Dixie Hwy,Pompano,FL,United States,33060,(954)946-3923,,,,,,
Nu-Turf Garden Shop,2801 N. Dixie Highway,Pompano Beach,FL,United States,33064,(954)942-8409,,,,,,
Gardenique,2900 W Sample Rd #22 Parade,Pompano Beach,FL,United States,33073,(954)975-5920,,,,,,
Future Horizons Inc.,3878 Prospect Avenue #13,Riviera Beach,FL,United States,33404,(561)842-1551,,,,,,
Landscape Depot,6370 S. US Highway 1,Rockledge,FL,United States,32955,(321)259-1620,,,,,,
Kim's Wholesale Nursery,5608 Us Highway 41 N,Ruskin,FL,United States,33572,(813)645-1769,,,,,,
Freeport Fountains,1510 Kastner Place,Sanford,FL,United States,32771,(800)338-1765,,,,,,
Desert Sun Imports of Sarasota,8201 Tamiami Trail,Sarasota,FL,United States,34238,(941)921-8289,,,,,,
Richard's Landscaping & Water,1832 Pandora Drive,Sarasota,FL,United States,34232,(941)922-2206,,,,,,
Big Earth Landscape Supply,6625 Bee Ridge Rd.,Sarasota,FL,United States,34241,(941)379-2440,,,,,,
Robin's Nursery,4803 U.S. 27,Sebring,FL,United States,33870,(863)385-1111,,,,,,
Herbal Creations,5256 Shore Dr.,St Augustine,FL,United States,32086,(904)824-6635,,,,,,
Uni-Scape Landscape & Design,4667 Woodstock Rd,St James City,FL,United States,33956,(941)283-7733,,,,,,
Art Stone Co,3611 Tyrone Blvd N,St Petersburg,FL,United States,33710,(727)345-6733,,,,,,
Architectural Fountains Inc,2010 28th St N,St Petersburg,FL,United States,33713,(727)323-6068,,,,,,
Rite-Flo Supply Inc,3246 44th Ave N,St Petersburg,FL,United States,33714,(727)526-0607,,,,,,
Harmonic Environment,26 Simara Street,Stuart,FL,United States,34996,(772)223-9011,,,,,,
Tavenner Painting & Housing,2203 Wall Street,Tallahassee,FL,United States,32309,(850)893-3457,,,,,,
Red Hogan Enterprises Inc,3109 E 4th Ave,Tampa,FL,United States,33605,(813)248-3428,,,,,,
Pondscapes,4213 S Manhattan Ave,Tampa,FL,United States,33611,(813)839-8062,,,,,,
OB Garden Center,2529 W. Columbus Drive,Tampa,FL,United States,33607,(813)414-9223,,,,,,
Flora Extraordinaire,1401 Castleworks Lane,Tarpon Springs,FL,United States,34689,(727)938-4922,,,,,,
Creature Castle,101 S Saint Cloud Ave,Valrico,FL,United States,33594,(813)684-1466,,,,,,
Wesco Fountains,420 E Venice Ave,Venice,FL,United States,34292,(941)484-8224,,,,,,
Bernardi Fountains & Statuary,2950 Palmarita Rd,West Palm Beach,FL,United States,33406,(561)968-1487,,,,,,
Slocum Water Gardens,1101 Cypress Gardens Blvd.,Winter Haven,FL,United States,33884,(863)293-7151,,,,,,
Florida Fountain Maintenance,7826 Fort King Rd,Zephyr Hills,FL,United States,33539,(813)782-2843,,,,,,
"CLEAR CHOICE POOL CARE, LLC",819 Lindenwald Ln,Altamonte Springs,FL,United States,32701,(863)224-4682,,,,,,
Pinch A Penny #130,6508 N US Hwy 41,Apollo Beach,FL,United States,33572,(813)555-5555,,,,,,
BLUE SPRINGS POOLS,6580 Riparian Rd,Atlantis,FL,United States,33462,(561)209-3075,,,,,,
POOL WORKS,226 E. Lake Ave.,Auburndale,FL,United States,33823,(863)967-2863,,,,,,
THE POOL STORE,4600 NW 2nd Ave,Boca Raton,FL,United States,33431,(561)392-7177,,,,,,
BASIC POOL & SPA SUPPLY,3300 S. Congress Ave. #13,Boynton Beach,FL,United States,33426,(561)734-9443,,,,,,
AQUA PLUS POOLS,52 Riley Road,Celebration,FL,United States,34747,(407)346-8410,,,,,,
CLEARWATER POOL AND PATIO,27384 US Hwy 19 N,Clearwater,FL,United States,33761,(727)791-3100,,,,,,
Pools 'N More Factory Outlet,10950 Wiles Road,Coral Springs,FL,United States,33076,(954)757-7665,,,,,,
NOAH'S POOL SERVICE,5216 SW 92 Ter,Davie,FL,United States,33328,(954)205-6915,,,,,,
BUDGET POOL SUPPLY,1330 Howland Blvd,Deltona,FL,United States,32738,(386)574-5477,,,,,,
"COLONIAL POOL & SPA, INC.",4290 Cleveland Ave,Fort Myers,FL,United States,33901,(239)275-8422,,,,,,
DOWNTOWN POOLS,912 N Federal Hwy,Ft. Lauderdale,FL,United States,33304,(954)525-1048,,,,,,
Specialty Pool Service,1906 Hwy 19 (Pappas Plaza),Holiday,FL,United States,34691,(727)937-1841,,,,,,
"POOL PROS OF PASO, LLC",7300 Windsor Rd,Hudson,FL,United States,34667,(727)247-2214,,,,,,
"EASY MODERN LIVING, INC.",1005 South Florida Ave,Inverness,FL,United States,34450,(352)637-1904,,,,,,
AQUATECH POOLS BY JOHN CLARKSON,600 St. Johns Bluff Road N.,Jacksonville,FL,United States,32225,(904)223-4050,,,,,,
AAA CUSTOM POOLS,5155 Corporate Way,Jupiter,FL,United States,33458,(561)493-8841,,,,,,
East Coast Pool Supply - Jupiter,5540 Military Trail #9,Jupiter,FL,United States,33458,(561)262-6469,,,,,,
"POINCIANA POOLS, INC.",2621 Derby Dr.,Kissimmee,FL,United States,34744,(407)944-9190,,,,,,
ADVANTAGE POOLS,757 SW SR 247 Suite 101,Lake City,FL,United States,32025,(386)758-7522,,,,,,
SWIM 'N FUN,3653 Lake Emma Road,Lake Mary,FL,United States,32746,(407)333-4263,,,,,,
"GRIFFEN POOLS, INC.",3404 Reynolds Road,Lakeland,FL,United States,33803,(863)293-5925,,,,,,
"ESTATE POOLS, INC.",11161 E. State Rd #70 East,Lakewood Ranch,FL,United States,34202,(941)320-8388,,,,,,
AQUA BLUE POOLS OF CENTRAL FLORIDA,638 Washburn Road,Melbourne,FL,United States,32934,(312)777-2812,,,,,,
AQUA-RITE POOLS & MORE,"4100 N. Wickham Rd, Suite 105",Melbourne,FL,United States,32935,(321)255-0506,,,,,,
PINCH A PENNY,950 N. Courtney Pkwy,Merritt Island,FL,United States,32953,(321)453-1986,,,,,,
PINCH-A-PENNY #41,14405 S. Dixie Hwy,Miami,FL,United States,33176,(305)252-1946,,,,,,
POOL & COOL,12269 SW 132 Ct,Miami,FL,United States,33186,(305)256-7000,,,,,,
STAHLMAN POOL COMPANY,P.O. Box 990968,Naples,FL,United States,34116,(239)774-2230,,,,,,
SUPREME CHEMICAL CO.,1915 NE 153RD ST #1,North Miami,FL,United States,33162,(305)947-8954,,,,,,
"BACKYARD POOL & SPA, INC.",3925 SE 45th Ct.,Ocala,FL,United States,34480,(800)926-5770,,,,,,
GWG POOLS,11405 Challenger Ave.,Odessa,FL,United States,33556,(727)455-8988,,,,,,
ARTESIAN POOLS INC.,7347 E. Colonial Dr.,Orlando,FL,United States,32805,(407)846-1076,,,,,,
C. L. INDUSTRIES,8188 South Orange Ave,Orlando,FL,United States,32809,(800)333-2660,,,,,,
"MILLER'S HOME SERVICE, INC.",7342 Woodknot Ct,Orlando,FL,United States,32835,(407)295-2162,,,,,,
SPARKLING POOL CARE INC.,8513 Forest City Road,Orlando,FL,United States,32810,(407)440-2450,,,,,,
"CM CUSTOM POOL DESIGNS, INC.",1050 Roberts Street,Ormond Beach,FL,United States,32724,(386)615-7425,,,,,,
BLUE ANGEL HOT TUBS & POOLS,5501 Saufley Field Rd,Pensacola,FL,United States,32526,(850)456-5252,,,,,,
Innerarity Ace Hardware,13650 Innerarity Point Rd,Pensacola,FL,United States,32507,(850)492-7749,,,,,,
"ABYSS POOLS, LLC",845 Stony Point Dr,Port Orange,FL,United States,32128,(386)322-7946,,,,,,
TREASURE COAST POOL SERVICE,1222 SW Porter Rd,Port Saint Lucie,FL,United States,34953,(772)336-2222,,,,,,
POSITIVE POOL WHOLESALE,7040 Hwy 301 S,Riverview,FL,United States,33578,(813)677-4232,,,,,,
"ALL SEASONS POOLS, INC.",185 E Airport Blvd,Sanford,FL,United States,32773,(407)948-6968,,,,,,
HELMER POOLS,2890 US Hwy 98 West,Santa Rosa Beach,FL,United States,32459,(850)622-1162,,,,,,
AARON'S ELITE POOL SERVICE,2123 Global Ct,Sarasota,FL,United States,34240,(941)922-6877,,,,,,
"EXCELLENCE IN POOL CARE, LLC",2509 Regatta Dr,Sarasota,FL,United States,34231,(941)929-7719,,,,,,
"OCEAN BLUE POOL SUPPLIES, LLC",8750 Midnight Pass Rd Suite 600c,Sarasota,FL,United States,34242,(941)373-6389,,,,,,
SUN KING POOL SERVICES,17016 Palm Point Dr,Tampa,FL,United States,33647,(813)321-6424,,,,,,
ATLANTIS POOLS FROM THE SEA,4871 Sisson Rd,Titusville,FL,United States,32780,(321)266-3656,,,,,,
"ECONOMY POOL SUPPLIES & SERVICE, INC.",781 US 41 Bypass S,Venice,FL,United States,34285,(941)485-3440,,,,,,
BLUE HORSESHOE POOLS,4327 Us Hwy 27,Vermont,FL,United States,34711,(407)485-5393,,,,,,
EAST COAST POOL SUPPLY #5,1107 Royal Palm Beach Blvd,West Palm Beach,FL,United States,33411,(561)790-4877,,,,,,
"TMZ POOLS, INC.",3653 Chesapeake Ct,West Palm Beach,FL,United States,33414,(561)718-8589,,,,,,
"MERO HOME SERVICES, INC.",862 Vista Meadows Dr,Weston,FL,United States,33327,(754)244-0592,,,,,,
Water Song,6000 Glades Rd,Boca Raton,FL,United States,33431-7204,(561)367-0144,,,,,,
Live Blue Green Incorporated,1975 N. Federal Highway,Boca Raton,FL,United States,33432,(561)945-4864,,,,,,
Sharlet's Designs,11083 Mandaley Way,Boyinton Beach,FL,United States,33437,,,,,,,
Pottery Place,,Boynton Beach,FL,United States,33483,(561)735-3987,,,,,,
Yarco- The Yard Co Store,7729 Lawrence Rd,Boynton Beach,FL,United States,33436,(561)433-4148,,,,,,
Waltzing Waters MFG,917 SE 13th PL,Cape Coral,FL,United States,33990,(941)574-5181,,,,,,
Tropical Trees Of Davie,4700 S. University Drive,Davie,FL,United States,33328-3820,(954)434-6015,,,,,,
Vertex Water Features,426 SW 12th Ave,Deerfield Beach,FL,United States,33442-3108,(954)426-8110,,,,,,
Urdl's Water Gardening Ctr,2010 NW 1st Street,Delray Beach,FL,United States,33445-3445,(561)276-9017,,,,,,
HALL FOUNTAINS,5500 NW 22nd Avenue,Fort Lauderdale,FL,United States,33309,(954)484-8530,,,,,,
Stone & Water Design,1317 Sunbury Dr,Fort Myers,FL,United States,33901-8740,(941)334-7042,,,,,,
Wesco Fountains,420 E Venice Ave,Venice,FL,United States,34292-2672,(941)484-8224,,,,,,
KERNER  CPA,311 Fairway Ct,Atlantis,FL,United States,33462,(561)371-4872,,,,,,
Water Song,9469 W Atlantic Blvd,Coral Springs,FL,United States,33071-6945,(954)341-5554,,,,,,
Urdles Water Garden,20 N Congress Ave,Delray Beach,FL,United States,33445-3417,(561)272-0501,,,,,,
Driftwood Garden Center,20071 S. Tamiami Trail,Estero,FL,United States,33928,(941)947-9676,,,,,,
Southwest Florida Fountains,6204 Principia Dr,Fort Myers,FL,United States,33919-4981,(941)489-4643,,,,,,
Decort Stonework Inc.,2400 W 3rd CT,Hialeah,FL,United States,33010-1439,(305)887-3665,,,,,,
JOLIE PRODUCTS INC.,2438 Sheridan Street,Hollywood,FL,United States,33020,,,,,,,
Ace Pump & Supply,6013 Johnson St,Hollywood,FL,United States,33024-6027,(954)981-7424,,,,,,
Florida Stonecraft,5612 Dewey St,Hollywood,FL,United States,33023-1916,(954)456-4167,,,,,,
"Commercial Energy Specialists, Inc.","860 Jupiter Park Drive, Ste 2",Jupiter,FL,United States,33458,(561)744-1557,,,,,,
Coral Reef Tropical Pools,1A Barracuda Lane,Key Largo,FL,United States,33037,(305)367-2005,,,,,,
Key West Chemical Inc.,P.O. 4918,Key West,FL,United States,33040,(800)432-7184,,,,,,
The Concrete Gallery,1739 Pierce Drive,Lakeworth,FL,United States,33460,(561)351-4503,,,,,,
Universal  Fountain Inc,7328 NW 8th Street,Miami,FL,United States,33126,(305)893-1857,,,,,,
BARBIE'S ORNAMENTAL CTR,9985 SW 72nd St,Miami,FL,United States,33173-4622,(305)270-6828,,,,,,
Janusz Art Stone Inc,7025 NE 2nd Ave,Miami,FL,United States,33138-5507,(305)754-7171,,,,,,
Parker Sod Landscape CTR,7600 SW 87th Ave,Miami,FL,United States,33173-3594,(305)596-5610,,,,,,
Kast Stone Inc,66 NW 22nd Street,Miami,FL,United States,33127,(305)573-3366,,,,,,
Exim Traders,5539 N.W. 72nd  Ave.,Miami,FL,United States,33166,(305)372-5039,,,,,,
Pond Works,1065 31st St SW,Naples,FL,United States,34117-4203,(941)455-8564,,,,,,
Lotus Tropical Gardens Inc,1055 Pompei Ln,Naples,FL,United States,34103-8910,(941)649-0100,,,,,,
Driftwood Garden Exchange,5051 Tamiami Trail North,Naples,FL,United States,34103,(239)261-0328,,,,,,
Driftwood Garden Center,5051 Tamiami TRL N.,Naples,FL,United States,34103,(941)261-0328,,,,,,
Universal Pottery Kingdom,11555 Us Highway 1,North Palm Beach,FL,United States,33408-3025,(561)625-0333,,,,,,
Villda B'Deporro,211 North Ave,Palm Beach,FL,United States,33480-4614,(561)655-3147,,,,,,
Nu-Turf Garden Shop,2801 N. Dixie Highway,Pompano Beach,FL,United States,33064-4505,(954)942-8409,,,,,,
KELLY'S CHEMICAL SUPPLY,135 NE 1st Avenue,Pompano Beach,FL,United States,33060,(954)942-8769,,,,,,
Future Horizons Inc,3878 Prospect Avenue #13,Riviera Beach,FL,United States,33404,(561)842-1551,,,,,,
Uni-Scape Landscape & Design,4667 Woodstock Rd,St James City,FL,United States,33956-2929,(941)283-7733,,,,,,
Lofty Lion,203 W Venice Ave,Venice,FL,United States,34285-2002,(941)485-2588,,,,,,
Bernardi Fountains & Statuary,2950 Palmarita Rd,West Palm Beach,FL,United States,33406-5143,(561)968-1487,,,,,,
Eve's Gallery & Garden Art,1501 N Dixie Hwy,West Palm Beach,FL,United States,33401-2707,(561)838-9040,,,,,,
HOME DEPOT - West Palm Beach,1109 Aviary Road,West Palm Beach,FL,United States,33414,(561)791-8910,,,,,,
Tile Walk Inc.,1817 South 60 Hwy,West Palm Beach,FL,United States,33401,(561)659-9350,,,,,,
Watts Pots,1696 Old Okeechobee RD STE 3C,WestPalm Beach,FL,United States,33409-5219,(561)683-5919,,,,,,
University Pottery,4237 Okeechobee Blvd,WestPalm Beach,FL,United States,33409-3230,(561)684-8114,,,,,,
Universal Fountain Inc.,,,FL,United States,,(305)262-0038,,,,,,
The Aquarium Inc,933 S Orange Blossom Trl,Apopka,FL,United States,32703-3710,(407)884-4344,,,,,,
Longwood Nursery & Garden Shop,815 W State Road 434,Longwood,FL,United States,32750,(407)332-8361,,,,,,
Landscape Gardener,1102 S Riverside Dr,New Smyrna Beach,FL,United States,32168-7451,(386)427-9892,,,,,,
GREEN GARDENS NURSERY,3443 Edgewater Drive,Orlando,FL,United States,32804,(407)841-3088,,,,,,
DISTINCTIVE STONE STATUARY,17821 E Colonial Drive,Orlando,FL,United States,32820-2218,(407)568-6835,,,,,,
Water Garden World,6220 S Orange Blossom Trl,Orlando,FL,United States,32809-4630,(407)856-1219,,,,,,
Landscape Depot,6370 S. US Highway 1,Rockledge,FL,United States,32955,(321)259-1620,,,,,,
Kim's Wholesale Nursery,5608 Us Highway 41 N,Ruskin,FL,United States,33572-3100,(813)645-1769,,,,,,
Stone Man Statue man,4103 Gunn HWY,Tampa,FL,United States,33624,(813)908-9720,,,,,,
The Garden Party,2832 S Macdill Ave,Tampa,FL,United States,33629-7224,(813)831-7176,,,,,,
J J Watts Studio,5103 S Macdill Ave,Tampa,FL,United States,33611-3801,(813)902-9554,,,,,,
Preferred Pools & Patios Inc,5110 E Broadway Ave,Tampa,FL,United States,33619-2704,(813)247-7665,,,,,,
Red Hogan Enterprises Inc,3109 E 4th Ave,Tampa,FL,United States,33605-5713,(813)248-3428,,,,,,
Pondscapes,4213 S Manhattan Ave,Tampa,FL,United States,33611-1301,(813)839-8062,,,,,,
Tampa Statuary,1209 W. Kennedy Blvd.,Tampa,FL,United States,33606,(813)258-3900,,,,,,
OB Garden Center,2512 W. Columbus Drive,Tampa,FL,United States,33607-2212,(813)414-9223,,,,,,
WILD BIRDS UNLIMITED,13140 N. Dale Mabry Hwy,Tampa,FL,United States,33618,(813)961-2772,,,,,,
James Group,39650 Us Highway 19 N #1121,Tarpon Springs,FL,United States,34689-3942,,,,,,,
Flora Extraordinaire,1401 Castleworks Lane,Tarpon Springs,FL,United States,34689-2804,(727)938-4922,,,,,,
Creature Castle,101 S Saint Cloud Ave,Valrico,FL,United States,33594-3991,(813)684-1466,,,,,,
Slocum Water Gardens,1101 Cypress Gardens Blvd.,Winter Haven,FL,United States,33884,(863)293-7151,,,,,,
Robin's Nursery,,,FL,United States,,(863)385-1111,,,,,,
Wholesale Landscape Supply,6001 15th St E,Bradenton,FL,United States,34203-6963,(941)755-9299,,,,,,
Sun Bay Nursery & Landscaping,2424 Manatee Ave E,Bradenton,FL,United States,34208-2420,(941)748-4166,,,,,,
FOUNTAINS N SLATE,3841 Arbor Avenue,Bunnell,FL,United States,32110,(386)586-4062,,,,,,
Royal Pools Of Central Florida Inc.,,Casselberry,FL,United States,,(407)695-2399,,,,,,
Hydro Spa,13055 49th St. N,Clearwater,FL,United States,33762,(727)573-9611,,,,,,
Big Value Garden Center,768 N Nova Rd,Daytona Beach,FL,United States,32114-1742,(386)252-0349,,,,,,
Oberst Landscaping At Nova,1860 N Nova Rd,Daytona Beach,FL,United States,32117-1420,(904)252-0260,,,,,,
Statues Unlimited,205 S. US HWY 27,Minneola,FL,United States,34755,(354)241-8440,,,,,,
Westcoast Waterscapes,211 Burney Rd,Osprey,FL,United States,34229-9443,(941)966-0481,,,,,,
Mastercast,673 SW Carter Ave,Port Saint Lucie,FL,United States,34983-2972,(772)340-2153,,,,,,
Freeport Fountains,1510 Kastner Place,Sanford,FL,United States,32771,(800)338-1765,,,,,,
Desert Sun Imports Inc,8201 S Tamiami Trl,Sarasota,FL,United States,34238-2966,(941)922-4192,,,,,,
Treasure Cove II Inc,8165 25th Court East,Sarasota,FL,United States,34243,(941)556-0202,,,,,,
Wholesale Landscape Supply Inc,6625 Bee Ridge Rd,Sarasota,FL,United States,34241-5748,(941)379-2440,,,,,,
"TREASURE COVE II, INC.",8927 S. Tamiami Trail,Sarasota,FL,United States,34238,(941)966-2004,,,,,,
Mullet's Pool Care Inc,15759 Hancock Rd,Sarasota,FL,United States,34240,(941)780-5856,,,,,,
Clear Wave Pool Care,P.O. Box 51535,Sarasota,FL,United States,34232,(941)330-5757,,,,,,
Art Stone Co,3611 Tyrone Blvd N,St Petersburg,FL,United States,33710-1126,(727)345-6733,,,,,,
Architectural Fountains Inc,2010 28th St N,St Petersburg,FL,United States,33713-4223,(727)323-6068,,,,,,
Something Different,3252 Tyrone Blvd N,St Petersburg,FL,United States,33710-2338,(727)384-2202,,,,,,
Rite-Flo Supply Inc,3246 44th Ave N,St Petersburg,FL,United States,33714-3810,(727)526-0607,,,,,,
Scotty's,P.O. Box 7439,Winter Haven,FL,United States,33883-7439,(863297-6049,,,,,,
Wild Birds Unlimited,5263 Prospect Rd,San Jose,CA,United States,95129,(408)252-5712,,,,,,
Longs Drug Stores - Main office,141 N. Civic Drive,Walnut Creek,CA,United States,94596,(925)210-6870,,,,,,
Wedekind's Garden Center,21095 Broadway,Sonoma,CA,United States,95476,(707)938-2727,,,,,,
Garden Source,606 W 2nd St,Antioch,CA,United States,94509-1270,(925)754-7373,,,,,,
Puratec Co,PO Box 9175,San Jose,CA,United States,95157-0175,(408)374-3903,,,,,,
Pond & Garden,6225 Stony Point Rd,Cotati,CA,United States,94931,(707)792-9141,,,,,,
Realrock Ind,5455 Highway 29,American Canyon,CA,United States,94589,(707)257-3542,,,,,,
Studio 42,23 N Santa Cruz Ave,Los Gatos,CA,United States,95030-5916,(408)395-3191,,,,,,
T & T Marine Aquarium & Koi,950 S 1st St,San Jose,CA,United States,95110-3127,(408)279-1868,,,,,,
Yama-Matsu Landscape Co,15567 Camino Del Cerro,Los Gatos,CA,United States,95032-3734,(408)358-4242,,,,,,
Western Water Gardens,14535 Bercaw Ln,San Jose,CA,United States,95124-2838,(408)559-7762,,,,,,
GIANNINI GARDEN ORNAMENTS,225 Shaw Rd.,So. San Francisco,CA,United States,94080,(650)873-4493,,,,,,
East Bay Nature,1270 A Newell Avenue,Walnut Creek,CA,United States,94596,(925)407-1333,,,,,,
"IRONSTONE, INC.",2023 San Ramon Valley Blvd.,San Ramon,CA,United States,94583,(925)855-9940,,,,,,
SummerWinds,1491 South De Anza Blvd.,Cupertino,CA,United States,,(408)996-8355,,,,,,
SummerWinds,,San Jose,CA,United States,,(408)266-4440,,,,,,
SummerWinds,861 East El Camino Real,Sunnyvale,CA,United States,,(408)245-4532,,,,,,
SummerWinds,2460 S. Winchester Blvd.,Campbell,CA,United States,,(408)866-0171,,,,,,
SummerWinds,805 Yuba Drive,Mountain View,CA,United States,,(650)967-3154,,,,,,
Wild Bird Unlimted,7182 Regional Street,Dublin,CA,United States,94568,(925)803-6901,,,,,,
KEENAN HEINZ COMPANY,1700 EAST STREET,CONCORD,CA,United States,94520,(925)288-0159,,,,,,
GRANITE ROCK COMPANY,1505 S. De-Anza Blvd.,Cupertino,CA,United States,95014,(408)996-4500,,,,,,
Yamagami's Nursery,1361 S. DeAnza Boulevard,Cupertino,CA,United States,95014,(408)252-3347,,,,,,
"Encinal Nursery, Inc.",2057 Encinal Avenue,Alameda,CA,United States,94501-4293,(510)522-8616,,,,,,
Flowerland Nursery,1330 Solano Avenue,Albany,CA,United States,94706-1831,(510)526-3550,,,,,,
Reed Madden Designs,1014 Curtis Street,Albany,CA,United States,94706,(510)525-5350,,,,,,
The Chirp Habitat Hut,2514 Alpine Blvd.,Alpine,CA,United States,91901,(619)445-7675,,,,,,
"Mid City Nursery, Inc.",3635 Broadway,American Canyon,CA,United States,94503-1236,(707)642-4167,,,,,,
Advanced Aquatic Technology,1301 E Gene Autry Way,Anaheim,CA,United States,92805-6707,(714)279-8940,,,,,,
Liquid Art Water Sculptures,1530 Lewis Street,Anaheim,CA,United States,92805,(714)692-5222,,,,,,
Nayer Kazemi Water Art,2521 W La Palma Ave #N,Anaheim,CA,United States,92801-2613,(714)527-5080,,,,,,
Sherrie's Water Gardens,1539 Mill St,Anderson,CA,United States,96007-3224,(530)365-3067,,,,,,
Morgan's Home & Garden,2555 E. 18th Street,Antioch,CA,United States,94509,(925)755-7600,,,,,,
Main Street Collectors Inc,21086 Sandia,Apple Valley,CA,United States,92308,(760)949-4739,,,,,,
Waterfountains.com Inc.,13870 Riverside Drive,Apple Valley,CA,United States,92307,(760)946-0525,,,,,,
Cherry Lane Nursery,436 Traffic Way,Arroyo Grande,CA,United States,93420-3374,(805)489-8297,,,,,,
Lily Pad,1167 Grande Ave,Arroyo Grande,CA,United States,93420,(805)489-7663,,,,,,
Patio Outlet,1107 El Camino Real,Arroyo Grande,CA,United States,93420,(805)489-1412,,,,,,
Eisley Nursery Inc.,380 Nevada Street,Auburn,CA,United States,95603-3791,(530)885-5163,,,,,,
Great Outdoors,PO BOX 6628,Auburn,CA,United States,95604,(530)848-6836,,,,,,
Happy Frog Nursery,11793 Atwood Road,Auburn,CA,United States,95603-9506,(530)885-0975,,,,,,
Southwest Silver,885 Lincoln Way,Auburn,CA,United States,95603,(530)885-1271,,,,,,
Wild Bird Station,1153 Grass Valley Hwy,Auburn,CA,United States,95603,(530)889-2473,,,,,,
Cricklewood Secret Garden,2816 Brundage Ln,Bakersfield,CA,United States,93304-2610,(661)325-9928,,,,,,
FOUNTAINS TO YOU.COM,201 Union Ave,Bakersfield,CA,United States,93307-1552,(661)324-8084,,,,,,
MAJESTIC PALMS & TROPICALS,7500 Rosedale Highway,Bakersfield,CA,United States,93308,(661)589-1073,,,,,,
Murray Family Farms,6700 General Beale Road,Bakersfield,CA,United States,93313,(661)330-0100,,,,,,
O.SEE-EM-BLOOM,1416 Calloway Drive,Bakersfield,CA,United States,933412,(661)477-1203,,,,,,
OSH - Bakersfield Store,6465 Ming Ave.,Bakersfield,CA,United States,93309,(661)397-3111,,,,,,
Statuary Shop,3100 Larson Ln,Bakersfield,CA,United States,93304-5342,(661)872-2123,,,,,,
Waterscapes Unlimited,2701 Carriage St,Bakersfield,CA,United States,93312-8715,(661)589-9121,,,,,,
Wish I Had That.Com,"Billing:  8302 Expresso, Ste 130",Bakersfield,CA,United States,93312,(800)419-1130,,,,,,
Tyler's Carlmont Nursery,2029 Ralston Avenue,Belmont,CA,United States,94002-1737,(650)591-6845,,,,,,
Berkeley Horticultural Nursery,1310 McGee Ave,Berkeley,CA,United States,94703,(510)526-4704,,,,,,
Designs With Nature,575 Grizzly Peak Blvd,Berkeley,CA,United States,94708-1212,(510)524-1916,,,,,,
East Bay Nursery,2332 San Pablo Avenue,Berkeley,CA,United States,94702-2001,(510)845-6492,,,,,,
Magic Gardens,729 Heinz Ave,Berkeley,CA,United States,94710-2726,,,,,,,
Westbrae Nursery,1272 Gilman Street,Berkeley,CA,United States,94706-2353,(510)526-7606,,,,,,
BISHOP NURSERY,789 N. Home Street,Bishop,CA,United States,93514,(760)873-7515,,,,,,
Rite-Way,487 W. Line St.,Bishop,CA,United States,93514,(760)873-7727,,,,,,
Statue Factory,10 Industrial Way,Brisbane,CA,United States,94005-1097,(415)468-4870,,,,,,
"Rolling Hills Garden Center, Inc.",404 E. Hwy 246,Buellton,CA,United States,93427-9603,(805)688-7210,,,,,,
Santa Ynez Valley Water Gdns,371 Avenue Of The Flags,Buellton,CA,United States,93427-9703,(805)688-8872,,,,,,
OSH - Burbank,641 N. Victory Blvd,Burbank,CA,United States,91502,(818)557-2755,,,,,,
"Sheridan Gardens Nursery, Inc.",817 No. Hollywood Way,Burbank,CA,United States,91505-2814,(818)841-8845,,,,,,
Pot-Pourri Arts & Crafts,1460 Burlingame Ave.,Burlingame,CA,United States,94010,(650)343-3200,,,,,,
Table Delights,P.O.Box 715,Burson,CA,United States,95225,(209)772-1017,,,,,,
Sperling Nursery,24460 Calabasas,Calabasas,CA,United States,94460,(818)591-9111,,,,,,
B & B DO IT CENTER,"698 Mobile Ave, Ste. A",Camarillo,CA,United States,93010,(805)388-1067,,,,,,
"BARON BROTHERS NURSERY, INC.",7568 Santa Rosa Rd.,Camarillo,CA,United States,93012-8261,(805)484-0085,,,,,,
Green Meadow Nursery,10825 Santa Rosa Road,Camarillo,CA,United States,93012,(805)498-6997,,,,,,
Growing Grounds Garden Center,5016 Calle Cuesta,Camarillo,CA,United States,93012-0967,(805)482-5460,,,,,,
Tommy's Trees,2510 Las Posas Rd #478G,Camarillo,CA,United States,93010-3425,(805)981-7180,,,,,,
CAMBRIA NURSERY & FLORIST,2801 Eton Rd,Cambria,CA,United States,93428-4100,(805)927-4747,,,,,,
Ann Kuta's Water Plants,PO Box 1446,Campbell,CA,United States,95009-1446,(408)241-6084,,,,,,
SummerWinds,2460 S. Winchester Blvd.,Campbell,CA,United States,,(408)866-0171,,,,,,
A Landscape Ctr,7000 Canoga Ave,Canoga Park,CA,United States,91303-2033,(818)887-1684,,,,,,
Kianna Water Works,7217 Jordan Ave,Canoga Park,CA,United States,91303-1224,(818)704-6611,,,,,,
OSH - West Hills/Canoga Park,22741 Victory Blvd.,Canoga Park,CA,United States,91307,(818)883-6788,,,,,,
Pottery Etc Central Warehouse,7441 Canoga Ave,Canoga Park,CA,United States,91303-1315,(818)704-0741,,,,,,
VALLEY INDUSTRIAL ELECTRIC COMPANY,7707 Deering Ave,Canoga Park,CA,United States,91304-5653,(818)348-3430,,,,,,
GARDEN CONCEPTS,17459 Sierra Highway,Canyon Country,CA,United States,91351,(661)251-4037,,,,,,
Starbird's,805 Monterey Ave,Capitola,CA,United States,95010,(408)475-9111,,,,,,
Mack Design & Development,471 Chesterfield Drive,Cardiff,CA,United States,92007,(760)436-6744,,,,,,
Carlsbad Pool & Spa,2890 Pio Pico Dr. Ste #201,Carlsbad,CA,United States,92008-1558,(760)804-9985,,,,,,
EL CORRAL POTTERY,3040 Carlsbad Blvd,Carlsbad,CA,United States,92008-2905,(760)729-1328,,,,,,
Wholesale Pottery,4915 El Camino Real,Carlsbad,CA,United States,92008-3731,(760)730-3430,,,,,,
Paul Wilson Studio,27881 Robinson Canyon Rd,Carmel,CA,United States,93923,(831)625-3112,,,,,,
Succulent Gardens & Gifts,3672 The Barnyard,Carmel,CA,United States,93923-8731,(831)624-0426,,,,,,
Eye Of The Day,4620 Carpinteria Ave,Carpinteria,CA,United States,93013-1814,(805)566-0778,,,,,,
Trio Nursery,933 Elm Avenue,Carpinteria,CA,United States,93013-1926,(805)684-3715,,,,,,
Pete's Hardware,2569 Castro Valley Blvd,Castro Valley,CA,United States,94546-5496,(510)581-7633,,,,,,
E.R. Florist Rel. Gfts. Nrsy.,34312 Date Palm Drive,Cathedral City,CA,United States,92234,(760)321-4580,,,,,,
Statuary Store,68864 E Palm Canyon,Cathedral City,CA,United States,92234,(760)328-2873,,,,,,
Do It Center - Chartsworth,"20525 Nordhoff Street, Ste 210",Chatsworth,CA,United States,91311-6100,(818)407-3888,,,,,,
LAMPS PLUS,20250 Plumer Street,Chatsworth,CA,United States,91311,(818)886-5267,,,,,,
Mel-O-Dee Garden Center,21333 Devonshire St.,Chatsworth,CA,United States,91311-2321,(818)998-3232,,,,,,
Cherry Valley Nursery,37955 Cherry Valley Blvd,Cherry Valley,CA,United States,92223-4011,(909)845-7045,,,,,,
Dos Amigos Cement Statuary,1139 Stuart Ave,Chico,CA,United States,95928,(530)894-7024,,,,,,
THE GIFTED GARDEN,1238 Mangrove Ave,Chico,CA,United States,95926-3528,(530)894-1395,,,,,,
Capital Nursery Co. #3,5410 Sunrise Blvd,Citrus Heights,CA,United States,95610-7805,(916)961-9100,,,,,,
OSH - Citrus Heights Store,5425 Sunrise Blvd.,Citrus Heights,CA,United States,95610,(916)864-4950,,,,,,
Evergreen Garden Center,210 W Alluvial Avenue,Clovis,CA,United States,93611,(559)299-3107,,,,,,
H & E NURSERY,3140 Shaw Ave 9,Clovis,CA,United States,93619,(559)298-3044,,,,,,
OSH - Clovis,147 W. Shaw Ave,Clovis,CA,United States,93612,(559)298-1452,,,,,,
Tommy Rock Landscaping & Supplies,7521N. Chestnut,Clovis,CA,United States,93611,(559)323-7582,,,,,,
Wal-Mart Clovis,323 W. Shaw Avenue,Clovis,CA,United States,93612,(559)297-4176,,,,,,
WILLOW GARDENS NURSERY,10428 N. Willow Avenue,Clovis,CA,United States,93612,(559)299-5402,,,,,,
LUCKY OIL COMPANY,2718 Iowa Ave.,Colton,CA,United States,92324,(714)742-7333,,,,,,
Sauna Shop,2273 La Crosse # 107,Colton,CA,United States,92324,(909)825-9960,,,,,,
Classical Designs Statuary,4670 Clayton Rd,Concord,CA,United States,94521,(925)609-8166,,,,,,
Fountains Unlimited,2606 Raven Cir,Corona,CA,United States,92882-5646,(909)736-0651,,,,,,
Oase Pumps,400 E. Parkridge Avenue Unit 101,Corona,CA,United States,92879,(951)272-9900,,,,,,
"Paradise Garden Center, Inc.",1508 Taber Rd.,Corona,CA,United States,91719,(909)736-4060,,,,,,
Tom's Farms,23900 Temescal Canyon,Corona,CA,United States,92883,(951)277-9520,,,,,,
UNIQUE DESIGNS,2000  Frontage Road,Corona,CA,United States,92882,(951)735-9023,,,,,,
Flowerdale Nursery,2700 Bristol,Costa Mesa,CA,United States,92626-5910,(714)754-6661,,,,,,
Gonahl Lumber,1275 S. Bristol Street,Costa Mesa,CA,United States,92626,(714)556-1500,,,,,,
Pro Ponds West,1363 Logan Avenue,Costa Mesa,CA,United States,92626,(949)645-2685,,,,,,
Water Designs by Enviroscapes,3303 Harbor Blvd,Costa Mesa,CA,United States,92615,(714)429-0330,,,,,,
Pond & Garden,6225 Stony Point Rd,Cotati,CA,United States,94931,(707)792-9141,,,,,,
"FLORA TROPICANA AQUATICS, INC.",1375 South De Anza,Cupertino,CA,United States,95014,(408)252-1500,,,,,,
GRANITE ROCK COMPANY,1505 S. De-Anza Blvd.,Cupertino,CA,United States,95014,(408)996-4500,,,,,,
SummerWinds,1491 South De Anza Blvd.,Cupertino,CA,United States,,(408)996-8355,,,,,,
Yamagami's Nursery,1361 S. DeAnza Boulevard,Cupertino,CA,United States,95014,(408)252-3347,,,,,,
"DANA POINT NURSERY, INC.",34100 Coast Hwy,Dana Point,CA,United States,92629-0845,(949)496-5137,,,,,,
Tassajara Nursery,2550 Camino Tassajara,Danville,CA,United States,94506-4408,(925)736-7600,,,,,,
Dinuba Garden Center,388 South Alta,Dinuba,CA,United States,93618-0625,(559)591-7337,,,,,,
ACE HARDWARE,240 J,Dos Palos,CA,United States,95616,(530)758-8000,,,,,,
Wild Bird Unlimted,7182 Regional Street,Dublin,CA,United States,94568,(925)803-6901,,,,,,
Hodge's Nursery,9681 Midway,Durham,CA,United States,95938-9750,(530)894-6598,,,,,,
"International Garden Center, Inc.",155 N. Sepulveda,El Segundo,CA,United States,92045-4318,(310)615-0353,,,,,,
Adachi Florist & Nursery,5166 Sobrante Ave.,El Sobrante,CA,United States,94803-1640,(510)223-6712,,,,,,
Capital Nursery Co. #2,8423 Elk Grove Blvd,Elk Grove,CA,United States,95758-9573,(916)684-2100,,,,,,
OSH - Elk Grove,7431 Laguna Blvd.,Elk Grove,CA,United States,95758,(916)683-5600,,,,,,
THE SECRET GARDEN,8450 West Stockton Blvd.       eff 9/1/1,Elk Grove,CA,United States,95758,(916)682-6839,,,,,,
ANDERSON'S LA COSTA NURSERY,400 La Costa Ave,Encinitas,CA,United States,92024-1113,(760)753-3153,,,,,,
CORDOVA GARDENS,902 Encinitas Blvd,Encinitas,CA,United States,92024-2831,(760)944-6984,,,,,,
Sweetbrier Waterfalls & Ponds,PO Box 18696,Encino,CA,United States,91416-8696,(818)345-5647,,,,,,
Creative Landscape & Water,19777 Mchenry Ave,Escalon,CA,United States,95320-9613,(209)838-8650,,,,,,
DEL DIOS COUNTRY GARDENS,9582 Del Dios Highway,Escondido,CA,United States,92029,(760)741-3007,,,,,,
El Plantio Nursery,1322 San Pasqual Valley Rd.,Escondido,CA,United States,92027-4399,(760)745-8736,,,,,,
PATIO FURNITURE PLUS,26746 Mt Meadows Rd,Escondido,CA,United States,92026,(760)751-7060,,,,,,
Sim Rock Industries,2368 Vineyard Ave,Escondido,CA,United States,92029-1219,(760)480-6544,,,,,,
Racy's Garden Decor Furniture,10330 Fair Oaks Blvd,Fair Oaks,CA,United States,95628-7114,(916)961-2146,,,,,,
Wild Bird Center,5339 Sunrise Blvd.,Fair Oaks,CA,United States,95628,(916)966-5958,,,,,,
Pond Plus,404 E. Mission Rd.,Fallbrook,CA,United States,92078,(760)451-2085,,,,,,
Creative Alliance Design,P.O. Box 1410,Felton,CA,United States,95018,(831)335-1004,,,,,,
CREATIVE CONCRETE PRODUCTS,511 Natoma St,Folsom,CA,United States,95630-2523,(916)985-3312,,,,,,
OSH - Folsom Store,905 East Bidwell Street,Folsom,CA,United States,95630,(916)984-7020,,,,,,
Gibson's,18285 Euclid St,Fountain Valley,CA,United States,92708-6111,(714)641-6611,,,,,,
OSH - Fountain Valley Store,17200 Brookhurst St.,Fountain Valley,CA,United States,92708,(714)964-2282,,,,,,
Fowler Ace Hardware,113 E. Main Street,Fowler,CA,United States,93625,(559)834-4844,,,,,,
Regan's Nursery,4268 Decota Road,Fremont,CA,United States,94555,(510)797-3222,,,,,,
Buget Ornamental Iron,37178 HWY 145,Fresno,CA,United States,93737,(559)270-4524,,,,,,
Bullard Pharmacy,2026 W. Bullard Avenue,Fresno,CA,United States,93711,(559)438-0111,,,,,,
DESIGN WORKS,2050 E. McKinley,Fresno,CA,United States,93703,(559)268-1446,,,,,,
Fornaro Landscape,3222 W. Sierra,Fresno,CA,United States,93711,(559)431-3152,,,,,,
Gazebo Gardens & Gift Shop,3204 N Van Ness Blvd,Fresno,CA,United States,93704-4680,(559)222-7673,,,,,,
"H & E Nursery, Inc.",160 W. Nees,Fresno,CA,United States,93711-6847,(559)435-6373,,,,,,
Johnny's Garden Nursery,6931 E. Belmont,Fresno,CA,United States,93727,(559)251-5383,,,,,,
Miller-Clark Landscape & Nursery Co.,403 W. Olive,Fresno,CA,United States,93728,(559)486-4140,,,,,,
Mountain View Nursery,2408 N Armstrong,Fresno,CA,United States,93727,(559)291-8733,,,,,,
Nee-Hai Bonsai,3236 W. Ashlan,Fresno,CA,United States,93722,(559)221-0281,,,,,,
Old Creek Nursery,3636 N. Grantland,Fresno,CA,United States,93725,(559)275-2635,,,,,,
Ornamental Concrete,7209 E. Kings Canyon,Fresno,CA,United States,93727,(559)255-4309,,,,,,
OSH - Fresno (Blackstone) Store,5445 No. Blackstone Ave.,Fresno,CA,United States,93710,(559)431-3197,,,,,,
OSH - Kings Canyon Store,5653 E. Kings Canyon Road,Fresno,CA,United States,93727,(559)251-2585,,,,,,
OSH - Orchard Harware Supply,,Fresno,CA,United States,93722,,,,,,,
Planet Earth Nursery,6931 E. Belmont Ave,Fresno,CA,United States,93727,,,,,,,
POT FARM OUTLET,433  N. Clovis Ave.,Fresno,CA,United States,93720,(559)452-1446,,,,,,
RIVERSIDE NURSERY,5215 N. Golden State,Fresno,CA,United States,93722,(559)275-1891,,,,,,
Spino's Nursery & Landscaping,2271 N. Grantland,Fresno,CA,United States,93722,(559)275-3373,,,,,,
Spino's Nursery & Landscaping (Clovis Av,433 N. Clovis Avenue,Fresno,CA,United States,93722,(559)275-3373,,,,,,
SteelScapes Landscaping,4363 N. Valentine Ave,Fresno,CA,United States,93722,(559)261-2200,,,,,,
PATIO FURNITURE PLUS - FULLERTON,2830 Imperial Highway,Fullerton,CA,United States,92835,(714)255-1735,,,,,,
Railroad Statuary,400 SW Railroad Ave,Garden Grove,CA,United States,92843,(504)386-8066,,,,,,
VILLA D'ESTE FOUNTAINS,13551 Harbor Blvd.,Garden Grove,CA,United States,92843,(714)537-8443,,,,,,
Garden Accents,11155 Lena Avenue,Gilroy,CA,United States,95020,(408)846-4555,,,,,,
La Crescenta Nursery,3654 La Crescenta Avenue,Glendale,CA,United States,91208-1001,(818)249-2488,,,,,,
Luigi's Pottery & Gardenware,5630 San Fernando Rd,Glendale,CA,United States,91202-2103,(818)246-7579,,,,,,
Virgil's Hardware Home Center,520 N. Glendale,Glendale,CA,United States,91206,(818)242-1104,,,,,,
Armstrong Garden Ctr-HQ,"2200 E. Route 66, Suite 200",Glendora,CA,United States,91740,(800)229-1707,,,,,,
Decor Fountain,2020 E. Road 66,Glendora,CA,United States,91740,(626)335-6605,,,,,,
Pond Pros,512 S Glendora Avenue,GLENDORA,CA,United States,91741,(626)914-0848,,,,,,
OSH - Goleta Store,125 N. Fairview,Goleta,CA,United States,93117,(805)681-1500,,,,,,
OSH - Granada Hills,18060 Chatsworth Street,Granada Hills,CA,United States,91344,(818)363-2445,,,,,,
ALL AQUATICS,809 Maltman Drive,Grass Valley,CA,United States,95945,(530)477-7010,,,,,,
Happy Frog Garden & Aquatic Center,15386 Little Valley Road,Grass Valley,CA,United States,95949,(530)273-3764,,,,,,
Stone Ground Fountains Inc,11262 Lower Circle Dr,Grass Valley,CA,United States,95949-6642,(530)271-1720,,,,,,
Weiss Bros. Nursery,11615 Maltman Dr.,Grass Valley,CA,United States,95945-5102,(530)273-3875,,,,,,
Wild Birds Unlimited,119 Neal Street,Grass Valley,CA,United States,95945-6705,(530)272-7744,,,,,,
Ron' Nursery,1207 South 13th Street,Grover,CA,United States,93433,(805)489-4747,,,,,,
Half Moon Bay Nursery,11691 San Mateo Road,Half Moon Bay,CA,United States,94019-7107,(650)726-5392,,,,,,
OSH - Hanford,700 North 11th Ave.,Hanford,CA,United States,93230,(559)585-3460,,,,,,
"Hawthorne Nursery, Inc.",4519 W. El Segundo Blvd.,Hawthorne,CA,United States,90250-4398,(310)676-8242,,,,,,
Patio World,1676 Delta Court,Hayward,CA,United States,94545,(510)441-5689,,,,,,
Florida Nursery,42021 E. Florida Ave.,Hemet,CA,United States,92544-5016,(909)925-2175,,,,,,
HILMAR LUMBER,8150 Lander Avenue,Hillmar,CA,United States,95324,(209)668-8123,,,,,,
OSH - Hollywood,5525 Sunset Boulevard,Hollywood,CA,United States,90028,(323)871-1707,,,,,,
OSH - Huntington Beach,19330 Golden West Street,Huntington Beach,CA,United States,92648,(714)536-0397,,,,,,
Pete's Warehouse,320 E Barioni Blvd,Imperial,CA,United States,92251-2703,(760)355-4999,,,,,,
"BOB WILLIAMS NURSERY, INC.",48-575 Madison St,Indio,CA,United States,92201,(760)347-6397,,,,,,
Home Base - Irvine CA,3345 Michaelson Drive,Irvine,CA,United States,92612,(949)442-5000,,,,,,
Rock & Waterscape Systems Inc,11 Whatney,Irvine,CA,United States,92618-2800,(949)770-1936,,,,,,
JAMUL COUNTRY GARDENS,13034 Highway 94,Jamul,CA,United States,91935,(619)669-7640,,,,,,
Key West Chemical Inc.,P.O. 4918,Key West,CA,United States,33040,(800)432-7184,,,,,,
Rare Art Motif,1179 Simpson,Kingsburg,CA,United States,93631-2224,(559)896-8828,,,,,,
OSH - La Crescenta,3100 Foothill Blvd,La Crescenta,CA,United States,91214,(818)541-7075,,,,,,
Leisure Living Patio Furniture,351 W. Imperial Highway,La Habra,CA,United States,90631,(714)870-9193,,,,,,
Whittier Village Pools,2655 W. La Habra Blvd.,La Habra,CA,United States,90631,(562)693-9464,,,,,,
MARY'S SECRET GARDEN,5500 Grossmont center dr,La Mesa,CA,United States,91942,(619)466-5005,,,,,,
ORCHARD NURSERY-LAFAYETTE,4010 Mt. Diablo Blvd,Lafayette,CA,United States,94549,(925)284-4474,,,,,,
Laguna Koi Ponds,20452 Laguna Canyon Rd,Laguna Beach,CA,United States,92651-1130,(949)494-5107,,,,,,
Laguna Nursery,1370 South Coast HWY,Laguna Beach,CA,United States,92651,(714)497-2438,,,,,,
Pottery Shack,1212 S. Coast Highway,Laguna Beach,CA,United States,92651,(949)494-1141,,,,,,
LAGUNA WATER WORKS,23052 Alcalde Dr Ste B,Laguna Hills,CA,United States,92653,(949)770-7756,,,,,,
OSH - Laguna Niguel,27921 La Paz Road,Laguna Niguel,CA,United States,92677,(949)360-5775,,,,,,
"Laguna Hills Nursery, Inc.",25290 Jeronimo Rd.,Lake Forest,CA,United States,92630-4900,(949)830-5653,,,,,,
Piedmont Lumber Co.,2465 S. Main,Lakeport,CA,United States,95453,(707)263-8400,,,,,,
Wilson Landscape Construction,10667 Oak Creek Dr,Lakeside,CA,United States,92040-1626,(619)561-3747,,,,,,
"H & H Nursery, Inc.",6220 Lakewood Blvd.,Lakewood,CA,United States,90712-1026,(562)804-2513,,,,,,
Outdoor Eligence,3795 Damien Ave.,Laverne,CA,United States,91750,(909)592-5711,,,,,,
Placer Pond,150G st ste.104,Lincoln,CA,United States,95648,(916)645-1500,,,,,,
Shibui Sculpture Garden,PO Box 333,Littleriver,CA,United States,95456-0333,(707)937-2787,,,,,,
Alden Lane Nursery,981 Alden Ln,Livermore,CA,United States,94550-6350,(925)447-0280,,,,,,
Lomeli Gardens,10950 North Highway 99,Lodi,CA,United States,95240,(209)369-6461,,,,,,
OSH - Lodi Store,360 South Cherokee Lane,Lodi,CA,United States,95240,(209)368-2600,,,,,,
Weigum's Lodi Nursery,401 N. Ham Lane,Lodi,CA,United States,95242-2416,(209)369-6288,,,,,,
Spenser Gardening,4860 Miners Cove Circle,Lommis,CA,United States,95650,(916)652-1243,,,,,,
Joe's Fountains,701 W Willow St,Long Beach,CA,United States,90806-2834,(562)427-7548,,,,,,
OSH - Long Beach,4480 Atlantic Ave,Long Beach,CA,United States,90807,(562)422-3353,,,,,,
SOUTH COAST SUPPLY,3626 Cerritos Ave.,Los Alamitos,CA,United States,90720,(562)596-6666,,,,,,
Los Altos Garden Supply,4730 El Camino Real,Los Altos,CA,United States,94022-1330,(650)948-2218,,,,,,
Stone Grove,164 Main Street,Los Altos,CA,United States,94022,(650)941-8777,,,,,,
Hashimoto Nursery,1935 Sawtelle Blvd.,Los Angeles,CA,United States,90025,(310)473-6232,,,,,,
Los Feliz Pottery & Gift Shop,3158 Los Feliz Blvd,Los Angeles,CA,United States,90039-1507,(323)665-3801,,,,,,
OSH - Los Angeles Midtown,4801 W. Venice Blvd.,Los Angeles,CA,United States,90019,(323)930-6060,,,,,,
Rainbow Nursery,1635 W. Florence Avenue,Los Angeles,CA,United States,90047-2218,(323)753-6121,,,,,,
Sculpture Design Imports Inc.,416 S. Robertson Blvd,Los Angeles,CA,United States,90048,(310)858-8266,,,,,,
Stone Palace,8950 Beverly Blvd,Los Angeles,CA,United States,90047,(310)278-4165,,,,,,
Sunset Blvd Nursery Inc,4368 W Sunset Blvd,Los Angeles,CA,United States,90029-2155,(323)661-1642,,,,,,
T & F Creations,3727 Harriman Ave,Los Angeles,CA,United States,90032,(323)222-4171,,,,,,
The Outdoor Room-A-Nursery & More,605 South Plymouth Boulevard,Los Angeles,CA,United States,90005-3769,(323)932-1414,,,,,,
Los Banos Garden Ctr,1201 F St,Los Banos,CA,United States,93635-3809,(209)826-0440,,,,,,
Natural Creations,108 N Santa Cruz Ave,Los Gatos,CA,United States,95030-5919,(408)354-4221,,,,,,
Rosenbalm Rockery,13101 Golden State Blvd.,Madera,CA,United States,93637,(559)673-1629,,,,,,
OSH - Manteca Store,189 West Louise Ave,Manteca,CA,United States,95336,(209)239-2181,,,,,,
Marina Del Rey Garden Ctr,13198 Mindanao Way,Marina Del Rey,CA,United States,90292-6308,(310)823-5956,,,,,,
Earthtones Nursery,4996 8th Street,Mariposa,CA,United States,95338,(209)742-7697,,,,,,
Stockwell True Value Hardware,PO Box 245,Mariposa,CA,United States,95338,(209)966-2692,,,,,,
Southland Aquatic Management,30770 Old Windmill Rd,Menifee,CA,United States,92584-9168,(909)679-0687,,,,,,
Roger Reynolds Nursery,133 Encinal Avenue,Menlo Park,CA,United States,94025-3102,(650)323-5612,,,,,,
OSH - Merced Store,"3155 R"" Street""",Merced,CA,United States,95348,(209)725-2146,,,,,,
Reflections of You,3146 North G Street #113,Merced,CA,United States,95340,(209)383-0375,,,,,,
Golden Oak Nursery,21055 Bush,Middletown,CA,United States,95461,,,,,,,
ARTISTIC DELIGHTS,864 Los Positos Drive,Milipitas,CA,United States,95035,(408)946-7972,,,,,,
TGS General Store,23 Throckmorton Ave.,Mill Valley,CA,United States,94941-1995,,,,,,,
Urban Farmer Store,653 E Blithedale Ave,Mill Valley,CA,United States,94941-1412,(415)380-3840,,,,,,
Nature's Creation,864 Los Positos Drive,Milpitas,CA,United States,95035,(408)946-7972,,,,,,
WILD BIRDS UNLIMITED #311,"24481 Alicia Parkway, Suite 1A",Mission Viejo,CA,United States,92691,(949)472-4928,,,,,,
Discount Statuary,6943 Maze Blvd,Modesto,CA,United States,95358-8439,(209)524-6283,,,,,,
OSH - East Modesto,1800 Oakdale Road Ste #A,Modesto,CA,United States,95355,(209)551-3900,,,,,,
OSH - Modesto Store,2800 Sisk Road,Modesto,CA,United States,95350,(209)577-8088,,,,,,
Pottery Ranch Inc.,248 W. Huntington Drive,Monrovia,CA,United States,91016,(626)357-5202,,,,,,
"Cypress Garden Nursery, Inc.",590 Perry Lane,Monterey,CA,United States,93940-4621,(831)373-1625,,,,,,
Tropicana Nursery,861 Quintana Rd.,Morro Bay,CA,United States,93442-2328,(805)772-9425,,,,,,
SummerWinds,805 Yuba Drive,Mountain View,CA,United States,,(650)967-3154,,,,,,
Psychic Eye Book Shop,,Mt. View,CA,United States,,(650)964-2220,,,,,,
Murphys Nursery,433 E Hwy 4,Murphys,CA,United States,95247-9559,(209)728-3220,,,,,,
Home Gardens,4134 Elm Street,Murrieta,CA,United States,92562,,,,,,,
Van Winden's Pueblo Garden Center,1805 Pueblo Avenue,Napa,CA,United States,94558-4750,(707)226-2902,,,,,,
Nordic Landscape Supply,1312 Newbury Rd,Newbury Park,CA,United States,91320-3607,(805)499-2613,,,,,,
JD DESIGN,16 Rockingham,Newport Beach,CA,United States,92660,(714)270-2204,,,,,,
Old Town Nursery,323-A West Tefft Street,Nipomo,CA,United States,93444-9284,(805)929-1084,,,,,,
California Art Products Co.,1125 Vanowen  St.,No. Hollywood,CA,United States,91605,(818)762-4276,,,,,,
Mel-O-Dee Nursery,7934 Lankershim Blvd.,No. Hollywood,CA,United States,91605-2524,(818)765-5825,,,,,,
Steven's Nursery & Hardware,12000 Riverside Dr.,No. Hollywood,CA,United States,91607,(818)763-6296,,,,,,
SCA Products,653 6th St.,Norco,CA,United States,92860,(909)735-5180,,,,,,
Green Arrow Nursery,8845 Sepulreda Blvd.,North Hills,CA,United States,91343,(818)894-8301,,,,,,
"Frank's Nursery & Florist, Inc.",9423 Reseda Blvd.,Northridge,CA,United States,91324-2988,(818)993-8733,,,,,,
KAMYAR POOL,10459 Vanalden Ave,Northridge,CA,United States,91326,(818)368-5980,,,,,,
Sig's Pottery & Nursery,17825 Devonshire St,Northridge,CA,United States,91325-1215,(818)368-5171,,,,,,
California Bay Nurseries,399 Entrada Dr,Novato,CA,United States,94949-5567,(415)883-6383,,,,,,
Natural Waterscapes,15012 28 Mile Rd,Oakdale,CA,United States,95361-2246,(209)847-4171,,,,,,
R & R Waterfalls,12800 Lambuth Rd,Oakdale,CA,United States,95361-2205,(209)847-3536,,,,,,
Oakhurst Rock,49494 Bay Leaf Ln,Oakhurst,CA,United States,93644-9498,(559)641-7625,,,,,,
"ART CAST, INC",10441 Edes Ave,Oakland,CA,United States,94603,(510)633-1411,,,,,,
BROADWAY TERRACE,4340 Clarewood Drive,Oakland,CA,United States,94618-2047,(510)658-3729,,,,,,
Mark Becker Construction,"420 40th Street, Suite 1",Oakland,CA,United States,94609,(510)590-2373,,,,,,
Thornhill Nursery,6250 Thornhill Drive,Oakland,CA,United States,94611-2024,(510)339-1311,,,,,,
Waterlilies,3935 Piedmont Ave,Oakland,CA,United States,94611-5351,(510)601-7768,,,,,,
Natural Stone Waterfalls,190 Wilshire Rd,Oceanside,CA,United States,92057-3900,(760)439-7005,,,,,,
Matilija Gardens,245 Baldwin Rd.,Ojai,CA,United States,93023,(805)646-0714,,,,,,
Brady Stonework,2011 South Helen Ave,Ontario,CA,United States,91762,(909)988-8742,,,,,,
"FOUNTAIN SERVICES, INC.",181 Wineville Unit M,Ontario,CA,United States,91761,(909)937-3206,,,,,,
Four Corners Trading,531 East Rosewood Court,Ontario,CA,United States,91764,(909)717-1093,,,,,,
O B M's Nursery,1414 W Holt Blvd,Ontario,CA,United States,91762-3642,(909)984-6833,,,,,,
"BATAVIA GARDEN, INC.",1730 N. Batavia St.,Orange,CA,United States,92865-4104,(714)637-2360,,,,,,
Home Depot-So. California,3800 W.  Chapman Avenue,Orange,CA,United States,92868,(714)940-3500,,,,,,
Hortus-Orange,403 W. Chapman Ave.,Orange,CA,United States,92866,(714)532-5434,,,,,,
"M & M Nursery, Inc.",380 N. Tustin Avenue,Orange,CA,United States,92867-7721,(714)538-8042,,,,,,
Paradise Fountains,232 E. Katella Avenue,Orange,CA,United States,92867,(714)538-0181,,,,,,
The Garden Gallery,403 W. Chapman Avenue,Orange,CA,United States,92866,(714)516-9337,,,,,,
DV Austin Contractors,8149 Santa Juanita Ave,Orangevale,CA,United States,95662,(916)989-9996,,,,,,
McGuire Earth Works Landscpg,9150 Greenback Ln,Orangevale,CA,United States,95662-4740,(916)989-9713,,,,,,
Semleon Enterprises,6435 Kenneth Ave,Orangevale,CA,United States,95662-3924,(916)727-3777,,,,,,
McDonnell Nursery,196 Moraga Way,Orinda,CA,United States,94563-3499,(925)254-3713,,,,,,
Orland Ace Hardware,820 5 th St.,Orland,CA,United States,95963,(530)865-2395,,,,,,
Sunland Garden Center,218 East Walker Street,Orland,CA,United States,95963-1592,(530)865-5777,,,,,,
Glasshouse Nursery,3815 W. Doris,Oxnard,CA,United States,93030,(805)985-4424,,,,,,
Sunset Patio Supply,2160 Sunset Dr,Pacific Grove,CA,United States,93950-3778,(831)375-9501,,,,,,
ISABEL'S BLUE PIG,74220 Hwy 111,Palm Desert,CA,United States,92260,(760)836-3630,,,,,,
Mirage Water Features,75080 Saint Charles Pl #B,Palm Desert,CA,United States,92211-9077,(760)568-0852,,,,,,
Moller's Garden Center,72235 Painters Path,Palm Desert,CA,United States,92260,(760)346-0545,,,,,,
Southwest Aquatics,42200 State St.  Ste. A-1,Palm Desert,CA,United States,92211,(760)568-5499,,,,,,
AUNT EFFIE'S GARDENS INC.,2393 North Palm Canyon,Palm Springs,CA,United States,92262,(760)778-6030,,,,,,
Palapas,3255 E. Palm Canyon Drive,Palm Springs,CA,United States,92264,,,,,,,
TRUE VALUE -PALM SPRINGS,1785 E. Palm Canyon Drive,Palm Springs,CA,United States,92264,(760)322-1951,,,,,,
SummerWinds,725 San Antonio Road,Palo Alto,CA,United States,,(650)493-5136,,,,,,
Mendon's Nursery,5424 Foster Road,Paradise,CA,United States,95969-5879,(530)877-7341,,,,,,
"BURKARD NURSERIES, INC.",690 N. Orange Grove Blvd,Pasadena,CA,United States,91103-3318,(626)796-4355,,,,,,
Lincoln Avenue Nursery,804 Lincoln Avenue,Pasadena,CA,United States,91103-2941,(626)792-2138,,,,,,
OSH - Pasadena,3425 E. Colorado Blvd,Pasadena,CA,United States,91107,(626)395-7115,,,,,,
Hometown Nursery,1803 Spring St,Paso Robles,CA,United States,93446-1616,(805)238-1976,,,,,,
Illumination Sales Co,930 Sycamore Canyon Rd,Paso Robles,CA,United States,93446-4776,(650)592-7552,,,,,,
Paradise Outdoors,1142 13th St. Suite A,Paso Robles,CA,United States,93446,(805)239-7899,,,,,,
San Luis Obispo County Farm Supply,1108 Paso Robles Street,Paso Robles,CA,United States,93446-2633,(805)238-1177,,,,,,
Tree Man,2650 Ramada Dr,Paso Robles,CA,United States,93446-3985,(805)227-6225,,,,,,
Green Thumb Nursery,301 Wilson Street,Petaluma,CA,United States,94952-3183,(707)762-8187,,,,,,
OSH - Pismo Beach,825 Oak Park Road,Pismo Beach,CA,United States,93449,(805)473-4050,,,,,,
Pismo Beach Hardware,930 Price Street,Pismo Beach,CA,United States,93449,(805)773-1465,,,,,,
PISMO BOB'S,930 Price St,Pismo Beach,CA,United States,93449-2534,(805)773-6245,,,,,,
Pismo Garden Art,911 Price St.,Pismo Beach,CA,United States,93449,(805)773-6245,,,,,,
Pismo Garden Art,940 Price Street,Pismo Beach,CA,United States,93449,(805)773-9283,,,,,,
Carolyn's Arts & Crafts,6767 Green Valley Road,Placerville,CA,United States,95667,(530)295-2222,,,,,,
Indoor Energies Fountains,948 Oak Terrace Road,Placerville,CA,United States,95667,(530)621-0932,,,,,,
Stone Grove Inc,670 Main Street,Pleasanton,CA,United States,94566-6066,(925)484-3751,,,,,,
Western Garden Nursery,2765 Vineyard Avenue,Pleasanton,CA,United States,94566-6323,(925)462-1760,,,,,,
"Daybell Nursery, Inc.",55 North E St,Porterville,CA,United States,93257-3525,(559)784-6213,,,,,,
M & S Ponds and Supplies,12635 Danielson Court #202,Poway,CA,United States,92064,(858)679-8729,,,,,,
Platts Landscapers,4309 W Avenue K12,Quartz Hill,CA,United States,93536-5044,(661)943-3968,,,,,,
OSH - Ranch Cucamonga Store,9080 Foothill Blvd.,Rancho Cucamonga,CA,United States,91730,(909)948-2888,,,,,,
Red Bluff Garden Center,766 Antelope Blvd.,Red Bluff,CA,United States,96080-8834,(530)527-0886,,,,,,
Creek Side Gardens,1960 Twin View Blvd,Redding,CA,United States,96003,(530)229-0765,,,,,,
Gold Lease Nursery,6186 Churn Creek Road,Redding,CA,United States,96002,(530)365-5383,,,,,,
HIGH LOW NURSERY/JOSE ANTONIO'S GARDEN C,870 Hartnell Ave,Redding,CA,United States,96002,(530)223-3368,,,,,,
OSH - Redding Store,2340 Athens Ave,Redding,CA,United States,96001,(530)244-9288,,,,,,
Wyntour Garden,8026 Airport Rd,Redding,CA,United States,96002-9445,(530)365-2256,,,,,,
New World Fountain,31843 Outer Highway 10,Redlands,CA,United States,92373-7570,(909)794-7761,,,,,,
"Redway Feed, Garden & Pet Supply",290 Briceland Road,Redway,CA,United States,95560,(707)923-2765,,,,,,
"Redwood City Nursery, Inc.",2760 El Camino Real,Redwood City,CA,United States,94061-3911,(650)368-0357,,,,,,
Water Sounds,1496 Oddstad Dr,Redwood City,CA,United States,94063-2607,(650)365-1754,,,,,,
"Wegman's Nursery, Inc.",492 Woodside Road,Redwood City,CA,United States,94061-3859,(650)368-5908,,,,,,
BUTTONWILLOW NURSERY,1210 S. Buttonwillow Avenue,Reedley,CA,United States,93654,(559)638-5774,,,,,,
Reedley Landscape Ctr,392 N Reed Ave,Reedley,CA,United States,93654-2842,(559)638-6362,,,,,,
Center Star Studio,#5 - 18th Street,Richmond,CA,United States,94801,(510)235-8700,,,,,,
Park GreenHouse,12813 W. Ripon Rd.,Ripon,CA,United States,95366,(209)599-7545,,,,,,
"Morris Nursery, Inc.",1837 Patterson Road,Riverbank,CA,United States,95367-9675,(209)527-5553,,,,,,
Academy Concrete Products,9813 Mission Blvd,Riverside,CA,United States,92509-2540,(951)685-2104,,,,,,
Fountain Store,480 N. Main Street,Riverside,CA,United States,92501,(909)788-2194,,,,,,
GRF Comm Provisions,3931 Carter Ave,Riverside,CA,United States,92501,(909)784-0104,,,,,,
J.T. CRAFTS,18450 Mockingbird Canyon Road,Riverside,CA,United States,92504,,,,,,,
"Parkview Nursery Canyon Crest, Inc.",4377 Chicago Avenue,Riverside,CA,United States,92507-5405,,,,,,,
"Parkview Nursery, Inc.",3841 Jackson St.,Riverside,CA,United States,92503-3999,(909)351-6900,,,,,,
Pat's Koi Ponds & Supplies,18010 Iris Ave,Riverside,CA,United States,92508-9234,(909)780-5629,,,,,,
Santis Fountains,18888 Van Buren Blvd,Riverside,CA,United States,92508-9123,(909)780-0622,,,,,,
Sculpture World,330 Main St,Riverside,CA,United States,92501-1028,(909)781-9850,,,,,,
WILD BIRDS UNLIMITED,10456 Magnolia Avenue,Riverside,CA,United States,92505,(951)352-2020,,,,,,
POTTERY WORLD,4419 Granite Dr,Rocklin,CA,United States,95677-2131,(916)624-8080,,,,,,
Elwood Nursery,770 Silver Spur Rd.,Rolling Hills Estates,CA,United States,90274-3604,(310)377-0939,,,,,,
Sierra Nursery and Rock,3985 Douglass Boulevard,Roseville,CA,United States,95661-3887,(916)791-1154,,,,,,
FAIR OAKS BLVD. NURSERY,4681 Fair Oaks Blvd.,Sacramento,CA,United States,95864,(916)483-1830,,,,,,
Mt. Shasta Naturals Aromatherapy,1021 R St,Sacramento,CA,United States,95814-6519,(916)448-5607,,,,,,
Odell's Pump & Motor Svc,1650 Bell Ave #140,Sacramento,CA,United States,95838-2856,(916)925-8508,,,,,,
Pages Fountains & Water Gardens,5331 Kohler Road,Sacramento,CA,United States,95841,(916)331-7205,,,,,,
Professional Landscape Solutions,6108 27th Street,Sacramento,CA,United States,95822,(916)424-3815,,,,,,
Silverado Building Materials,9297 Jackson Road,Sacramento,CA,United States,95826,(916)361-7374,,,,,,
Valley Rock Waterfalls,10180 Jackson Rd,Sacramento,CA,United States,95827-9709,(916)361-9583,,,,,,
BOKAY NURSERY,30 Hitchcock Road,Salinas,CA,United States,93908-9341,(831)455-1868,,,,,,
Graeber Gardens,155 Monterey-Salinas Hwy.,Salinas,CA,United States,93908-8977,(831)455-1876,,,,,,
P&L Furniture & Statuary,612 El Camino Real N.,Salinas,CA,United States,93907,(831)449-0949,,,,,,
Flowerland Nursery (SB),1365 E. Highland Ave.,San Bernardino,CA,United States,92404-4672,(909)886-7002,,,,,,
BACKYARD XSCAPES,10835 Sorrento Valley Road,San Diego,CA,United States,92121,(858)643-9030,,,,,,
BAMBOO AND BEYOND NO. 2 INC.,3624 Felton,San Diego,CA,United States,92116,(619)501-9910,,,,,,
Canyon Pottery Co,1544 Frazee Rd,San Diego,CA,United States,92108-4345,(619)298-5400,,,,,,
COLUMN ONE INCORPORATED,401 University Ave.,San Diego,CA,United States,92103-3115,(619)299-9074,,,,,,
Earth Wind & Sea,2754 Calhoun Street,San Diego,CA,United States,92110,(619)294-4412,,,,,,
Eden Landscape,4438 Manitou Way,San Diego,CA,United States,92117,(858)272-1094,,,,,,
GREEN GARDENS NURSERY,4910 Cass St,San Diego,CA,United States,92109,(858)483-7846,,,,,,
Interior Escapes,1251 University Avenue,San Diego,CA,United States,92103,(619)299-6885,,,,,,
Matsu Fountains,2980 First Ave #2B,San Diego,CA,United States,92103,(760)612-3843,,,,,,
Ouchi's Power Equipment,5003 Imperial Avenue,San Diego,CA,United States,92113-2094,(619)263-6114,,,,,,
"Pacific Beach Gardens, Inc.",910 Turquoise Street,San Diego,CA,United States,92109-1198,(619)488-0614,,,,,,
Stone and Glass,13330 Paseo Del Varano,San Diego,CA,United States,92128,(858)485-7701,,,,,,
F.D.I.C,25 Jessie Street,San Francisco,CA,United States,94105,(415)808-8122,,,,,,
Floorcraft Garden Center,550 Bayshore Blvd,San Francisco,CA,United States,94124,(415)824-1900,,,,,,
Flower Girl,1127 Irving Street,San Francisco,CA,United States,94122-2108,(415)731-0230,,,,,,
Gity Joon's,1828 Union Street,San Francisco,CA,United States,94123,(415)292-7388,,,,,,
Living Green Plantscape Design,"150 15th St., Unit C",San Francisco,CA,United States,94103,(415)864-2251,,,,,,
San Gabriel Nursery & Florist,632 S. San Gabriel Blvd.,San Gabriel,CA,United States,91776-2798,(626)286-0787,,,,,,
OSH - Orchard Supply Hardware,6450 Via Del Oro,San Jose,CA,United States,95119,(408)281-3500,,,,,,
Pottery Mart,3640 A Stevens Creek,San Jose,CA,United States,95116,(408)296-7144,,,,,,
SummerWinds,,San Jose,CA,United States,,(408)266-4440,,,,,,
T & T Marine Aquarium & Koi,950 S 1st St,San Jose,CA,United States,95110-3127,(408)279-1868,,,,,,
Nature's Touch,31781 Camino Capistrano,San Juan Capistrano,CA,United States,92675,(949)443-0870,,,,,,
"Prefessional Art Services, Inc.",33551 Valle Road,San Juan Capistrano,CA,United States,92675,(949)489-9840,,,,,,
Lucchesi Art Studio,1077 1/2 Macarthur Blvd,San Leandro,CA,United States,94577-3006,(510)636-0739,,,,,,
FARM SUPPLY,224 Tank Farm Road,San Luis Obispo,CA,United States,93401,(805)543-3751,,,,,,
Meridian,952 Higuera St,San Luis Obispo,CA,United States,93401-3602,(805)545-8001,,,,,,
Pacific Water Gardens,354 Pacific St,San Luis Obispo,CA,United States,93401-3847,(805)594-1693,,,,,,
Rainscape A Landscape Svc Co,1325 Archer St,San Luis Obispo,CA,United States,93401-3808,(805)541-8536,,,,,,
THE POND PLACE,207 Higuera St.,San Luis Obispo,CA,United States,93501,(805)543-2210,,,,,,
Waterfall Oasis of San Diego,"730 Nordahl Road, Ste 105",San Marcos,CA,United States,92069,(760)747-8626,,,,,,
Ken's Nursery,2364 Road 20,San Pablo,CA,United States,94806-3382,(510)234-7541,,,,,,
Coast Patio Furniture,1010 N Gaffey St,San Pedro,CA,United States,90731-1423,(310)547-1930,,,,,,
Ocean Blue Aquatics,509 S. Weymouth Ave,San Pedro,CA,United States,90732,(310)221-0432,,,,,,
"West End Nursery, Inc.",1938 5th Avenue,San Rafeal,CA,United States,94901-1798,(415)454-4175,,,,,,
ACTIVE PLATING,1411 E. Pomona Street,Santa Ana,CA,United States,92705,(714)501-8822,,,,,,
Flowerdale Nurs Inc,2800 N. Tustin Avenue,Santa Ana,CA,United States,92705-1047,(714)633-9200,,,,,,
Living Waters Art,1811 Carnegie,Santa Ana,CA,United States,92705,(949)222-2247,,,,,,
OSH - Santa Ana Store,1975 E. 17th Street,Santa Ana,CA,United States,92701,(714)835-4440,,,,,,
Statueland,120 S Center St,Santa Ana,CA,United States,92703-4332,(714)839-0060,,,,,,
Stonecreek,3621 W Warner Ave,Santa Ana,CA,United States,92704-5216,(714)549-8874,,,,,,
Waterscape Maintenance Co,2023 S Van Ness Ave,Santa Ana,CA,United States,92707-2639,(714)435-0233,,,,,,
Full Bloom,1331 State St,Santa Barbara,CA,United States,93101-2609,(805)963-8826,,,,,,
La Sumida Nursery,165 So. Patterson,Santa Barbara,CA,United States,93111-2086,(805)964-9944,,,,,,
La Sumida Nursery,418 N. Milpas,Santa Barbara,CA,United States,93105-3135,(805)963-3545,,,,,,
Mi Casa Imports,929 State Street,Santa Barbara,CA,United States,93101,(805)564-1860,,,,,,
"Nova Specialties, Inc.",1064 Via Regina,Santa Barbara,CA,United States,93111,(805)683-0902,,,,,,
Santa Barbara Creek Stones,5385 Hollister Ave #307,Santa Barbara,CA,United States,,(805)964-8989,,,,,,
Seven Day Nursery,3301 State,Santa Barbara,CA,United States,93105,(805)687-8036,,,,,,
OSH - Santa Clarita,26565 N. Bouquet Canyon Road,Santa Clarita,CA,United States,91350,(661)296-0551,,,,,,
Pondsaway,3022 Winkle Ave.,Santa Cruz,CA,United States,95060,(831)462-2852,,,,,,
Pottery Planet,2600 Soquel Ave,Santa Cruz,CA,United States,95062-1407,(831)462-9949,,,,,,
FOUNTAIN MOUNTAIN,"2351 Thompson Way, Ste. C - 2",Santa Maria,CA,United States,93455,(805)928-8886,,,,,,
OSH - Santa Maria Store,1950 South Broadway,Santa Maria,CA,United States,93454,(805)928-7454,,,,,,
San Luis Obispo County Farm Supply,1220 W. Main Street,Santa Maria,CA,United States,93454,(805)922-2737,,,,,,
Whispering Tree Nursery,110 Norris Street,Santa Maria,CA,United States,93455-5340,(805)489-1320,,,,,,
Inge Granzow Interer Designs,407 Georgina Ave,Santa Monica,CA,United States,90402,(310)451-2131,,,,,,
Merrihew's Sunset Garden's,1526 Ocean Park Blvd,Santa Monica,CA,United States,90405-4820,(310)452-1051,,,,,,
Empire Nursery,3747 Guerneville Road,Santa Rosa,CA,United States,95401,(707)546-1113,,,,,,
Mission Ace Lumber & Hardware,4310 Sonoma Hwy,Santa Rosa,CA,United States,95409-4133,(707)539-7070,,,,,,
Paterson Nurseries,2780 Yulupa Avenue,Santa Rosa,CA,United States,95405-8583,(707)542-4781,,,,,,
POND SYSTEMS,320 Tesconi Circle #C2,Santa Rosa,CA,United States,95401,(707)579-6070,,,,,,
"Prickett's Nursery, Inc.",5173 Sonoma Highway,Santa Rosa,CA,United States,95409-4244,(707)539-3030,,,,,,
Harrison Hardware,PO Box 548,Santa Ynez,CA,United States,93460,(805)688-4614,,,,,,
Chocolate Dream Box,19100 Austin Way,Satatoga,CA,United States,95070,(408)867-3344,,,,,,
IVY'S PORCH,5311 Scotts Valley Dr.,Scotts Valley,CA,United States,95066,(831)438-1228,,,,,,
SCARBOROUGH GARDENS,33 El Pueblo Rd.,Scotts Valley,CA,United States,95066,(831)438-4106,,,,,,
Pets & Pond,1276 Fremont Blvd,Seaside,CA,United States,93955-4827,(831)899-2782,,,,,,
ABSOLUTE STATUARY,2227 S. Gravenstein Hwy S,Sebastapol,CA,United States,95472,(707)823-5039,,,,,,
Ortega's,11046 E Manning Ave,Selma,CA,United States,93662,(559)896-8082,,,,,,
Selma Nursery,1515 W. Front Street,Selma,CA,United States,93662-3653,(559)896-2237,,,,,,
El Dorado Nursery,3931 Durock Rd #C,Shingle Springs,CA,United States,95682-8417,(530)676-6555,,,,,,
Woody's Waterworld Landscape,,Sierra Madre,CA,United States,91024,(626)355-8957,,,,,,
Enchanted Way Nursery,2655 1st St,Simi Valley,CA,United States,93065-0917,(805)527-5251,,,,,,
Nu West Design,3254 Nightfall Place,Simi Valley,CA,United States,93063,(805)581-2104,,,,,,
"DOOR AND WINDOW PLUS, INC",2110 Tyler Ave,So. El Monte,CA,United States,91733,(626)448-8321,,,,,,
GIANNINI GARDEN ORNAMENTS,225 Shaw Rd.,So. San Francisco,CA,United States,94080,(650)873-4493,,,,,,
Leonard & Delores Cleaning,109 Knoll Circle,So. San Francisco,CA,United States,94080,(650)873-8249,,,,,,
J & T Imports Dried Flowers,143 S Cedros Ave #F,Solana Beach,CA,United States,92075-1957,(858)481-9781,,,,,,
WEDEKIND'S GARDEN CENTER,21095 Broadway,Sonoma,CA,United States,95476,(707)938-2727,,,,,,
"Columbia Nursery & Florist, Inc.",22004 Parrots Ferry Road,Sonora,CA,United States,95370-9002,(209)532-6871,,,,,,
OSH - Sonora Store,750 E. Mono Way,Sonora,CA,United States,95370,(209)533-7677,,,,,,
Home Scales & Statuary Gardens,250 Main Street,Soquel,CA,United States,95073,(831)624-5279,,,,,,
Home Scapes Statuary Gardens,2504 S Main St,Soquel,CA,United States,95073-2408,(831)462-2260,,,,,,
OSH - South Pasadena Store,452 Fair Oaks Ave,South Pasadena,CA,United States,91030,(626)403-8115,,,,,,
San Marino Nursery,2143 Huntington Dr.,South Pasadena,CA,United States,91030-4948,(626)799-9123,,,,,,
South Pasadena Garden Ctr,1507 El Centro St,South Pasadena,CA,United States,91030-3203,(626)799-9914,,,,,,
Whiting Nursery,900 N. Crane Avenue,St. Helena,CA,United States,94574-2092,(707)963-5358,,,,,,
OSH - Stockton Store,1015 West Hammer Lane,Stockton,CA,United States,95209,(209)951-7478,,,,,,
Ralph's Statuary,3030 S Highway 99,Stockton,CA,United States,95215-8033,(209)464-0745,,,,,,
Ralph's Statuary,3606 Munford Ave,Stockton,CA,United States,95215-8121,(209)463-0836,,,,,,
GARDEN TEMPLE,13055 Ventura Blvd.,Studio City,CA,United States,91604,(818)783-0079,,,,,,
Pan's Gardens,PO Box 1242,Summerland,CA,United States,93067,(805)969-6859,,,,,,
"Sheridan Gardens Nursery, Inc.",8612 Glenoaks Blvd.,Sun Valley,CA,United States,91352-3598,(818)767-8890,,,,,,
Wet Labs Inc,10827 Sherman Way,Sun Valley,CA,United States,91352-4829,(818)755-8604,,,,,,
Sunland Water Gardens,9948 Sunland Blvd,Sunland,CA,United States,91040-1530,(818)353-5131,,,,,,
Sierra Pools,510 S Mathilda Ave,Sunnyvale,CA,United States,94086,(650)298-9162,,,,,,
SummerWinds,861 East El Camino Real,Sunnyvale,CA,United States,,(408)245-4532,,,,,,
Garden Statuary,19130 Ventura Blvd,Tarzana,CA,United States,91356-3225,818-343-4321,,,,,,
West Valley Nursery,19035 Ventura Blvd.,Tarzana,CA,United States,91356-3213,(818)342-2623,,,,,,
Mist Trail Waterfalls,29552 Courtney Place,Temecula,CA,United States,92591,(909)538-3752,,,,,,
R & R Landscape,PO Box 1479,Temecula,CA,United States,92593-1479,(909)677-0458,,,,,,
F X Of Nature,2454 Los Feliz Dr,Thousand Oaks,CA,United States,91362-3146,(805)494-6501,,,,,,
Inspiration Inc.,966 Emerson St.,Thousand Oaks,CA,United States,91362,(805)494-0959,,,,,,
Serendipity Gifts Garden & Decor,2728 E Thousand Oaks Blvd,Thousand Oaks,CA,United States,91362-3256,(805)496-5959,,,,,,
OSH - Torrance Store,4340 Pacific Coast Highway,Torrance,CA,United States,90505,(310)375-3077,,,,,,
Wild Birds Unlimited,25416 Crenshaw Blvd,Torrance,CA,United States,90505,(310)326-2473,,,,,,
Van's Ace Hardware,2695 N. Tracy Blvd,Tracy,CA,United States,95376,(209)835-8286,,,,,,
OSH - Turlock Store,3051 Geer Road,Turlock,CA,United States,95382,(209)667-8885,,,,,,
"Mill Creek Nursery, Inc.",2400 Mill Creek Road,Ukiah,CA,United States,95482-6122,(707)462-8529,,,,,,
Oak Valley Nursery,1575 S. State St.,Ukiah,CA,United States,95482-6710,(707)462-1200,,,,,,
Wet Design,90 Universal City Plz,Universal City,CA,United States,91608-1002,(818)769-6200,,,,,,
CAL PATIO PRODUCTS,161 N. Mountain Ave,Upland,CA,United States,91786,(909)931-2900,,,,,,
I Design,1330 N. Monte Vista Unit 12,Upland,CA,United States,91786,(909)985-8894,,,,,,
"Mt. Fuji Garden Center, Inc.",1555 W. Foothill Boulevard,Upland,CA,United States,91786-3687,(909)985-2219,,,,,,
Mystic Koi Water Gardens,1250 W Arrow Hwy,Upland,CA,United States,91786-5040,(909)920-3767,,,,,,
Van Ness Water Gardens,2460 N Euclid Ave,Upland,CA,United States,91784-1199,(909)982-2425,,,,,,
Waterscape Designs,1088 W 9th St,Upland,CA,United States,91786-5727,(909)981-1731,,,,,,
Sweet Pea's Garden,891 Alamo Drive,Vacaville,CA,United States,95688,(707)448-1000,,,,,,
Don's Palms,30146 Cool Valley Lane,Valley Center,CA,United States,92082,(760)749-0619,,,,,,
"Sego Nursery, Inc.",12126 Burbank Blvd.,Valley Villiage,CA,United States,91607-1709,(818)763-5711,,,,,,
OSH - Van Nuys Store,5960 Sepulveda Boulevard,Van Nuys,CA,United States,91411,(818)779-7292,,,,,,
Pisces Aquatic Creations,7513 Whitaker Ave,Van Nuys,CA,United States,91406-2734,(818)782-8264,,,,,,
Orr Studio,1725 Abbot Kinney Blvd.,Venice,CA,United States,90291,,,,,,,
GREEN THUMB NURSERY,18995 Victoria Ave.,Ventura,CA,United States,93003,(805)642-8517,,,,,,
CNC Commercial,8367 Goshen Ave.,Visalia,CA,United States,93291,(559)651-0991,,,,,,
Koi N Country,27037 S. Mooney Blvd.,Visalia,CA,United States,93277,(559)627-9719,,,,,,
LUIS' NURSERY,139 S. Mariposa Avenue,Visalia,CA,United States,93292,(559)747-5015,,,,,,
OSH - Visalia Store,2230 West Walnut Ave,Visalia,CA,United States,93277,(559)733-5989,,,,,,
North County Pottery Center,430 Vista Village Dr,Vista,CA,United States,92083-4951,(760)758-7776,,,,,,
McKelly,19965 Harrison Ave.,Walnut,CA,United States,91789,(626)926-6235,,,,,,
East Bay Nature,1270 A Newell Avenue,Walnut Creek,CA,United States,94596,(925)407-1333,,,,,,
Longs Drug Stores - Main office,141 N. Civic Drive,Walnut Creek,CA,United States,94596,(925)210-6870,,,,,,
"Alladin Nursery & Florist, Inc.",2905 Freedom Blvd.,Watsonville,CA,United States,95076-0497,(831)724-5785,,,,,,
Granite Rock Co.,350 Technology Drive,Watsonville,CA,United States,95077-5001,(831)768-2047,,,,,,
The Gardener's Corner,PO Box 1607,Weaverville,CA,United States,96093,(530)623-4696,,,,,,
Trinity Nursery and Florist,719 Main St.,Weaverville,CA,United States,96093-1820,(530)623-3225,,,,,,
OSH - West Covina,501 South Vincent,West Convina,CA,United States,91790,(626)337-3066,,,,,,
West Covina Garden Ctr,1426 S Azusa Ave,West Covina,CA,United States,91791-4121,(626)917-5871,,,,,,
OSH - West Los Angeles Store,2020 South Bundy Drive,West Los Angeles,CA,United States,90025,(310)571-3838,,,,,,
Yamaguchi Bonsai Nursery,1905 Sawtelle Blvd.,West Los Angeles,CA,United States,90025-555,(310)473-5444,,,,,,
"Blue Hills Nursery, Inc.",16440 E. Whittier Blvd,Whittier,CA,United States,90603-3094,(562)947-2013,,,,,,
OSH - Whittier Store,13400 Whittier Boulevard,Whittier,CA,United States,90605,(562)907-9961,,,,,,
Cascading Waters,PO BOX 779,Wildmar,CA,United States,92595,(909)471-2550,,,,,,
OSH - Woodland Store,1350 East Main Street,Woodland,CA,United States,95695,(530)662-1162,,,,,,
"Youngmark, Inc.",617 West Street,Woodland,CA,United States,95695-3706,(530)666-1414,,,,,,
Aquatecture Aquatic Design,23047 Ventura Blvd #105,Woodland Hills,CA,United States,91364-1143,(818)223-3200,,,,,,
City Green,"The Promenade Mall, Space 2220",Woodland Hills,CA,United States,91367,(818)704-4395,,,,,,
AQUA TRONIX,3511 Iron Bark Way,Yorba Linda,CA,United States,92886,(714)624-3558,,,,,,
Rockwater,5221 Richfield Road,Yorba Linda,CA,United States,92886,(714)996-2646,,,,,,
Wild Bird Unlimited #237,17611 Yorba Linda Blvd.,Yorba Linda,CA,United States,92886,(714)985-4928,,,,,,
OSH - Yuba City,1262 Stabler Lane,Yuba City,CA,United States,95993,(530)751-1127,,,,,,
Potting Barn,1320 Obanion Rd,Yuba City,CA,United States,95993-9520,(530)673-2100,,,,,,
Sperbeck's Nursery & Cafe,890 Onstott Road,Yuba City,CA,United States,95991-3519,(530)673-8312,,,,,,
"Newell Nurseries, Inc.",34017 Yucaipa Blvd.,Yucaipa,CA,United States,92399-2429,(909)797-9210,,,,,,
TIKI TIME POOLS,4301 Highway 95,Bullhead City,AZ,United States,86426,(928)704-0505,,,,,,
NEAT POOL AND SUPPLY INC.,52 Scott Drive,Lake Havasu,AZ,United States,86403,(928)855-2558,,,,,,
CAREFREE POOL AND SPA,2079 McCulloch Blvd.,Lake Havasu City,AZ,United States,86403,(928)855-2858,,,,,,
ALPHA CHEM OF HAVASU,1499 Mohican Dr.,Lake Havasu City,AZ,United States,86406,,,,,,,
Stan & Linda Clark,5130 Highway 95,Fort Mohave,AZ,United States,86426-9374,(520)768-1210,,,,,,
THE POOL STORE,670 Hancock Road,Bullhead City,AZ,United States,86442,(928)758-3324,,,,,,
ACCURATE POOL SUPPLY,4582 Hwy 95 Ste C,Fort Mojave,AZ,United States,86426,(928)704-1103,,,,,,
LESLIE'S POOL- AZ #625,"4723 S. HWY 95, Suite D",Fort Mojave,AZ,United States,86426,(928)330-3610,,,,,,
PRINCE POOLS,2845 Gordon Drive,Kingman,AZ,United States,86409,(928)692-7118,,,,,,
LA FIESTA POOL SUPPLY,2079 McCullock Blvd. Ste. 1,Lake Havasu,AZ,United States,86403,(928)855-7117,,,,,,
LESLIE'S POOL- AZ #330,1850 McCulloch Blvd. Suite C-6,Lake Havasu,AZ,United States,86403,(928)453-9200,,,,,,
AMICI POOL STORE,"950 N Lake Havasu Ave, Unit C",Lake Havasu,AZ,United States,86403,(928)680-1115,,,,,,
HOME DEPOT-LAKE HAVASU CITY ,100 Center Blvd.,Lake Havasu City,AZ,United States,86404,(928)764-5111,,,,,,
IPSSA - Elk Grove,9105 W. Stockton Boulevard,Elk Grove,CA,United States,95758,(916)420-6421,,,,,,
"IPSSA - Rocklin, West Placer",3830 Cincinnati Ave. Ste. 104,Rocklin,CA,United States,95765,(916)662-4301,,,,,,
Southwest Silver,885 Lincoln Way,Auburn,CA,United States,95603,(530)885-1271,,,,,,
THE SECRET GARDEN,8450 West Stockton Blvd.       eff 9/1/1,Elk Grove,CA,United States,95758,(916)682-6839,,,,,,
Wild Bird Center,5339 Sunrise Blvd.,Fair Oaks,CA,United States,95628,(916)966-5958,,,,,,
CREATIVE CONCRETE PRODUCTS,511 Natoma St,Folsom,CA,United States,95630-2523,(916)985-3312,,,,,,
Placer Pond,150G st ste.104,Lincoln,CA,United States,95648,(916)645-1500,,,,,,
Weigum's Lodi Nursery,401 N. Ham Lane,Lodi,CA,United States,95242-2416,(209)369-6288,,,,,,
Lomeli Gardens,10950 North Highway 99,Lodi,CA,United States,95240,(209)369-6461,,,,,,
Spenser Gardening,4860 Miners Cove Circle,Loomis,CA,United States,95650,(916)652-1243,,,,,,
OSH - Merced Store,"3155 R"" Street""",Merced,CA,United States,95348,(209)725-2146,,,,,,
Reflections of You,3146 North G Street #113,Merced,CA,United States,95340,(209)383-0375,,,,,,
OSH - East Modesto,1800 Oakdale Road Ste #A,Modesto,CA,United States,95355,(209)551-3900,,,,,,
OSH - Modesto Store,2800 Sisk Road,Modesto,CA,United States,95350,(209)577-8088,,,,,,
DV Austin Contractors,8149 Santa Juanita Ave,Orangevale,CA,United States,95662,(916)989-9996,,,,,,
Sunland Garden Center,218 East Walker Street,Orland,CA,United States,95963-1592,(530)865-5777,,,,,,
OSH - Redding Store,2340 Athens Ave,Redding,CA,United States,96001,(530)244-9288,,,,,,
Wyntour Garden,8026 Airport Rd,Redding,CA,United States,96002-9445,(530)365-2256,,,,,,
HIGH LOW NURSERY/JOSE ANTONIO'S GARDEN C,870 Hartnell Ave,Redding,CA,United States,96002,(530)223-3368,,,,,,
Park GreenHouse,12813 W. Ripon Rd.,Ripon,CA,United States,95366,(209)599-7545,,,,,,
POTTERY WORLD,4419 Granite Dr,Rocklin,CA,United States,95677-2131,(916)624-8080,,,,,,
Silverado Building Materials,9297 Jackson Road,Sacramento,CA,United States,95826,(916)361-7374,,,,,,
Professional Landscape Solutions,6108 27th Street,Sacramento,CA,United States,95822,(916)424-3815,,,,,,
FAIR OAKS BLVD. NURSERY,4681 Fair Oaks Blvd.,Sacramento,CA,United States,95864,(916)483-1830,,,,,,
IVY'S PORCH,5311 Scotts Valley Dr.,Scotts Valley,CA,United States,95066,(831)438-1228,,,,,,
SCARBOROUGH GARDENS,33 El Pueblo Rd.,Scotts Valley,CA,United States,95066,(831)438-4106,,,,,,
OSH - Stockton Store,1015 West Hammer Lane,Stockton,CA,United States,95209,(209)951-7478,,,,,,
Van's Ace Hardware,2695 N. Tracy Blvd,Tracy,CA,United States,95376,(209)835-8286,,,,,,
OSH - Yuba City,1262 Stabler Lane,Yuba City,CA,United States,95993,(530)751-1127,,,,,,
Sperbeck's Nursery & Cafe,890 Onstott Road,Yuba City,CA,United States,95991-3519,(530)673-8312,,,,,,
LESLIE'S POOL- CA #532,"7893 Walerga Road, Ste. 100",Antelope,CA,United States,95843,(916)726-1888,,,,,,
"ALL SEASONS POOLS & SPAS, INC.",13130 Lincoln Way,Auburn,CA,United States,95603,(530)888-9889,,,,,,
ALL AMERICAN POOLS,3450 Palmer Drive Suite 4-262,Cameron Park,CA,United States,95682,(530)683-3759,,,,,,
Leslie's Pool- CA #313,4005 Manzanita Ave. Suite 51,Carmichael,CA,United States,95608,(916)488-6930,,,,,,
SPA BROKER,1078 E. 1st. Ave.,Chico,CA,United States,95926,(530)891-6620,,,,,,
PERFECTION POOLS & SPAS INC,172 E. 20th St.,Chico,CA,United States,95928,(530)895-0437,,,,,,
LESLIE'S POOL- CA #448,"2015 Forest Avenue, Ste. 30",Chico,CA,United States,95928,(530)566-1178,,,,,,
LESLIE'S POOL- CA #71,7656 Greenback Lane,Citrus Heights,CA,United States,95610-6615,(916)726-9501,,,,,,
LESLIE'S POOL- DAVIS #780,"1321 W. Covell Blvd., Ste 119A",Davis,CA,United States,95616,(530)792-1342,,,,,,
GREGG'S POOL WORKS,4380 Town Center Blvd. #130,El Dorado Hills,CA,United States,95762,(916)933-7799,,,,,,
LESLIE'S POOL- CA #630,2203 Francisco Dr.,El Dorado Hills,CA,United States,95762,(916)358-5295,,,,,,
ALL CLEAR POOL & SPA,9156 Elk Grove Florin Road,Elk Grove,CA,United States,95624,(916)686-7665,,,,,,
LESLIE'S POOL- CA #321,7717 Laguna Blvd,Elk Grove,CA,United States,95758,(916)683-5778,,,,,,
SAGE POOLS,9160 W. Stockton Blvd.#140,Elk Grove,CA,United States,95758,(916)683-7665,,,,,,
NATHAN'S POOL SUPPLY INC.,8143 Greenback Lane,Fair Oaks,CA,United States,95628,(916)969-8214,,,,,,
LESLIE'S POOL- CA #236,5225 Hazel Ave,Fair Oaks,CA,United States,95628,(916)966-6790,,,,,,
LESLIE'S POOL- CA #368,431 Blue Ravine Rd.,Folsom,CA,United States,95630,(916)983-4098,,,,,,
MAHALO POOL & SPA SUPPLY,9477 Greenback Lane # 501,Folsom,CA,United States,95630,(916)987-1313,,,,,,
LESLIE'S SWIMMING POOL SUPPLIES,431 Blue Ravine Rd.,Folsom,CA,United States,95630,(916)983-4095,,,,,,
ALL CLEAR POOL & SPA,329 S. Lincoln Way,Galt,CA,United States,95632,(209)745-7667,,,,,,
"ALL SEASONS POOLS & SPAS, INC",4120 Douglas Blvd. #305,Granite Bay,CA,United States,95746,(916)773-7665,,,,,,
"ALL SEASONS POOLS & SPAS, INC.",135A W. McKnight Way,Grass Valley,CA,United States,95949,(530)477-2220,,,,,,
HOME DEPOT - LINCOLN #8571,1000 Groveland Lane,Lincoln,CA,United States,95648,(916)434-7337,,,,,,
Leslie's Pool- CA #544,"585 W. Kettleman Lane, Ste. 15",Lodi,CA,United States,95240,(209)366-1340,,,,,,
HOME DEPOT - MADERA #1088,2155 N. Schnoor St.,Madera,CA,United States,93637,(559)675-0127,,,,,,
LESLIE'S POOL- CA Madera #836,2140 W. Cleveland Ave Ste. 112,Madera,CA,United States,93637,(559)674-4345,,,,,,
MAMMOTH SPA CREATIONS,1401 Tavern Road,Mammoth Lakes,CA,United States,93546,(760)924-3091,,,,,,
LESLIE'S POOL- CA #403,1166 S. Main Stret,Manteca,CA,United States,95336,(209)824-9774,,,,,,
VINTAGE POOLS,1780 E. Yosemite,Manteca,CA,United States,95336,(877)575-7665,,,,,,
HOME DEPOT - MANTECA #1006,250 Commerce Ave.,Manteca,CA,United States,95336,(209)825-9139,,,,,,
LESLIE'S POOL- CA #338,1124 W. Olive Ave. Suite 103,Merced,CA,United States,95348,(209)384-1977,,,,,,
"GORDO'S POOL CITY, INC.",2015 Yosemite Blvd.,Modesto,CA,United States,95354,(209)577-3450,,,,,,
IRELAND'S,124 Woodrow Ave.,Modesto,CA,United States,95350,(209)526-8580,,,,,,
Leslie's Pool- CA #52,1421 Coffee Road,Modesto,CA,United States,95355,(209)523-2324,,,,,,
LESLIE'S POOL- CA #340,2100 Standiford Ave,Modesto,CA,United States,95350,(209)238-0726,,,,,,
HOME DEPOT - MODESTO #6601,1617 N. Carpenter Rd.,Modesto,CA,United States,95351,(209)491-0200,,,,,,
HOME DEPOT - MODESTO #6947,1415 E. Hatch Rd.,Modesto,CA,United States,95351,(209)538-1820,,,,,,
Leslie's Pool- CA #560,4740 Natomas Blvd. # 170,Natomas,CA,United States,95835,(916)515-3946,,,,,,
BLUE DOLPHIN POOLS,5475 Skyway,Paradise,CA,United States,95969,(530)877-8415,,,,,,
THE POOL PLACE,4480 Missouri Flat Rd,Placerville,CA,United States,95667,(530)622-5386,,,,,,
BEST BUY POOL SUPPLY,11285 Sunrise Circle Ste. E,Rancho Cordova,CA,United States,95742,(916)861-0012,,,,,,
CALLEN POOL SUPPLY,10343-B Folsom Blvd.,Rancho Cordova,CA,United States,95670,(916)366-7665,,,,,,
ENJOYABLE POOLS & SPAS,2201 El Cejo Cir.,Rancho Cordova,CA,United States,95670,,,,,,,
TUSCAN POOL SUPPLY,10 Damon Avenue,Red Bluff,CA,United States,96080,(530)527-3262,,,,,,
LESLIE'S POOL- CA #123,535 E Cypress Ave,Redding,CA,United States,96002,(530)221-2694,,,,,,
VIKING POOLS OF REDDING,6890 Westside Rd.,Redding,CA,United States,96001,(530)244-0191,,,,,,
SPA & POOL EMPORIUM,6620 Lone Tree Blvd.,Rocklin,CA,United States,95765,(916)772-5550,,,,,,
LESLIE'S POOL- CA #270,1921  Douglas Blvd. Ste 101,Roseville,CA,United States,95661,(916)789-2095,,,,,,
LESLIE'S POOL- CA #550,"6726 Stanford Ranch Rd, Ste. 9",Roseville,CA,United States,95678,(916)789-4153,,,,,,
"ALL SEASONS POOLS & SPAS, INC",973 Pleasant Grove Blvd.,Roseville,CA,United States,95678,(916)771-4488,,,,,,
ME POOLS,"Mailing: 1382 Blue Oaks Blvd., Ste 200",Roseville,CA,United States,95678,(800)772-0467,,,,,,
LESLIE'S POOL- CA #139,4391 Arden Way,Sacramento,CA,United States,95864,(916)483-8022,,,,,,
LESLIE'S POOL- CA #268,7215 Greenhaven Drive Ste. B,Sacramento,CA,United States,95831,(916)392-6277,,,,,,
Leslie's Pool- CA #3010,"4641 Pell Drive, Ste. 16",Sacramento,CA,United States,95838,,,,,,,
ALL CLEAR POOL & SPA,300 Florin Road,Sacramento,CA,United States,95831,(916)392-7665,,,,,,
ALL CLEAR POOL & SPA,9645 Folsom Blvd,Sacramento,CA,United States,95827,(916)361-7665,,,,,,
LESLIE'S COMMERCIAL CENTER ,"464 Pell Drive, Ste. #16",Sacramento,CA,United States,95838-2000,(916)564-4277,,,,,,
HOME DEPOT - SACRAMENTO ,1461 Meadowview Rd.,Sacramento,CA,United States,95832,(916)399-9905,,,,,,
HOME DEPOT - SACRAMENTO ,2000 Howe Ave.,Sacramento,CA,United States,95825,(916)643-2098,,,,,,
AQUA CLEAR,2618 Baybridge St.,Sacramento,CA,United States,95833,(916)212-3026,,,,,,
SPLASH POOL & SPA,16010 Via Easte Rd.,Sonora,CA,United States,95370,(209)586-6000,,,,,,
Backyard Spa & Pool Essentials,612 Stockton St,Sonora,CA,United States,95370,(209)588-2888,,,,,,
Leslie's Pool- CA #62,6277 Pacific Ave,Stockton,CA,United States,95207-3713,(209)478-4925,,,,,,
HOME DEPOT - STOCKTON #662,3818 E. Hammer Ln.,Stockton,CA,United States,95212,(209)476-9600,,,,,,
HOME DEPOT - STOCKTON #1022,5010 Feather River Dr.,Stockton,CA,United States,95219,(209)474-8285,,,,,,
LESLIE'S POOL- CA #458,1851 W. 11th Street,Tracy,CA,United States,95376,(209)839-9880,,,,,,
HOME DEPOT - TRACY #1020,2461 Naglee Rd.,Tracy,CA,United States,95304,(209)834-8975,,,,,,
Fremont Pool Supply,,Tracy,CA,United States,95304,(209)833-9200,,,,,,
HOME DEPOT - TURLOCK #1001,2800 Countryside Dr.,Turlock,CA,United States,95380,(209)656-1911,,,,,,
El Dorado Pool & Spa,,Turlock,CA,United States,95380,209634-8949,,,,,,
SALEM SWIMMING POOL SUPPLIES,929 Garden Highway,Yuba City,CA,United States,95991,(530)674-3586,,,,,,
Leslie's Pool- CA #623,1352 Colusa Ave Ste A,Yuba City,CA,United States,95993,(530)751-3052,,,,,,
"Sunburst Patio, Fireside, Pools and Spas",539 Colusa Ave.,Yuba City,CA,United States,95991,(530)673-3700,,,,,,
HOME DEPOT - YUBA CITY #1019,1100 Tharp Rd.,Yuba City,CA,United States,95993,(530)755-1715,,,,,,
Echter's Nursery and Garden Center,5150 Garrison Street,Arvada,CO,United States,80002,(303)424-7979,,,,,,
Roper,"14707 E. 2nd Ave, 3rd floor",Aurora,CO,United States,80011,(303)571-2201,,,,,,
O'Toole's Garden Centers,9400 N Wadsworth Pkwy,Broomfield,CO,United States,80021,(303)232-6868,,,,,,
BRADY'S GARDEN CENTER,1121 S. 9th Street,Canon City,CO,United States,81212,(719)275-1286,,,,,,
WILD BIRDS UNLIMITED,3357 N Academy Blvd,Colorado Springs,CO,United States,80917-5103,(719)596-1819,,,,,,
Luma Inc.,1 Lake Avenue,Colorado Springs,CO,United States,80906,(719)577-5835,,,,,,
GOOD EARTH GARDEN CENTER,1330 N. Walnut St.,Colorado Springs,CO,United States,80905,(719)473-3399,,,,,,
Wild Bird Center,1685 S Colorado Blvd #P,Denver,CO,United States,80222-4011,(303)758-7575,,,,,,
BIRDSALL & CO,1540 S Broadway,Denver,CO,United States,80210-2608,(303)722-2535,,,,,,
GROUNDCOVERS GREENHOUSE,4301 E. IIiff Ave,Denver,CO,United States,80222-6016,(303)758-8957,,,,,,
Saint Anthony Health Foundation,4231 W. 16th Avenue,Denver,CO,United States,80204,(303)629-2039,,,,,,
Falls By Fox,2001 E. 58th Ave,Denver,CO,United States,80216,(303)904-9977,,,,,,
European Distictive Properties,1000 E. Oxfard Lane,Englewood,CO,United States,80113,(303)523-1566,,,,,,
KOI LAGOON,3201 E. Mulberry Unit G,Fort Collins,CO,United States,80524,(970)484-9162,,,,,,
WILD BIRDS UNLIMITED,3636 S. College Suite C,Fort Collins,CO,United States,80525,(970)225-2557,,,,,,
The Koi Lagoon,"3201 E. Mulberry St, Unit H-2",Fort Collins,CO,United States,80524-8475,(970)484-9162,,,,,,
The Perennial Gardener,160 North College Avenue,Fort Collins,CO,United States,80524,(970)224-3987,,,,,,
BOOKCLIFF GARDENS,755 26 Road,Grand Junction,CO,United States,81501,(970)242-7769,,,,,,
Wild Bird Unlimited,2402 17th Street,Greeley,CO,United States,80634,(970)352-6007,,,,,,
Sunshine Landscaping,257 W. Sylvestor,Highlands Ranch,CO,United States,80129,(303)683-1000,,,,,,
JARED'S NURSERY,10500 W. Bowles Ave.,Littleton,CO,United States,80127,(303)979-6022,,,,,,
THE FLOWER BIN,1805 Nelson Road,Longmont,CO,United States,80501,(303)772-3454,,,,,,
"Rocky Mountain Fountains, LLC",PO Box 820,Parker,CO,United States,80134,(303)915-7900,,,,,,
Parker Sprinkler Supply,6204 E. Pine Lane,Parker,CO,United States,80138,(303)805-1575,,,,,,
Wild Bird Center,3244 Youngfield St Unit #E,Wheat Ridge,CO,United States,80033-5243,(303)231-9252,,,,,,
"Big R of Trinidad, Inc.",2208 Freedom St.,Trinidad,CO,United States,80021,(303)467-2644,,,,,,
Norman's Memorials,7805 W 44th Ave,Wheat Ridge,CO,United States,80015,(303)627-7677,,,,,,
Wild Birds Unlimited,"7370 W 88th Ave, Unit A",Arvado,CO,United States,80302-8747,(303)499-8113,,,,,,
Nearly Everything.Com,5343 S. Pitkin Court,Aurora,CO,United States,80601-2608,(303)654-0840,,,,,,
Loka Environments,698 Dixon Rd,Boulder,CO,United States,81520-9074,(970)523-4357,,,,,,
Brighton Landscaping Svc,397 S 24th Ave,Brighton,CO,United States,80909-4725,(719)636-3942,,,,,,
Odom's Home Improvement,3234 D 1 4 Rd,Clifton,CO,United States,80918-2709,(719)531-0635,,,,,,
Imperial Water Gardens,2213 E Saint Vrain St,Colorado Springs,CO,United States,80904,(719)634-5460,,,,,,
Nature Landscape,4670 Diamond Dr,Colorado Springs,CO,United States,80904,(719)634-5460,,,,,,
Hutchison Concrete Creations,2919 W. Colorado Avenue,Colorado Springs,CO,United States,80920,(719)548-9863,,,,,,
"Concrete Creations, LLC",2919 W. Colorado Avenue,Colorado Springs,CO,United States,80231,(303)987-1065,,,,,,
Wild Bird Center,1722 E. Woodmen Road,Colorado Springs,CO,United States,80211-4501,(303)480-5234,,,,,,
Wild Birds Unlimited,7400 E Hampden Ave,Denver,CO,United States,80211-3903,(303)433-1893,,,,,,
Green Man Walls,3315 W 23rd Ave,Denver,CO,United States,80206-3439,(303)333-4050,,,,,,
Amato Of Denver,2501 16th St,Denver,CO,United States,80210-2206,(303)744-3505,,,,,,
Wild Flowers,1201 Madison St,Denver,CO,United States,80219-2239,(303)934-3244,,,,,,
True Pump & Equipment Inc,1429 S Broadway,Denver,CO,United States,80217,(303)514-7790,,,,,,
Mile-Hi Statuary,5048 Morrison Rd,Denver,CO,United States,80216-1033,(303)429-8062,,,,,,
Divine Light & Love Inc.,PO Box 5461,Denver,CO,United States,80222-4912,(303)757-4949,,,,,,
Paulino Gardens,6280 Broadway,Denver,CO,United States,80236-2808,(303)789-4747,,,,,,
Country Fair Garden Center,2190 S. Colorado Blvd,Denver,CO,United States,80209-4724,(303)777-3729,,,,,,
U & I Enterprises-Iris 4U,2700 W. Amherest Ave,Denver,CO,United States,80221-1947,(303)428-4043,,,,,,
Rain Field,867 S. University Blvd,Denver,CO,United States,80210-4027,(303)733-6291,,,,,,
Elliot Gardens,6321 Lowell Blvd,Denver,CO,United States,80209,(303)595-8341,,,,,,
Logan St Gardens,1925 S. Logan Street,Denver,CO,United States,80110,(303)789-2727,,,,,,
Ruins Denver,70 S> Broadway,Denver,CO,United States,80439-7019,(303)674-0097,,,,,,
Alligator Spa & Pool Services,3000 S. Tejon,Englewood,CO,United States,80524-3696,(970)482-1984,,,,,,
Nature Scape,31164 Snowshoe Rd,Evergreen,CO,United States,,,,,,,,
Fort Collins Nursery,2121 E Mulberry St,Fort Collins,CO,United States,81052,(719)336-7728,,,,,,
Wade in the Water,,Greeley,CO,United States,80122-2361,(303)694-4616,,,,,,
"Big R of Lamar, Inc.",P.O. Box 1049,Lamar,CO,United States,80122-2532,(303)740-7475,,,,,,
Wild Bird Center,5270 E Arapahoe Road,Littleton,CO,United States,80125,(303)791-1999,,,,,,
Hosek Enterprises,7453 S Glencoe Way,Littleton,CO,United States,81004-3112,(719)564-0825,,,,,,
Nature's Way Waterscape Inc,13630 Blakeland Ct Lot 5,Littleton,CO,United States,81001,(719)543-8149,,,,,,
Jalisco Imports,410 W Northern Ave,Pueblo,CO,United States,80477,(970)871-0449,,,,,,
"Big R of Pueblo, Inc.",1020 Bonforte Blvd.,Pueblo,CO,United States,81001,(719)845-1587,,,,,,
The Garden Pit,PO Box 776437,Steamboat Springs,CO,United States,80487,(303)422-3425,,,,,,
QUALITY POOLS & SPAS,2083 30th St.,Boulder,CO,United States,80301,(303)786-9700,,,,,,
ARROWHEAD SPA AND POOL,3514 E. Saint Vrain St. Unit B,Colorado Springs,CO,United States,80909,(719)596-7373,,,,,,
CRYSTAL CLEAR POOLS & SPAS,360 W. 84th Ave.,Denver,CO,United States,80260,(720)214-0330,,,,,,
"THE POOLMAN, INC.",3106 W. Hampden Ave.,Englewood,CO,United States,80110,(303)781-4409,,,,,,
MALIBU POOL & PATIO,330 North Ave.,Grand Junction,CO,United States,81501,(970)242-2505,,,,,,
"Marina Pool , Spa & Patio",7777 W. Jewell Ave,Lakewood,CO,United States,80232,(303)985-0077,,,,,,
Plebian Pools Inc.,614 E. 4th St.,Pueblo,CO,United States,81001,(719)542-5993,,,,,,
"Carousel Pool Supply Co., Inc.",8600 W. 52nd Ave.,Arvada,CO,United States,80002,(303)542-9114,,,,,,
Crystal River Spas,1197 Main Street,Carbondale,CO,United States,81623,(970)963-2100,,,,,,
AZ Partsmasters,5695 Parachute Circle,Colorado Springs,CO,United States,80916,(719)591-7272,,,,,,
Spa Palace,4275 N. Nevada Ave.,Colorado Springs,CO,United States,80907,(719)528-1881,,,,,,
Hot Tub Heaven,4039 Tutt Blvd.,Colorado Springs,CO,United States,,(719)528-8011,,,,,,
"All City Pools & Spas, Inc.","2645 S Santa Fe Dr, Ste 7A",Denver,CO,United States,80223-4401,(303)777-2800,,,,,,
High Country Pools & Spas,6541 S. College Ave.,Fort Collins,CO,United States,80525,(970)226-2657,,,,,,
Spa Palace,7620 S. College Ave.,Fort Collins,CO,United States,80525,(970)593-1000,,,,,,
Spa World,2040 S. College Ave,Fort Collins,CO,United States,80525,(970)237-5885,,,,,,
"Watermark Spas & Pools, INC",2491 Highway 6 and 50,Grand Junction,CO,United States,81505,(970)241-4133,,,,,,
Spa Palace,2030 E. County Line Rd. Unit L,Highland Ranch,CO,United States,80126,(303)730-2142,,,,,,
Action Swimming Pool & Spa,2660 Youngfeild Street,Lakewood,CO,United States,80215,(303)431-8501,,,,,,
Carefree Spas & Pools Inc.,3869 Norwood Drive,Littleton,CO,United States,80125,(303)422-0100,,,,,,
Spa Palace,8601 B-2 W. Cross Drive,Littleton,CO,United States,80123,(303)972-4932,,,,,,
Mountain Mist Pool & Spa,1240 Ken Pratt Blvd.,Longmont,CO,United States,80504,(303)772-1125,,,,,,
Paradise Pools,2648 McCormick Ave.,Pueblo,CO,United States,81001,(719)634-6053,,,,,,
Spa Palace,3426 N. Elizabeth,Pueblo,CO,United States,81008,(719)542-1811,,,,,,
C.E.M. Sales & Service,3820 S. Federal Blvd,Sheridan,CO,United States,80110,(303)762-9470,,,,,,
Spa Palace,10138 N. Wadsworth Parkway,Westminster,CO,United States,80021,(303)432-8900,,,,,,
Atlantis Pool and Spa,12027 Pecos St,Westminster,CO,United States,80234,(303)280-5555,,,,,,
